{"type":"FeatureCollection","features":[{"type":"Feature","properties":{"name":"淀川","name:en":"Yodo River","kind":"river"},"geometry":{"type":"LineString","coordinates":[[135.9062019,34.982585],[135.9062624,34.9821548],[135.906345,34.979937],[135.90638,34.979731],[135.90648,34.979224],[135.906646,34.978555],[135.906768,34.978238],[135.906831,34.977726],[135.906869,34.977256],[135.906951,34.976807],[135.906987,34.976476],[135.907047,34.975972],[135.907077,34.975575],[135.907088,34.975156],[135.907058,34.974949],[135.906932,34.9744],[135.906704,34.973433],[135.906543,34.972862],[135.906295,34.972128],[135.906205,34.971828],[135.90608,34.971366],[135.906002,34.971079],[135.905741,34.970256],[135.905637,34.969883],[135.9056,34.969692],[135.905521,34.96913],[135.905429,34.968595],[135.905318,34.967975],[135.905236,34.967382],[135.905246,34.967113],[135.905284,34.966416],[135.9053185,34.9662297],[135.90537,34.966031],[135.905437,34.965801],[135.905602,34.965307],[135.905732,34.96499],[135.906009,34.964473],[135.906318,34.964002],[135.9067,34.963572],[135.907422,34.962895],[135.908748,34.961751],[135.909267,34.961301],[135.9093977,34.9611513],[135.909715,34.96079],[135.909885,34.960535],[135.910086,34.960237],[135.910231,34.959983],[135.910403,34.959488],[135.910529,34.958932],[135.910589,34.958485],[135.910644,34.958064],[135.91068,34.957668],[135.910667,34.957271],[135.910653,34.956558],[135.910639,34.955992],[135.910669,34.955592],[135.910715,34.954961],[135.91072,34.954899],[135.910753,34.954473],[135.910816,34.953545],[135.910819,34.953303],[135.9108243,34.9532276],[135.910859,34.952733],[135.910913,34.951493],[135.91095,34.951171],[135.911011,34.950848],[135.91125,34.950398],[135.91137,34.950162],[135.9114867,34.9499843],[135.9116805,34.949664],[135.9118468,34.9492537],[135.9119008,34.9489407],[135.9119304,34.9486164],[135.911909,34.948268],[135.911882,34.947997],[135.911801,34.947403],[135.911712,34.947089],[135.911573,34.946792],[135.91132,34.94637],[135.911079,34.946018],[135.910838,34.94558],[135.910664,34.945249],[135.910533,34.944875],[135.910426,34.944557],[135.9104086,34.9444593],[135.9103898,34.944363],[135.910315,34.943979],[135.91029,34.943772],[135.910281,34.943395],[135.910276,34.943093],[135.910316,34.942561],[135.910334,34.942063],[135.91034,34.941555],[135.910311,34.940811],[135.910274,34.940305],[135.910237,34.939841],[135.910227,34.939599],[135.9102337,34.9394454],[135.910248,34.939036],[135.910293,34.938479],[135.9102843,34.9376645],[135.9103016,34.9375102],[135.9103646,34.937343],[135.910466,34.93712],[135.910531,34.936928],[135.910636,34.936709],[135.910763,34.936532],[135.910883,34.936404],[135.911052,34.936277],[135.911374,34.936091],[135.911796,34.935867],[135.912245,34.935648],[135.912578,34.935477],[135.912835,34.935314],[135.913022,34.935177],[135.913148,34.93506],[135.913308,34.934855],[135.91347,34.934626],[135.913644,34.934363],[135.913799,34.934108],[135.913891,34.933896],[135.913981,34.933719],[135.914076,34.933587],[135.914253,34.933387],[135.914382,34.933255],[135.9148551,34.93287],[135.915172,34.932597],[135.915321,34.932443],[135.915456,34.932264],[135.915593,34.932057],[135.915735,34.931773],[135.915845,34.931475],[135.91593,34.931129],[135.915955,34.931004],[135.915943,34.930858],[135.915948,34.930718],[135.9159337,34.9305022],[135.915926,34.930385],[135.915916,34.930149],[135.915901,34.929665],[135.915907,34.929569],[135.915942,34.929242],[135.915994,34.928966],[135.916039,34.928775],[135.916122,34.928572],[135.916181,34.928443],[135.916226,34.928372],[135.916291,34.928261],[135.9165779,34.9278147],[135.916837,34.927278],[135.916929,34.927064],[135.916962,34.926974],[135.916997,34.92677],[135.91704,34.926363],[135.91703,34.926198],[135.916978,34.926042],[135.916861,34.925733],[135.91681,34.925623],[135.916734,34.925462],[135.91663,34.925327],[135.916543,34.92519],[135.916427,34.925047],[135.916188,34.92476],[135.915957,34.924479],[135.915696,34.92417],[135.915182,34.923694],[135.914851,34.923441],[135.914719,34.923337],[135.91459,34.923257],[135.914508,34.923223],[135.914421,34.923194],[135.914329,34.923174],[135.914229,34.923157],[135.913734,34.923044],[135.913677,34.923013],[135.913572,34.922947],[135.913448,34.922849],[135.913323,34.922711],[135.913048,34.922363],[135.9129456,34.9221258],[135.9128748,34.9219438],[135.9128008,34.9216902],[135.9126992,34.921471],[135.9126712,34.9212078],[135.9127315,34.920916],[135.9127464,34.9205976],[135.9129229,34.9200333],[135.913154,34.919653],[135.913352,34.919298],[135.913471,34.918428],[135.9134309,34.917617],[135.9134638,34.9169656],[135.9135711,34.9160758],[135.9136501,34.9151124],[135.9137112,34.9141228],[135.913723,34.9137878],[135.9134791,34.9131141],[135.9133651,34.9129086],[135.9127406,34.9124897],[135.9117323,34.9121814],[135.9090277,34.9112418],[135.9081999,34.9111459],[135.9072712,34.9112171],[135.906641,34.911148],[135.905365,34.911028],[135.9043705,34.9108987],[135.903251,34.910718],[135.90269,34.9107607],[135.902268,34.9107917],[135.901665,34.910843],[135.901249,34.911159],[135.90082,34.912073],[135.900106,34.912765],[135.899633,34.913221],[135.899486,34.913363],[135.898902,34.913708],[135.89811,34.914182],[135.897131,34.914891],[135.896346,34.915152],[135.895191,34.915261],[135.893769,34.915185],[135.892627,34.91506],[135.891496,34.914874],[135.890526,34.914869],[135.889398,34.914888],[135.888226,34.914907],[135.887082,34.915011],[135.885637,34.915288],[135.884751,34.915318],[135.884183,34.915337],[135.883132,34.915326],[135.881982,34.915495],[135.880431,34.915822],[135.879696,34.916067],[135.8789336,34.9161913],[135.877225,34.916171],[135.876167,34.916198],[135.87496,34.916198],[135.873657,34.916056],[135.872865,34.915833],[135.872161,34.915517],[135.871903,34.915208],[135.87168,34.914865],[135.871403,34.914378],[135.871337,34.913675],[135.87138,34.913223],[135.871502,34.91193],[135.871483,34.910976],[135.871344,34.910397],[135.871186,34.909952],[135.870837,34.909272],[135.870481,34.90867],[135.8701,34.908208],[135.869676,34.90782],[135.869071,34.9075],[135.8684535,34.9073106],[135.868347,34.907278],[135.867383,34.906999],[135.867379,34.906996],[135.866962,34.906706],[135.866093,34.906066],[135.865011,34.905195],[135.863139,34.9037],[135.862941,34.903391],[135.862928,34.903147],[135.863001,34.902913],[135.863277,34.902496],[135.864989,34.900463],[135.865835,34.899459],[135.866539,34.898455],[135.867014,34.897606],[135.867297,34.896873],[135.867587,34.895734],[135.8677,34.895042],[135.867706,34.894108],[135.867653,34.89372],[135.867528,34.89334],[135.867311,34.892939],[135.866645,34.892144],[135.866639,34.892139],[135.8663,34.891901],[135.865942,34.891745],[135.86549,34.891675],[135.863227,34.891571],[135.86269,34.891493],[135.8625461,34.8914357],[135.862406,34.89138],[135.86216,34.891205],[135.861718,34.890788],[135.860045,34.888351],[135.859578,34.887495],[135.859335,34.886923],[135.859293,34.886532],[135.859296,34.886443],[135.859304,34.88622],[135.85963,34.885492],[135.859683,34.885235],[135.85962,34.884854],[135.859368,34.884351],[135.859094,34.883978],[135.858694,34.883717],[135.85841,34.883622],[135.85802,34.883578],[135.857473,34.883648],[135.85681,34.883839],[135.855405,34.884343],[135.85491,34.884377],[135.854468,34.884264],[135.854078,34.884048],[135.853191,34.883377],[135.852402,34.882882],[135.851876,34.882657],[135.851371,34.882518],[135.849544,34.882266],[135.84905,34.882049],[135.84866,34.881676],[135.847228,34.879556],[135.846897,34.879081],[135.846424,34.878552],[135.845508,34.877841],[135.84494,34.877173],[135.844624,34.876748],[135.844297,34.875963],[135.844108,34.875165],[135.843992,34.874367],[135.843928,34.873504],[135.843896,34.872033],[135.843844,34.871625],[135.843686,34.871191],[135.84337,34.87087],[135.843023,34.870636],[135.842587,34.870497],[135.84143,34.870436],[135.839035,34.870445],[135.838559,34.870392],[135.837845,34.870313],[135.83725,34.870181],[135.835908,34.869677],[135.835343,34.869597],[135.834963,34.86961],[135.834642,34.86972],[135.8343805,34.8698694],[135.834243,34.869948],[135.833595,34.8705],[135.8333105,34.870948],[135.832923,34.871558],[135.832483,34.872746],[135.8324096,34.8730782],[135.832289,34.873624],[135.831864,34.875137],[135.831765,34.875339],[135.83129,34.8763],[135.830754,34.877111],[135.8295,34.878415],[135.829118,34.878915],[135.828924,34.879363],[135.828805,34.880181],[135.828719,34.880489],[135.828599,34.880651],[135.8281867,34.8808933],[135.828084,34.8809249],[135.8280616,34.8809318],[135.8278939,34.8809482],[135.8277287,34.8809801],[135.8274835,34.8810177],[135.827327,34.881049],[135.827099,34.881177],[135.826738,34.881373],[135.826467,34.881521],[135.826229,34.881631],[135.8259,34.881784],[135.825331,34.882042],[135.825051,34.882164],[135.824838,34.882249],[135.824684,34.882296],[135.8246493,34.8823046],[135.824422,34.882361],[135.8243171,34.882384],[135.824249,34.882399],[135.824175,34.882413],[135.824104,34.882421],[135.823992,34.882421],[135.823907,34.882417],[135.823741,34.882389],[135.823566,34.882351],[135.823325,34.882292],[135.823186,34.882249],[135.823038,34.882208],[135.822929,34.882172],[135.822344,34.881972],[135.821529,34.881694],[135.821261,34.881619],[135.821032,34.88156],[135.820898,34.881531],[135.820802,34.881515],[135.820701,34.881508],[135.820586,34.88151],[135.820518,34.881517],[135.820425,34.881532],[135.820301,34.881559],[135.820145,34.881606],[135.819746,34.881748],[135.81945,34.881853],[135.819253,34.881934],[135.818818,34.882096],[135.818736,34.882134],[135.818634,34.88219],[135.818533,34.882257],[135.818456,34.882307],[135.818391,34.882341],[135.818309,34.882374],[135.818177,34.882415],[135.818021,34.882457],[135.817816,34.882513],[135.817561,34.882581],[135.817411,34.882619],[135.817236,34.882666],[135.817107,34.882713],[135.816918,34.882796],[135.81652,34.882992],[135.816296,34.883101],[135.816064,34.883236],[135.815973,34.883295],[135.8159098,34.8833458],[135.815861,34.883385],[135.815776,34.883461],[135.815683,34.883558],[135.815617,34.883632],[135.81548,34.883819],[135.81526,34.884119],[135.815145,34.884288],[135.815066,34.884409],[135.815013,34.884492],[135.814947,34.884605],[135.814887,34.884718],[135.814755,34.884965],[135.814645,34.885175],[135.814579,34.885294],[135.814478,34.885492],[135.814436,34.885562],[135.814379,34.885639],[135.814308,34.885718],[135.814121,34.885913],[135.814044,34.885992],[135.813932,34.886105],[135.813814,34.886204],[135.81363,34.886361],[135.813461,34.886501],[135.813277,34.886645],[135.813151,34.886732],[135.813011,34.886822],[135.812677,34.88702],[135.812442,34.887144],[135.812346,34.887204],[135.812288,34.887245],[135.812225,34.887301],[135.812121,34.887389],[135.811817,34.887666],[135.811521,34.887931],[135.811274,34.888163],[135.810534,34.888867],[135.810027,34.889356],[135.809717,34.889655],[135.809547,34.889824],[135.80938,34.889988],[135.809218,34.89015],[135.809048,34.890321],[135.808681,34.890692],[135.808398,34.890981],[135.808278,34.891102],[135.808181,34.891183],[135.808083,34.89126],[135.807823,34.891448],[135.807617,34.891595],[135.807348,34.891797],[135.807143,34.891961],[135.807033,34.892056],[135.806814,34.892258],[135.806578,34.892492],[135.80617,34.892893],[135.806052,34.892994],[135.805356,34.893577],[135.8052079,34.8937161],[135.804977,34.893933],[135.804571,34.894324],[135.804338,34.894554],[135.80407,34.894826],[135.803858,34.895062],[135.803705,34.895245],[135.803578,34.895416],[135.803494,34.895535],[135.803433,34.895634],[135.803356,34.895756],[135.803271,34.895911],[135.803145,34.896154],[135.803045,34.896346],[135.802963,34.896499],[135.802897,34.8966],[135.802837,34.896684],[135.802768,34.896758],[135.802491,34.897041],[135.802373,34.897172],[135.802269,34.897298],[135.802187,34.897402],[135.802116,34.897496],[135.802047,34.897595],[135.801956,34.897751],[135.801805,34.898014],[135.801533,34.898593],[135.801484,34.898699],[135.801217,34.899278],[135.800942,34.899863],[135.800865,34.90001],[135.800738,34.900233],[135.800675,34.900334],[135.800609,34.900422],[135.800524,34.900525],[135.800414,34.900642],[135.8003751,34.9006838],[135.800305,34.900759],[135.800148,34.900908],[135.800011,34.901041],[135.799921,34.901135],[135.799822,34.901252],[135.799679,34.901426],[135.799509,34.901633],[135.799292,34.901889],[135.799087,34.902137],[135.799018,34.902215],[135.798799,34.902466],[135.798604,34.902682],[135.798469,34.902819],[135.7982352,34.9030596],[135.797976,34.903283],[135.797734,34.903494],[135.797458,34.90373],[135.7971502,34.9042997],[135.7969098,34.904805],[135.7967365,34.9050358],[135.7966681,34.9053903],[135.7961317,34.9060888],[135.7960559,34.9062398],[135.7959479,34.9064925],[135.795632,34.906681],[135.7953186,34.9069467],[135.7946191,34.907184],[135.7939808,34.9073962],[135.7930313,34.9076336],[135.79225,34.9078562],[135.7917558,34.9080268],[135.7911308,34.9082943],[135.7908876,34.9084648],[135.7907864,34.908716],[135.7905833,34.9090789],[135.7905174,34.9093392],[135.7904546,34.9095686],[135.79029,34.9099687],[135.7901611,34.9102254],[135.7899352,34.910533],[135.789814,34.91087],[135.78984,34.911083],[135.789844,34.911118],[135.789892,34.911508],[135.789927,34.911817],[135.789962,34.912092],[135.790002,34.912365],[135.790045,34.91262],[135.790094,34.912929],[135.79015,34.913265],[135.790191,34.913546],[135.790231,34.913835],[135.790261,34.914051],[135.790279,34.914261],[135.790292,34.914491],[135.7903,34.91468],[135.7903,34.914813],[135.790283,34.91496],[135.790258,34.915149],[135.790233,34.915356],[135.790202,34.915548],[135.790172,34.915697],[135.790111,34.915908],[135.790056,34.916104],[135.789989,34.916332],[135.789934,34.916546],[135.789904,34.916634],[135.789845,34.916997],[135.789933,34.917877],[135.789913,34.918439],[135.789719,34.919007],[135.789748,34.919294],[135.7896738,34.919609],[135.789618,34.919778],[135.789559,34.919922],[135.789493,34.920055],[135.789455,34.920125],[135.789408,34.920181],[135.789339,34.920251],[135.789257,34.920311],[135.78919,34.9204034],[135.7890976,34.9205138],[135.7889536,34.920664],[135.7887779,34.9207934],[135.788583,34.9209342],[135.7883923,34.9210976],[135.7881686,34.921302],[135.7877922,34.9215281],[135.7874747,34.9218044],[135.7870981,34.9220962],[135.78681,34.9223675],[135.7864671,34.9228647],[135.7862377,34.9231165],[135.7860728,34.9233002],[135.7857485,34.9235243],[135.7851995,34.9240131],[135.7844148,34.9244347],[135.7837074,34.9247446],[135.7833055,34.9248952],[135.7829091,34.9250271],[135.7825265,34.925136],[135.7821091,34.9253295],[135.7817694,34.9254962],[135.781392,34.92572],[135.78123,34.925868],[135.781087,34.925992],[135.780958,34.926107],[135.780843,34.926206],[135.780755,34.926285],[135.780651,34.926382],[135.780517,34.926494],[135.780407,34.926586],[135.780333,34.926636],[135.7802512,34.9267055],[135.7801435,34.9267743],[135.7800413,34.926849],[135.7799161,34.926928],[135.7793418,34.9272801],[135.7791849,34.9273937],[135.7790456,34.9274801],[135.7788588,34.9275847],[135.7786408,34.9276877],[135.7784572,34.9277885],[135.7783087,34.927848],[135.7782036,34.9278961],[135.7780703,34.9279438],[135.7779099,34.927996],[135.7777116,34.9280588],[135.7774409,34.928143],[135.7772129,34.9281918],[135.7769961,34.9282388],[135.7767642,34.9282431],[135.7765005,34.9282386],[135.7763011,34.9282018],[135.7760532,34.9281547],[135.7757842,34.9280742],[135.7755602,34.9279714],[135.7753292,34.9278727],[135.775114,34.927818],[135.774963,34.927808],[135.774769,34.927801],[135.774566,34.927796],[135.774394,34.92779],[135.774219,34.927789],[135.774161,34.927789],[135.773934,34.927791],[135.773718,34.927791],[135.773472,34.92779],[135.773264,34.92779],[135.773006,34.92779],[135.77282,34.927789],[135.772651,34.927789],[135.772536,34.927787],[135.772396,34.927784],[135.7723,34.927786],[135.772215,34.927791],[135.772136,34.9278],[135.772084,34.927802],[135.771865,34.927806],[135.771737,34.927799],[135.77152,34.927772],[135.771351,34.92774],[135.771023,34.927683],[135.770642,34.92761],[135.770298,34.927526],[135.770002,34.927463],[135.769707,34.927388],[135.769401,34.927308],[135.769146,34.927225],[135.768895,34.927155],[135.768635,34.927073],[135.768386,34.926985],[135.768203,34.926912],[135.767971,34.926813],[135.767807,34.926731],[135.767794,34.926724],[135.767695,34.926668],[135.767632,34.926623],[135.7675116,34.9265183],[135.767323,34.926354],[135.7671212,34.9262039],[135.7669109,34.9260862],[135.7666413,34.9259209],[135.7664233,34.9258],[135.7661923,34.9256651],[135.765997,34.9255486],[135.765844,34.9254576],[135.765611,34.925331],[135.765545,34.925306],[135.765329,34.925224],[135.765127,34.925147],[135.764866,34.925062],[135.76485,34.925057],[135.764632,34.924993],[135.764435,34.924939],[135.764246,34.924889],[135.764016,34.924846],[135.763803,34.924809],[135.76357,34.924782],[135.763324,34.924761],[135.763081,34.924741],[135.762815,34.92472],[135.762561,34.924686],[135.762301,34.924643],[135.762085,34.924597],[135.761847,34.924545],[135.761579,34.924477],[135.761316,34.924404],[135.761024,34.924316],[135.760792,34.924235],[135.760537,34.924135],[135.760256,34.92402],[135.759947,34.923902],[135.759638,34.92378],[135.759359,34.923669],[135.759135,34.923578],[135.758927,34.923492],[135.758709,34.923388],[135.758479,34.923275],[135.758288,34.923183],[135.75808,34.923074],[135.757826,34.922943],[135.757652,34.922852],[135.75755,34.922798],[135.757302,34.92267],[135.757129,34.922577],[135.756979,34.922489],[135.756763,34.922346],[135.75661,34.922249],[135.756446,34.92217],[135.756228,34.922074],[135.756179,34.922053],[135.75596,34.921967],[135.755763,34.921892],[135.755495,34.921795],[135.755238,34.921697],[135.755052,34.921611],[135.754924,34.921541],[135.754738,34.921435],[135.754277,34.921175],[135.75399,34.921015],[135.75373,34.920872],[135.753536,34.92076],[135.753452,34.920712],[135.753206,34.920572],[135.753053,34.920488],[135.752905,34.920418],[135.752643,34.920298],[135.752353,34.9201559],[135.7521072,34.9200285],[135.7519444,34.9199985],[135.7517543,34.9199635],[135.7515377,34.9199235],[135.7513642,34.919906],[135.7511776,34.9198687],[135.7510444,34.9198687],[135.7508886,34.9198686],[135.7507133,34.9198686],[135.75049,34.9198685],[135.7501979,34.9198881],[135.7490767,34.9199349],[135.7477633,34.9199329],[135.7474565,34.919909],[135.747111,34.919882],[135.747061,34.919873],[135.746949,34.919854],[135.7467931,34.9198433],[135.7466045,34.9198226],[135.74648,34.9198125],[135.7461861,34.9197625],[135.745141,34.919507],[135.743998,34.919078],[135.742905,34.918625],[135.741877,34.918052],[135.740987,34.917301],[135.740668,34.916602],[135.740445,34.916189],[135.740361,34.916042],[135.740173,34.915692],[135.739967,34.915308],[135.739719,34.91485],[135.739577,34.914584],[135.739523,34.914505],[135.739447,34.914401],[135.7391908,34.9141062],[135.738297,34.91284],[135.737204,34.911269],[135.735997,34.909776],[135.734874,34.908256],[135.7338339,34.9069433],[135.733722,34.906802],[135.733667,34.906722],[135.733544,34.906537],[135.733424,34.906357],[135.733068,34.905826],[135.7327872,34.9053741],[135.7326916,34.9052371],[135.7325182,34.9050337],[135.7323887,34.9049179],[135.731762,34.904394],[135.731382,34.904041],[135.731085,34.903765],[135.730632,34.90341],[135.73046,34.903268],[135.730067,34.902956],[135.729513,34.902508],[135.728787,34.901909],[135.728266,34.901502],[135.727939,34.901242],[135.727494,34.900884],[135.727486,34.900879],[135.726503,34.900152],[135.726326,34.900027],[135.725769,34.899591],[135.724986,34.899009],[135.724617,34.898749],[135.724055,34.898394],[135.723678,34.898188],[135.723266,34.897966],[135.722924,34.897789],[135.722676,34.897653],[135.722476,34.897556],[135.722053,34.89737],[135.721567,34.897164],[135.721028,34.896941],[135.720548,34.896758],[135.720223,34.896642],[135.719968,34.896567],[135.719583,34.896469],[135.719192,34.896366],[135.718785,34.896266],[135.718411,34.896168],[135.717924,34.896052],[135.717243,34.895899],[135.716809,34.895803],[135.716475,34.895728],[135.715874,34.895582],[135.715344,34.895466],[135.71489,34.895364],[135.714488,34.89527],[135.713985,34.895156],[135.713272,34.894987],[135.712359,34.894767],[135.711845,34.894637],[135.711069,34.894436],[135.71058,34.894311],[135.71044,34.894277],[135.710055,34.894172],[135.709768,34.894097],[135.709443,34.894011],[135.7088578,34.8938487],[135.7016538,34.8919501],[135.6987003,34.8913153],[135.6969297,34.8912697],[135.6948237,34.8913401],[135.6935029,34.8915994],[135.6919159,34.8917855],[135.6898131,34.8916328],[135.6888145,34.8915383],[135.6873439,34.8911935],[135.6861099,34.89081],[135.6849884,34.8901788],[135.6841087,34.8893833],[135.6827524,34.8878962],[135.6827164,34.8878567],[135.681616,34.886338],[135.6810717,34.8853249],[135.6805647,34.8840929],[135.6797026,34.8814507],[135.679012,34.879731],[135.6780832,34.8786536],[135.6780514,34.878338],[135.677877,34.876826],[135.677458,34.875745],[135.676411,34.874088],[135.675511,34.872917],[135.675369,34.872731],[135.674615,34.872067],[135.673994,34.871387],[135.673314,34.870644],[135.672738,34.870013],[135.672147,34.869417],[135.671582,34.869028],[135.670969,34.868595],[135.670369,34.868159],[135.669859,34.867606],[135.669545,34.866979],[135.669289,34.866319],[135.669122,34.865755],[135.668954,34.864871],[135.668722,34.863746],[135.668384,34.86258],[135.6681009,34.8617362],[135.667726,34.86071],[135.667428,34.859934],[135.667201,34.859268],[135.666969,34.85864],[135.666779,34.858088],[135.666548,34.857536],[135.666249,34.85697],[135.6661029,34.8567506],[135.665922,34.856479],[135.664589,34.855095],[135.664074,34.854644],[135.664067,34.85464],[135.663284,34.854175],[135.663017,34.854019],[135.662602,34.853777],[135.662281,34.85359],[135.660722,34.852795],[135.658523,34.851656],[135.6582708,34.8515352],[135.6576083,34.8512526],[135.6569636,34.85101],[135.6566857,34.8509332],[135.6561668,34.8507001],[135.6554897,34.8503825],[135.6544456,34.8497918],[135.6534957,34.8490436],[135.6529038,34.848504],[135.652438,34.8479286],[135.6520572,34.8470858],[135.651776,34.846075],[135.651402,34.845001],[135.6509349,34.8437649],[135.6505994,34.8429201],[135.6501797,34.8417359],[135.6499545,34.8406404],[135.6495628,34.8400831],[135.649027,34.8393172],[135.6487278,34.8387184],[135.648242,34.838131],[135.648001,34.837625],[135.647632,34.836938],[135.647382,34.836451],[135.647378,34.836442],[135.6467934,34.835563],[135.6462772,34.8337456],[135.6460912,34.8325797],[135.6462602,34.8315286],[135.6459631,34.8304965],[135.6457745,34.8299938],[135.6453371,34.8294126],[135.6449824,34.82911],[135.6446488,34.8287808],[135.644345,34.828498],[135.644108,34.828159],[135.643706,34.827492],[135.64339,34.826799],[135.643141,34.82621],[135.642982,34.825623],[135.642815,34.825058],[135.642729,34.82459],[135.642615,34.824145],[135.642529,34.823658],[135.642425,34.823218],[135.642358,34.822919],[135.642232,34.822597],[135.642077,34.82236],[135.641702,34.821894],[135.6412709,34.8207967],[135.6411118,34.8205353],[135.6409241,34.8203723],[135.640436,34.819846],[135.639494,34.818674],[135.63923,34.818345],[135.638413,34.817479],[135.63754,34.816775],[135.637522,34.81676],[135.636489,34.816144],[135.635303,34.815497],[135.634342,34.814997],[135.633409,34.814572],[135.632166,34.814126],[135.631114,34.813808],[135.62962,34.813347],[135.628104,34.812803],[135.627078,34.812383],[135.626303,34.812032],[135.625277,34.81159],[135.622185,34.810246],[135.622111,34.810187],[135.621151,34.809701],[135.620028,34.808716],[135.619458,34.807883],[135.619009,34.80708],[135.618622,34.806387],[135.6178112,34.8051284],[135.61736,34.804428],[135.616758,34.803685],[135.616316,34.802924],[135.61599,34.801959],[135.615782,34.801042],[135.615655,34.800502],[135.615323,34.799345],[135.613517,34.794904],[135.612988,34.793674],[135.612508,34.792661],[135.612397,34.792431],[135.612182,34.791986],[135.6120808,34.7918247],[135.612,34.791696],[135.611607,34.791089],[135.611159,34.790399],[135.610994,34.790164],[135.610265,34.789159],[135.609924,34.788681],[135.609658,34.788318],[135.609631,34.78828],[135.60921,34.787694],[135.608936,34.787325],[135.608759,34.787153],[135.608335,34.786759],[135.607962,34.786411],[135.607552,34.786024],[135.606998,34.785371],[135.606335,34.784606],[135.606164,34.784406],[135.60596,34.784193],[135.605734,34.783967],[135.605563,34.783806],[135.605364,34.783632],[135.604826,34.783184],[135.604291,34.782829],[135.603367,34.782213],[135.603132,34.782047],[135.603066,34.781985],[135.602498,34.781484],[135.602074,34.781103],[135.601638,34.780716],[135.601151,34.780224],[135.600478,34.779543],[135.600277,34.779345],[135.600197,34.77928],[135.600073,34.779185],[135.599546,34.778807],[135.598787,34.778256],[135.598196,34.777799],[135.597609,34.77734],[135.597036,34.77688],[135.596391,34.776288],[135.595906,34.775837],[135.595609,34.77557],[135.595247,34.775254],[135.594286,34.774444],[135.593545,34.773768],[135.592732,34.773028],[135.592064,34.772447],[135.591518,34.771975],[135.591212,34.771703],[135.591093,34.771605],[135.590787,34.771404],[135.590486,34.771218],[135.590202,34.771061],[135.589476,34.770663],[135.589357,34.770592],[135.588649,34.770103],[135.587872,34.769574],[135.587555,34.769367],[135.587331,34.769159],[135.587235,34.769042],[135.587102,34.768845],[135.586738,34.768279],[135.586476,34.767901],[135.586247,34.767579],[135.585975,34.767173],[135.585603,34.766636],[135.585293,34.766234],[135.584568,34.765523],[135.584041,34.765032],[135.583191,34.764294],[135.582434,34.763637],[135.582179,34.763473],[135.581629,34.763114],[135.581078,34.76276],[135.580136,34.762148],[135.578624,34.761183],[135.577443,34.760466],[135.575965,34.759644],[135.574574,34.758877],[135.573413,34.758235],[135.572811,34.757902],[135.57181,34.757372],[135.571667,34.757315],[135.5708,34.757102],[135.569384,34.756844],[135.56879,34.756737],[135.568095,34.756607],[135.567502,34.756495],[135.566645,34.756279],[135.565931,34.756095],[135.56491,34.755827],[135.564027,34.755599],[135.56325,34.755394],[135.562125,34.7551446],[135.5617038,34.7550231],[135.5605173,34.7544894],[135.5595364,34.7537514],[135.5587448,34.7531286],[135.557469,34.7515411],[135.5569071,34.750618],[135.5565621,34.7487992],[135.5560067,34.7462791],[135.5554562,34.7427809],[135.5549797,34.7406432],[135.5543297,34.7393964],[135.5520347,34.737587],[135.5512638,34.7369146],[135.5502099,34.736293],[135.5480004,34.7353465],[135.5457069,34.7346165],[135.5430727,34.7340723],[135.5404107,34.7337332],[135.5378334,34.7334553],[135.5352979,34.7332971],[135.53288,34.733344],[135.5304688,34.7333305],[135.5289159,34.7334275],[135.5271892,34.7333787],[135.5248773,34.7330154],[135.5230083,34.7322186],[135.5214079,34.7311498],[135.5199975,34.7298036],[135.5186242,34.727123],[135.5165995,34.7254005],[135.5144442,34.7236849],[135.5135928,34.7230361],[135.511979,34.721872],[135.511668,34.721713],[135.511422,34.721588],[135.511233,34.721489],[135.510993,34.721365],[135.510663,34.721202],[135.510431,34.721081],[135.510051,34.720891],[135.509789,34.720756],[135.509432,34.720571],[135.509159,34.720434],[135.508597,34.720149],[135.50833,34.720013],[135.508181,34.719932],[135.508005,34.719858],[135.507802,34.719774],[135.507641,34.719703],[135.50735,34.719585],[135.506976,34.719429],[135.506619,34.719283],[135.506338,34.719165],[135.506023,34.719048],[135.505858,34.718991],[135.505773,34.718973],[135.505673,34.718962],[135.505374,34.71895],[135.504858,34.718932],[135.50419,34.718904],[135.503715,34.718881],[135.5021447,34.7185165],[135.4976815,34.7180932],[135.4939049,34.7173877],[135.4901284,34.7162588],[135.4618243,34.6992166],[135.459916,34.6980546],[135.4520196,34.6942439],[135.4408616,34.6895861],[135.4352619,34.6875961],[135.4202271,34.682868]]}},{"type":"Feature","properties":{"name":"尻無川","name:en":"Shirinashi River","kind":"river"},"geometry":{"type":"LineString","coordinates":[[135.4804407,34.6682889],[135.479576,34.667834],[135.478071,34.667494],[135.4770967,34.6672865],[135.4760661,34.667128],[135.4749143,34.6668993],[135.473731,34.666774],[135.47323,34.666611],[135.472362,34.666241],[135.47131,34.665599],[135.469615,34.664267],[135.468201,34.66308],[135.466633,34.661643],[135.464926,34.659744],[135.4638437,34.6584558],[135.46285,34.657066],[135.4612484,34.6550412],[135.4590568,34.6506783],[135.4576732,34.6490961],[135.456272,34.648005],[135.452888,34.646767],[135.450698,34.646022],[135.449679,34.645675],[135.4447408,34.64378]]}},{"type":"Feature","properties":{"name":"木津川","name:en":"Kizu River","kind":"river"},"geometry":{"type":"LineString","coordinates":[[135.483064,34.6851902],[135.4831752,34.6848866],[135.483179,34.6847702],[135.4832317,34.6831728],[135.4827179,34.6809053],[135.4823988,34.6795203],[135.482313,34.67889],[135.482388,34.677996],[135.482559,34.677213],[135.482483,34.676633],[135.4821305,34.6756204],[135.4810582,34.6734476],[135.480111,34.671186],[135.47994,34.670575],[135.479803,34.669927],[135.479793,34.669428],[135.479934,34.668864],[135.4804407,34.6682889],[135.481049,34.666523],[135.481141,34.666259],[135.48134,34.66573],[135.481443,34.665455],[135.481698,34.664599],[135.481784,34.664282],[135.481819,34.663998],[135.481845,34.663792],[135.481858,34.663689],[135.481859,34.663664],[135.481908,34.662557],[135.481894,34.662199],[135.482048,34.660705],[135.482061,34.660585],[135.481972,34.658802],[135.481865,34.658133],[135.481514,34.656208],[135.481373,34.655766],[135.481218,34.655282],[135.481163,34.655111],[135.481125,34.655043],[135.480925,34.654683],[135.4804,34.653715],[135.479974,34.652717],[135.479939,34.652642],[135.479711,34.652148],[135.4792955,34.6511205],[135.479083,34.650594],[135.478948,34.650241],[135.4788662,34.6500143],[135.478789,34.649672],[135.478781,34.649232],[135.478762,34.648986],[135.478746,34.648774],[135.47878,34.648391],[135.478789,34.648299],[135.478868,34.647719],[135.478921,34.647331],[135.478977,34.646926],[135.478988,34.64663],[135.478998,34.646327],[135.479095,34.6452],[135.479123,34.644884],[135.479113,34.644607],[135.479091,34.644004],[135.479051,34.641892],[135.479039,34.641487],[135.479002,34.640295],[135.47875,34.639017],[135.478602,34.638615],[135.478473,34.638265],[135.477873,34.636417],[135.477767,34.636165],[135.47701,34.634264],[135.476961,34.634141],[135.476846,34.633922],[135.476751,34.633742],[135.475943,34.632216],[135.475154,34.631048],[135.4745361,34.6302838],[135.474495,34.630233],[135.474049,34.629779],[135.473707,34.629438],[135.473678,34.62941],[135.473117,34.628922],[135.472678,34.62854],[135.472562,34.628439],[135.472442,34.628366],[135.471713,34.627927],[135.471661,34.627896],[135.471578,34.627858],[135.471214,34.627695],[135.470664,34.627447],[135.470113,34.627291],[135.469545,34.62713],[135.468783,34.626913],[135.468088,34.626775],[135.465571,34.626274],[135.462759,34.625713],[135.459225,34.625031],[135.457465,34.624762],[135.457332,34.624742],[135.456297,34.624637],[135.45604,34.624622],[135.455942,34.624616],[135.455723,34.624603],[135.455229,34.62464],[135.454887,34.624666],[135.454134,34.624713],[135.454054,34.624718],[135.452641,34.625048],[135.452074,34.625227],[135.451168,34.625513],[135.450098,34.625862],[135.449943,34.625913],[135.44944,34.626108],[135.4487815,34.6263529],[135.448569,34.6265136]]}},{"type":"Feature","properties":{"name":"旧淀川（大川・堂島川・安治川）","name:en":"Former Yodo River","kind":"river"},"geometry":{"type":"LineString","coordinates":[[135.5165995,34.7254005],[135.5164057,34.7244676],[135.5163368,34.7228169],[135.5159983,34.7221122],[135.5159712,34.7219498],[135.5160609,34.7217001],[135.5162139,34.7215149],[135.5163761,34.7213738],[135.5168733,34.7209824],[135.5169179,34.7209496],[135.5170179,34.720866],[135.5176009,34.7203787],[135.5177363,34.720228],[135.5179756,34.7197492],[135.518333,34.718897],[135.518549,34.718708],[135.518699,34.718552],[135.519123,34.718094],[135.5196114,34.7178504],[135.5202919,34.7168579],[135.5208264,34.7161911],[135.5210724,34.7157502],[135.5215,34.714581],[135.521563,34.714372],[135.521563,34.714118],[135.521563,34.713111],[135.521563,34.71303],[135.521563,34.712744],[135.521508,34.712578],[135.521131,34.711465],[135.521,34.711077],[135.519297,34.709442],[135.519263,34.70941],[135.518809,34.70893],[135.518583,34.708693],[135.51821,34.708064],[135.518189,34.708026],[135.517914,34.707561],[135.517835,34.707426],[135.517834,34.707392],[135.517811,34.706128],[135.518157,34.704917],[135.518398,34.704073],[135.51956,34.702698],[135.519971,34.702212],[135.520651,34.701376],[135.521748,34.700027],[135.522036,34.699673],[135.522495,34.69861],[135.522529,34.69853],[135.522888,34.6971],[135.522928,34.695968],[135.522935,34.695782],[135.522888,34.695643],[135.522418,34.694261],[135.522395,34.694193],[135.522336,34.694108],[135.522309,34.694069],[135.521832,34.693384],[135.52141,34.692778],[135.520752,34.6921266],[135.5201871,34.6917642],[135.5187092,34.691243],[135.517599,34.6910597],[135.5148591,34.691125],[135.5125164,34.6916242],[135.510284,34.6922084],[135.5085711,34.6927539],[135.5049327,34.6941765],[135.5044904,34.6943074],[135.5039856,34.6944366],[135.5023546,34.6946242],[135.5009361,34.694736],[135.4997014,34.6947602],[135.4974113,34.6946639],[135.4931763,34.6941114],[135.4916822,34.6938698],[135.4906167,34.693598],[135.4896968,34.6932463],[135.4874747,34.6921408],[135.486879,34.6916964],[135.4864102,34.6912517],[135.4847793,34.6894707],[135.4825211,34.6868109],[135.482139,34.686234],[135.481764,34.685662],[135.4811325,34.684609],[135.4805101,34.6838845],[135.4795076,34.6830664],[135.473116,34.680783],[135.472335,34.680588],[135.4713306,34.6805615],[135.4683334,34.6796333],[135.4561883,34.675527],[135.452923,34.674403],[135.4510283,34.6736813],[135.4499403,34.6731155],[135.4482772,34.6718475],[135.4411731,34.663516],[135.4396131,34.6623469],[135.4356476,34.6598059],[135.4354808,34.6597305],[135.4338125,34.6593986],[135.4323173,34.6590874],[135.4263817,34.6557041]]}},{"type":"Feature","properties":{"name":"大川・今川","name:en":"","kind":"river"},"geometry":{"type":"LineString","coordinates":[[135.457634,34.5038179],[135.4573844,34.5041914],[135.4571341,34.5044281],[135.4569357,34.5046492],[135.4566243,34.5049007],[135.456367,34.5050713],[135.4562812,34.5051686],[135.4561149,34.5055687],[135.4561095,34.505803]]}},{"type":"Feature","properties":{"name":"淀川","name:en":"Yodo River","kind":"river"},"geometry":{"type":"LineString","coordinates":[[135.639494,34.818674],[135.63923,34.818345],[135.638413,34.817479],[135.63754,34.816775]]}},{"type":"Feature","properties":{"name":"尻無川","name:en":"","kind":"river"},"geometry":{"type":"LineString","coordinates":[[135.4612484,34.6550412],[135.4590568,34.6506783],[135.4576732,34.6490961],[135.456272,34.648005],[135.452888,34.646767]]}},{"type":"Feature","properties":{"name":"大川","name:en":"","kind":"river"},"geometry":{"type":"LineString","coordinates":[[135.6341994,34.6988127],[135.6339856,34.6989648]]}},{"type":"Feature","properties":{"name":"淀川","name:en":"Yodo River","kind":"river"},"geometry":{"type":"LineString","coordinates":[[135.6457745,34.8299938],[135.6453371,34.8294126],[135.6449824,34.82911],[135.6446488,34.8287808],[135.644345,34.828498]]}},{"type":"Feature","properties":{"name":"淀川","name:en":"Yodo River","kind":"river"},"geometry":{"type":"LineString","coordinates":[[135.612397,34.792431],[135.612182,34.791986],[135.6120808,34.7918247],[135.612,34.791696],[135.611607,34.791089],[135.611159,34.790399],[135.610994,34.790164],[135.610265,34.789159],[135.609924,34.788681],[135.609658,34.788318]]}},{"type":"Feature","properties":{"name":"大川","name:en":"","kind":"river"},"geometry":{"type":"LineString","coordinates":[[135.637838,34.698673],[135.6373172,34.6986665],[135.6362813,34.6986729],[135.6352894,34.6986947],[135.6344068,34.6987259],[135.6341994,34.6988127]]}},{"type":"Feature","properties":{"name":"淀川","name:en":"Yodo River","kind":"river"},"geometry":{"type":"LineString","coordinates":[[135.63754,34.816775],[135.637522,34.81676],[135.636489,34.816144],[135.635303,34.815497],[135.634342,34.814997],[135.633409,34.814572],[135.632166,34.814126],[135.631114,34.813808],[135.62962,34.813347],[135.628104,34.812803],[135.627078,34.812383],[135.626303,34.812032],[135.625277,34.81159],[135.622185,34.810246],[135.622111,34.810187],[135.621151,34.809701],[135.620028,34.808716],[135.619458,34.807883],[135.619009,34.80708]]}},{"type":"Feature","properties":{"name":"木津川","name:en":"","kind":"river"},"geometry":{"type":"LineString","coordinates":[[135.4788662,34.6500143],[135.478789,34.649672],[135.478781,34.649232],[135.478762,34.648986],[135.478746,34.648774],[135.47878,34.648391],[135.478789,34.648299],[135.478868,34.647719],[135.478921,34.647331],[135.478977,34.646926],[135.478988,34.64663],[135.478998,34.646327],[135.479095,34.6452],[135.479123,34.644884],[135.479113,34.644607],[135.479091,34.644004],[135.479051,34.641892],[135.479039,34.641487],[135.479002,34.640295],[135.47875,34.639017],[135.478602,34.638615],[135.478473,34.638265],[135.477873,34.636417],[135.477767,34.636165],[135.47701,34.634264],[135.476961,34.634141],[135.476846,34.633922],[135.476751,34.633742],[135.475943,34.632216],[135.475154,34.631048],[135.4745361,34.6302838],[135.474495,34.630233],[135.474049,34.629779],[135.473707,34.629438],[135.473678,34.62941],[135.473117,34.628922],[135.472678,34.62854],[135.472562,34.628439],[135.472442,34.628366],[135.471713,34.627927],[135.471661,34.627896],[135.471578,34.627858],[135.471214,34.627695],[135.470664,34.627447],[135.470113,34.627291],[135.469545,34.62713],[135.468783,34.626913],[135.468088,34.626775],[135.465571,34.626274],[135.462759,34.625713]]}},{"type":"Feature","properties":{"name":"淀川","name:en":"Yodo River","kind":"river"},"geometry":{"type":"LineString","coordinates":[[135.609658,34.788318],[135.609631,34.78828],[135.60921,34.787694],[135.608936,34.787325],[135.608759,34.787153],[135.608335,34.786759],[135.607962,34.786411],[135.607552,34.786024],[135.606998,34.785371],[135.606335,34.784606],[135.606164,34.784406],[135.60596,34.784193],[135.605734,34.783967],[135.605563,34.783806],[135.605364,34.783632],[135.604826,34.783184],[135.604291,34.782829],[135.603367,34.782213],[135.603132,34.782047],[135.603066,34.781985],[135.602498,34.781484],[135.602074,34.781103],[135.601638,34.780716],[135.601151,34.780224],[135.600478,34.779543],[135.600277,34.779345],[135.600197,34.77928],[135.600073,34.779185],[135.599546,34.778807],[135.598787,34.778256],[135.598196,34.777799],[135.597609,34.77734],[135.597036,34.77688],[135.596391,34.776288],[135.595906,34.775837],[135.595609,34.77557],[135.595247,34.775254],[135.594286,34.774444],[135.593545,34.773768],[135.592732,34.773028],[135.592064,34.772447],[135.591518,34.771975],[135.591212,34.771703],[135.591093,34.771605],[135.590787,34.771404],[135.590486,34.771218],[135.590202,34.771061],[135.589476,34.770663],[135.589357,34.770592],[135.588649,34.770103],[135.587872,34.769574],[135.587555,34.769367],[135.587331,34.769159],[135.587235,34.769042],[135.587102,34.768845],[135.586738,34.768279],[135.586476,34.767901],[135.586247,34.767579],[135.585975,34.767173],[135.585603,34.766636],[135.585293,34.766234],[135.584568,34.765523],[135.584041,34.765032],[135.583191,34.764294],[135.582434,34.763637],[135.582179,34.763473],[135.581629,34.763114],[135.581078,34.76276],[135.580136,34.762148],[135.578624,34.761183],[135.577443,34.760466],[135.575965,34.759644],[135.574574,34.758877],[135.573413,34.758235],[135.572811,34.757902],[135.57181,34.757372],[135.571667,34.757315],[135.5708,34.757102],[135.569384,34.756844],[135.56879,34.756737],[135.568095,34.756607],[135.567502,34.756495],[135.566645,34.756279],[135.565931,34.756095],[135.56491,34.755827],[135.564027,34.755599],[135.56325,34.755394],[135.562125,34.7551446],[135.5617038,34.7550231]]}},{"type":"Feature","properties":{"name":"淀川","name:en":"Yodo River","kind":"river"},"geometry":{"type":"LineString","coordinates":[[135.644345,34.828498],[135.644108,34.828159],[135.643706,34.827492],[135.64339,34.826799],[135.643141,34.82621],[135.642982,34.825623],[135.642815,34.825058],[135.642729,34.82459],[135.642615,34.824145],[135.642529,34.823658],[135.642425,34.823218],[135.642358,34.822919],[135.642232,34.822597],[135.642077,34.82236],[135.641702,34.821894],[135.6412709,34.8207967]]}},{"type":"Feature","properties":{"name":"淀川","name:en":"Yodo River","kind":"river"},"geometry":{"type":"LineString","coordinates":[[135.5135928,34.7230361],[135.511979,34.721872],[135.511668,34.721713],[135.511422,34.721588],[135.511233,34.721489],[135.510993,34.721365],[135.510663,34.721202],[135.510431,34.721081],[135.510051,34.720891],[135.509789,34.720756],[135.509432,34.720571],[135.509159,34.720434],[135.508597,34.720149],[135.50833,34.720013],[135.508181,34.719932],[135.508005,34.719858],[135.507802,34.719774],[135.507641,34.719703],[135.50735,34.719585],[135.506976,34.719429],[135.506619,34.719283],[135.506338,34.719165],[135.506023,34.719048],[135.505858,34.718991],[135.505773,34.718973],[135.505673,34.718962],[135.505374,34.71895],[135.504858,34.718932],[135.50419,34.718904],[135.503715,34.718881]]}},{"type":"Feature","properties":{"name":"尻無川","name:en":"Shirinashi River","kind":"river"},"geometry":{"type":"LineString","coordinates":[[135.4749143,34.6668993],[135.473731,34.666774],[135.47323,34.666611],[135.472362,34.666241],[135.47131,34.665599],[135.469615,34.664267],[135.468201,34.66308],[135.466633,34.661643],[135.464926,34.659744],[135.4638437,34.6584558],[135.46285,34.657066],[135.4612484,34.6550412]]}},{"type":"Feature","properties":{"name":"大川","name:en":"","kind":"river"},"geometry":{"type":"LineString","coordinates":[[135.6504224,34.7014912],[135.6503436,34.7012521],[135.6501963,34.7011092],[135.6500843,34.7009899],[135.6499917,34.7007855],[135.6499617,34.7006187],[135.649969,34.700511],[135.6494899,34.700483],[135.6494775,34.7003217],[135.6494222,34.7003153],[135.6492224,34.7002376],[135.6490667,34.7001796],[135.6488825,34.7001224],[135.6487905,34.7000542],[135.6486415,34.6998525],[135.6484961,34.6996989],[135.648319,34.6996518],[135.6480862,34.6996099],[135.6477656,34.6996195],[135.6474303,34.6996532],[135.6472479,34.6996651],[135.6468414,34.6995889],[135.6463456,34.6995835],[135.6461079,34.6995628],[135.6455058,34.6994338],[135.6451916,34.6994232],[135.6447373,34.6992861],[135.6446166,34.6991457],[135.6443794,34.6991588],[135.6429611,34.6991837],[135.6408037,34.6992024],[135.6388278,34.6992626]]}},{"type":"Feature","properties":{"name":"大川","name:en":"Ōkawa","kind":"river"},"geometry":{"type":"LineString","coordinates":[[135.518699,34.718552],[135.519123,34.718094],[135.5196114,34.7178504],[135.5202919,34.7168579],[135.5208264,34.7161911],[135.5210724,34.7157502],[135.5215,34.714581],[135.521563,34.714372],[135.521563,34.714118],[135.521563,34.713111],[135.521563,34.71303],[135.521563,34.712744],[135.521508,34.712578],[135.521131,34.711465],[135.521,34.711077],[135.519297,34.709442],[135.519263,34.70941],[135.518809,34.70893],[135.518583,34.708693],[135.51821,34.708064],[135.518189,34.708026],[135.517914,34.707561],[135.517835,34.707426],[135.517834,34.707392],[135.517811,34.706128],[135.518157,34.704917],[135.518398,34.704073],[135.51956,34.702698],[135.519971,34.702212],[135.520651,34.701376],[135.521748,34.700027],[135.522036,34.699673],[135.522495,34.69861],[135.522529,34.69853],[135.522888,34.6971],[135.522928,34.695968],[135.522935,34.695782],[135.522888,34.695643],[135.522418,34.694261],[135.522395,34.694193],[135.522336,34.694108],[135.522309,34.694069],[135.521832,34.693384],[135.52141,34.692778],[135.520752,34.6921266],[135.5201871,34.6917642],[135.5187092,34.691243],[135.517599,34.6910597],[135.5148591,34.691125]]}},{"type":"Feature","properties":{"name":"淀川","name:en":"Yodo River","kind":"river"},"geometry":{"type":"LineString","coordinates":[[135.6412709,34.8207967],[135.6411118,34.8205353],[135.6409241,34.8203723],[135.640436,34.819846],[135.639494,34.818674]]}},{"type":"Feature","properties":{"name":"淀川","name:en":"Yodo River","kind":"river"},"geometry":{"type":"LineString","coordinates":[[135.652438,34.8479286],[135.6520572,34.8470858],[135.651776,34.846075],[135.651402,34.845001],[135.6509349,34.8437649],[135.6505994,34.8429201],[135.6501797,34.8417359],[135.6499545,34.8406404],[135.6495628,34.8400831],[135.649027,34.8393172],[135.6487278,34.8387184],[135.648242,34.838131],[135.648001,34.837625],[135.647632,34.836938],[135.647382,34.836451],[135.647378,34.836442],[135.6467934,34.835563],[135.6462772,34.8337456],[135.6460912,34.8325797],[135.6462602,34.8315286],[135.6459631,34.8304965],[135.6457745,34.8299938]]}},{"type":"Feature","properties":{"name":"淀川","name:en":"Yodo River","kind":"river"},"geometry":{"type":"LineString","coordinates":[[135.619009,34.80708],[135.618622,34.806387],[135.6178112,34.8051284],[135.61736,34.804428],[135.616758,34.803685],[135.616316,34.802924],[135.61599,34.801959],[135.615782,34.801042],[135.615655,34.800502],[135.615323,34.799345],[135.613517,34.794904],[135.612988,34.793674],[135.612508,34.792661],[135.612397,34.792431]]}},{"type":"Feature","properties":{"name":"大川","name:en":"","kind":"river"},"geometry":{"type":"LineString","coordinates":[[135.6382904,34.6990404],[135.638122,34.69884],[135.638033,34.698728],[135.637954,34.698681],[135.6378931,34.6986768],[135.637838,34.698673]]}},{"type":"Feature","properties":{"name":"木津川","name:en":"Kizu River","kind":"river"},"geometry":{"type":"LineString","coordinates":[[135.4804407,34.6682889],[135.481049,34.666523],[135.481141,34.666259],[135.48134,34.66573],[135.481443,34.665455],[135.481698,34.664599],[135.481784,34.664282],[135.481819,34.663998],[135.481845,34.663792],[135.481858,34.663689],[135.481859,34.663664],[135.481908,34.662557],[135.481894,34.662199],[135.482048,34.660705],[135.482061,34.660585],[135.481972,34.658802],[135.481865,34.658133],[135.481514,34.656208],[135.481373,34.655766],[135.481218,34.655282],[135.481163,34.655111],[135.481125,34.655043],[135.480925,34.654683],[135.4804,34.653715],[135.479974,34.652717],[135.479939,34.652642],[135.479711,34.652148],[135.4792955,34.6511205],[135.479083,34.650594],[135.478948,34.650241],[135.4788662,34.6500143]]}},{"type":"Feature","properties":{"name":"木津川","name:en":"","kind":"river"},"geometry":{"type":"LineString","coordinates":[[135.462759,34.625713],[135.459225,34.625031],[135.457465,34.624762],[135.457332,34.624742],[135.456297,34.624637],[135.45604,34.624622],[135.455942,34.624616],[135.455723,34.624603],[135.455229,34.62464],[135.454887,34.624666],[135.454134,34.624713],[135.454054,34.624718],[135.452641,34.625048],[135.452074,34.625227],[135.451168,34.625513],[135.450098,34.625862],[135.449943,34.625913],[135.44944,34.626108],[135.4487815,34.6263529],[135.448569,34.6265136]]}},{"type":"Feature","properties":{"name":"淀川","name:en":"Yodo River","kind":"river"},"geometry":{"type":"LineString","coordinates":[[135.5617038,34.7550231],[135.5605173,34.7544894],[135.5595364,34.7537514],[135.5587448,34.7531286],[135.557469,34.7515411],[135.5569071,34.750618],[135.5565621,34.7487992],[135.5560067,34.7462791],[135.5554562,34.7427809],[135.5549797,34.7406432],[135.5543297,34.7393964],[135.5520347,34.737587],[135.5512638,34.7369146],[135.5502099,34.736293],[135.5480004,34.7353465],[135.5457069,34.7346165],[135.5430727,34.7340723],[135.5404107,34.7337332],[135.5378334,34.7334553],[135.5352979,34.7332971],[135.53288,34.733344],[135.5304688,34.7333305],[135.5289159,34.7334275],[135.5271892,34.7333787],[135.5248773,34.7330154],[135.5230083,34.7322186],[135.5214079,34.7311498],[135.5199975,34.7298036],[135.5186242,34.727123],[135.5165995,34.7254005],[135.5144442,34.7236849]]}},{"type":"Feature","properties":{"name":"淀川","name:en":"Yodo River","kind":"river"},"geometry":{"type":"LineString","coordinates":[[135.503715,34.718881],[135.5021447,34.7185165],[135.4976815,34.7180932],[135.4939049,34.7173877],[135.4901284,34.7162588],[135.4618243,34.6992166],[135.459916,34.6980546],[135.4520196,34.6942439],[135.4408616,34.6895861],[135.4352619,34.6875961],[135.4202271,34.682868]]}},{"type":"Feature","properties":{"name":"大川","name:en":"","kind":"river"},"geometry":{"type":"LineString","coordinates":[[135.6388278,34.6992626],[135.6385216,34.6992],[135.6382904,34.6990404]]}},{"type":"Feature","properties":{"name":"大川・今川","name:en":"","kind":"river"},"geometry":{"type":"LineString","coordinates":[[135.4543989,34.5097671],[135.4543497,34.5097812],[135.4541728,34.5098745],[135.4541246,34.5099099],[135.4539627,34.5101854],[135.4539425,34.510244],[135.4539248,34.510322],[135.4538903,34.5105268],[135.4539004,34.5110251],[135.4538881,34.5113986]]}},{"type":"Feature","properties":{"name":"大川・今川","name:en":"","kind":"river"},"geometry":{"type":"LineString","coordinates":[[135.4538881,34.5113986],[135.4539042,34.511581]]}},{"type":"Feature","properties":{"name":"大川・今川","name:en":"","kind":"river"},"geometry":{"type":"LineString","coordinates":[[135.4539042,34.511581],[135.4539025,34.5116291]]}},{"type":"Feature","properties":{"name":"大川・今川","name:en":"","kind":"river"},"geometry":{"type":"LineString","coordinates":[[135.4539025,34.5116291],[135.4539011,34.5119725]]}},{"type":"Feature","properties":{"name":"大川・今川","name:en":"","kind":"river"},"geometry":{"type":"LineString","coordinates":[[135.4539011,34.5119725],[135.4539188,34.5122466]]}},{"type":"Feature","properties":{"name":"大川・今川","name:en":"","kind":"river"},"geometry":{"type":"LineString","coordinates":[[135.4539188,34.5122466],[135.4538284,34.5125241],[135.4537687,34.5125565]]}},{"type":"Feature","properties":{"name":"大川・今川","name:en":"","kind":"river"},"geometry":{"type":"LineString","coordinates":[[135.4537687,34.5125565],[135.4537548,34.5125703]]}},{"type":"Feature","properties":{"name":"大川・今川","name:en":"","kind":"river"},"geometry":{"type":"LineString","coordinates":[[135.4537548,34.5125703],[135.4536681,34.5127204],[135.4533373,34.5131047],[135.452606,34.513933],[135.452296,34.514279],[135.4521145,34.51449],[135.4518602,34.5148094],[135.4513799,34.5143753],[135.451165,34.5142522]]}},{"type":"Feature","properties":{"name":"大川・今川","name:en":"","kind":"river"},"geometry":{"type":"LineString","coordinates":[[135.451165,34.5142522],[135.450915,34.5141147]]}},{"type":"Feature","properties":{"name":"大川・今川","name:en":"","kind":"river"},"geometry":{"type":"LineString","coordinates":[[135.450915,34.5141147],[135.4508205,34.5140584]]}},{"type":"Feature","properties":{"name":"大川・今川","name:en":"","kind":"river"},"geometry":{"type":"LineString","coordinates":[[135.4508205,34.5140584],[135.4506566,34.5139581]]}},{"type":"Feature","properties":{"name":"大川・今川","name:en":"","kind":"river"},"geometry":{"type":"LineString","coordinates":[[135.4506566,34.5139581],[135.4506041,34.5139233]]}},{"type":"Feature","properties":{"name":"大川・今川","name:en":"","kind":"river"},"geometry":{"type":"LineString","coordinates":[[135.4506041,34.5139233],[135.4504977,34.513856],[135.4503898,34.5137852],[135.4503673,34.5138014]]}},{"type":"Feature","properties":{"name":"大川・今川","name:en":"","kind":"river"},"geometry":{"type":"LineString","coordinates":[[135.4503673,34.5138014],[135.4503221,34.5138386]]}},{"type":"Feature","properties":{"name":"大川・今川","name:en":"","kind":"river"},"geometry":{"type":"LineString","coordinates":[[135.4503221,34.5138386],[135.450275,34.513874],[135.450016,34.51402],[135.449622,34.514214],[135.4494879,34.5142677],[135.4491701,34.5144373],[135.4491337,34.5144487],[135.4491003,34.5144482],[135.4489975,34.5144254],[135.4488693,34.5143779],[135.4488015,34.5143701],[135.4487359,34.5143701],[135.4486278,34.5143541]]}},{"type":"Feature","properties":{"name":"大川・今川","name:en":"","kind":"river"},"geometry":{"type":"LineString","coordinates":[[135.4486278,34.5143541],[135.4485717,34.5143373],[135.4485163,34.5143121],[135.4484726,34.5142748],[135.4484427,34.5142262],[135.4484062,34.5141866],[135.4483426,34.5141448],[135.4479598,34.5140855],[135.4478548,34.5140909]]}},{"type":"Feature","properties":{"name":"大川・今川","name:en":"","kind":"river"},"geometry":{"type":"LineString","coordinates":[[135.4472668,34.5136059],[135.4472099,34.5135475],[135.4470901,34.5134578],[135.446991,34.5134116],[135.446788,34.513562],[135.4466436,34.5136553],[135.4463712,34.5138472]]}},{"type":"Feature","properties":{"name":"大川・今川","name:en":"","kind":"river"},"geometry":{"type":"LineString","coordinates":[[135.445765,34.5142527],[135.4455766,34.5143892]]}},{"type":"Feature","properties":{"name":"大川・今川","name:en":"","kind":"river"},"geometry":{"type":"LineString","coordinates":[[135.4463712,34.5138472],[135.4462031,34.5139323],[135.445765,34.5142527]]}},{"type":"Feature","properties":{"name":"大川・今川","name:en":"","kind":"river"},"geometry":{"type":"LineString","coordinates":[[135.4455766,34.5143892],[135.4454505,34.5144851]]}},{"type":"Feature","properties":{"name":"大川・今川","name:en":"","kind":"river"},"geometry":{"type":"LineString","coordinates":[[135.4454505,34.5144851],[135.4452919,34.5146026]]}},{"type":"Feature","properties":{"name":"大川・今川","name:en":"","kind":"river"},"geometry":{"type":"LineString","coordinates":[[135.4426252,34.5165376],[135.4424897,34.5166282],[135.4423556,34.5167279],[135.4421213,34.5168959],[135.4417841,34.5170942],[135.4416594,34.5171788],[135.4415382,34.5173038],[135.4414311,34.5174139],[135.4413185,34.5175245],[135.4411298,34.5176844],[135.4409341,34.5178374],[135.4409516,34.5179319],[135.4409785,34.5180321],[135.4410188,34.5181324],[135.4410431,34.5182104],[135.4410334,34.5182636],[135.4410051,34.5183132],[135.440845,34.5185219],[135.4408165,34.5185282],[135.4401725,34.5185616],[135.4400626,34.5185202],[135.4400324,34.5185235],[135.4397177,34.5188046]]}},{"type":"Feature","properties":{"name":"大川・今川","name:en":"","kind":"river"},"geometry":{"type":"LineString","coordinates":[[135.4452919,34.5146026],[135.4450821,34.5147637]]}},{"type":"Feature","properties":{"name":"大川・今川","name:en":"","kind":"river"},"geometry":{"type":"LineString","coordinates":[[135.4366472,34.5227377],[135.4365524,34.5228146],[135.4335215,34.520068],[135.4303123,34.5172739]]}},{"type":"Feature","properties":{"name":"大川・今川","name:en":"","kind":"river"},"geometry":{"type":"LineString","coordinates":[[135.4303123,34.5172739],[135.4302823,34.5172413]]}},{"type":"Feature","properties":{"name":"安治川","name:en":"Ajigawa River","kind":"river"},"geometry":{"type":"LineString","coordinates":[[135.4811325,34.684609],[135.4805101,34.6838845],[135.4795076,34.6830664],[135.473116,34.680783],[135.472335,34.680588],[135.4713306,34.6805615],[135.4683334,34.6796333],[135.4561883,34.675527],[135.452923,34.674403],[135.4510283,34.6736813],[135.4499403,34.6731155],[135.4482772,34.6718475],[135.4411731,34.663516],[135.4396131,34.6623469],[135.4356476,34.6598059],[135.4354808,34.6597305],[135.4338125,34.6593986],[135.4323173,34.6590874],[135.4263817,34.6557041]]}},{"type":"Feature","properties":{"name":"大川・今川","name:en":"","kind":"river"},"geometry":{"type":"LineString","coordinates":[[135.4388805,34.5205312],[135.4385422,34.5206802]]}},{"type":"Feature","properties":{"name":"大川・今川","name:en":"","kind":"river"},"geometry":{"type":"LineString","coordinates":[[135.4384561,34.520114],[135.4386734,34.520252],[135.4388892,34.5204939],[135.4388805,34.5205312]]}},{"type":"Feature","properties":{"name":"尻無川","name:en":"Shirinashi River","kind":"river"},"geometry":{"type":"LineString","coordinates":[[135.4804407,34.6682889],[135.479576,34.667834],[135.478071,34.667494],[135.4770967,34.6672865],[135.4760661,34.667128],[135.4749143,34.6668993]]}},{"type":"Feature","properties":{"name":"淀川","name:en":"Yodo River","kind":"river"},"geometry":{"type":"LineString","coordinates":[[135.5144442,34.7236849],[135.5135928,34.7230361]]}},{"type":"Feature","properties":{"name":"安治川","name:en":"Ajigawa River","kind":"river"},"geometry":{"type":"LineString","coordinates":[[135.4338125,34.6593986],[135.436784,34.6558804],[135.4375179,34.6553492]]}},{"type":"Feature","properties":{"name":"大川・今川","name:en":"","kind":"river"},"geometry":{"type":"LineString","coordinates":[[135.4557474,34.5063666],[135.4556643,34.5064992],[135.455534,34.5066165],[135.4554408,34.5067959],[135.4553902,34.5068485],[135.4553344,34.5068882],[135.4552875,34.5070013],[135.4552672,34.5070774],[135.4552433,34.5072053],[135.4551825,34.5074834],[135.4551686,34.5075138],[135.4551437,34.5075774],[135.4550904,34.5076508],[135.4549054,34.5077745],[135.4547659,34.5078917],[135.4544682,34.5085172],[135.4544088,34.5087369],[135.4543851,34.5088049],[135.4543099,34.5088974],[135.4541852,34.508974],[135.4541543,34.5090189],[135.4541373,34.5090492],[135.4541169,34.5091286],[135.4540955,34.5092662],[135.4540953,34.509293],[135.4543989,34.5097671]]}},{"type":"Feature","properties":{"name":"大川・今川","name:en":"","kind":"river"},"geometry":{"type":"LineString","coordinates":[[135.4561095,34.505803],[135.4559808,34.5059687],[135.4559137,34.506161],[135.4558601,34.5062163],[135.4557474,34.5063666]]}},{"type":"Feature","properties":{"name":"大川・今川","name:en":"","kind":"river"},"geometry":{"type":"LineString","coordinates":[[135.4373749,34.5221462],[135.4366472,34.5227377]]}},{"type":"Feature","properties":{"name":"大川・今川","name:en":"","kind":"river"},"geometry":{"type":"LineString","coordinates":[[135.4385422,34.5206802],[135.4384931,34.5207073],[135.4385043,34.5208457],[135.4384966,34.5209384],[135.4384422,34.521081],[135.4383556,34.5212055],[135.4382678,34.5212852],[135.4382374,34.5213112],[135.4382035,34.5213404],[135.4377967,34.5217278],[135.437771,34.5217522],[135.4376934,34.5218333],[135.4376695,34.5218668],[135.4376423,34.521905],[135.4375784,34.5219911],[135.4375625,34.522004],[135.4373749,34.5221462]]}},{"type":"Feature","properties":{"name":"大川・今川","name:en":"","kind":"river"},"geometry":{"type":"LineString","coordinates":[[135.4478548,34.5140909],[135.4477603,34.5141102],[135.4477076,34.5141194],[135.4476705,34.5141143],[135.4476121,34.5140888],[135.4475406,34.514041],[135.4475077,34.513982],[135.4474882,34.5139419],[135.4474692,34.5138956],[135.4474294,34.5137873],[135.4474059,34.5137531],[135.4473502,34.5136915]]}},{"type":"Feature","properties":{"name":"大川・今川","name:en":"","kind":"river"},"geometry":{"type":"LineString","coordinates":[[135.4473502,34.5136915],[135.4472668,34.5136059]]}},{"type":"Feature","properties":{"name":"大川・今川","name:en":"","kind":"river"},"geometry":{"type":"LineString","coordinates":[[135.4391815,34.519266],[135.4389609,34.5194232],[135.4385119,34.5196322],[135.4385101,34.5196521],[135.4386192,34.5198063],[135.4386112,34.5198153],[135.4384177,34.5199127],[135.4383513,34.5200276],[135.4384561,34.520114]]}},{"type":"Feature","properties":{"name":"大川・今川","name:en":"","kind":"river"},"geometry":{"type":"LineString","coordinates":[[135.4392686,34.5192048],[135.4391815,34.519266]]}},{"type":"Feature","properties":{"name":"大川・今川","name:en":"","kind":"river"},"geometry":{"type":"LineString","coordinates":[[135.4396275,34.5188867],[135.4392686,34.5192048]]}},{"type":"Feature","properties":{"name":"大川・今川","name:en":"","kind":"river"},"geometry":{"type":"LineString","coordinates":[[135.4397177,34.5188046],[135.4396275,34.5188867]]}},{"type":"Feature","properties":{"name":"大川・今川","name:en":"","kind":"river"},"geometry":{"type":"LineString","coordinates":[[135.4450821,34.5147637],[135.4448312,34.5149698],[135.4442809,34.5153829],[135.4442031,34.5154475],[135.4434544,34.5159189],[135.4434272,34.5159429]]}},{"type":"Feature","properties":{"name":"大川・今川","name:en":"","kind":"river"},"geometry":{"type":"LineString","coordinates":[[135.4429058,34.516331],[135.4426252,34.5165376]]}},{"type":"Feature","properties":{"name":"大川・今川","name:en":"","kind":"river"},"geometry":{"type":"LineString","coordinates":[[135.4433618,34.5159919],[135.4429058,34.516331]]}},{"type":"Feature","properties":{"name":"大川・今川","name:en":"","kind":"river"},"geometry":{"type":"LineString","coordinates":[[135.4434272,34.5159429],[135.4433618,34.5159919]]}}]}