{"type":"Feature","properties":{"name":"JR大阪環状線","name:en":"Osaka Loop Line","colour":"#E80000","operator":"西日本旅客鉄道","source":"OpenStreetMap · ODbL · relation/1864758"},"geometry":{"type":"LineString","coordinates":[[135.5218405,34.6465515],[135.5220861,34.6467098],[135.5222828,34.6468542],[135.5224876,34.647017],[135.5225766,34.6471017],[135.5226518,34.6471732],[135.5226859,34.6472045],[135.5232985,34.6477826],[135.524016,34.6484349],[135.5241861,34.648606],[135.5244473,34.648907],[135.524658,34.6491777],[135.5247574,34.6493148],[135.5248582,34.6494641],[135.5250183,34.6497585],[135.5251717,34.6500566],[135.5253105,34.6503798],[135.5254174,34.650687],[135.5255373,34.6510674],[135.5257738,34.6517916],[135.5261266,34.6528933],[135.5266236,34.6544172],[135.526696,34.6546467],[135.5269102,34.6552827],[135.5272633,34.6563631],[135.527681,34.6576346],[135.5277307,34.6577841],[135.5280475,34.6587562],[135.5282376,34.6593452],[135.5291153,34.6620677],[135.5291328,34.6621217],[135.5293986,34.6629462],[135.5296387,34.6636742],[135.5299428,34.664636],[135.5301885,34.6654042],[135.5303674,34.6659416],[135.5304468,34.6661656],[135.5307484,34.6671347],[135.5307716,34.6672132],[135.531121,34.6682543],[135.5314837,34.6693685],[135.5318232,34.670405],[135.5318512,34.6704954],[135.5319251,34.6707072],[135.5320482,34.6709969],[135.5321729,34.6712483],[135.5323085,34.671497],[135.5324373,34.671747],[135.5325321,34.6719457],[135.5326094,34.67215],[135.532673,34.6723604],[135.5327327,34.6726201],[135.5328441,34.6732082],[135.5330137,34.6740623],[135.5330761,34.6742756],[135.5332042,34.6746912],[135.5333945,34.6753203],[135.5335927,34.6759435],[135.5339546,34.6770533],[135.5340555,34.6774061],[135.5341545,34.6778206],[135.5341865,34.6781236],[135.5341985,34.6784171],[135.5341982,34.6787511],[135.5341747,34.6790605],[135.534134,34.6793897],[135.5339814,34.6804448],[135.5339681,34.6805365],[135.5339199,34.680873],[135.5338984,34.6810411],[135.5338869,34.6812083],[135.5338775,34.6817065],[135.5338824,34.6819261],[135.5339011,34.6821732],[135.5339343,34.682477],[135.5339447,34.682616],[135.5340048,34.683271],[135.5340835,34.6841094],[135.5340994,34.6843176],[135.5341144,34.6844772],[135.5341513,34.6849045],[135.5342025,34.6857907],[135.5342386,34.6862307],[135.5342905,34.6868145],[135.5343767,34.6877593],[135.5344308,34.6883423],[135.5344615,34.68861],[135.534511,34.6889023],[135.5345771,34.6891903],[135.5346603,34.6895118],[135.5348773,34.6903043],[135.5348872,34.6903415],[135.5350956,34.6911909],[135.5352444,34.6919066],[135.535293,34.6921392],[135.535333,34.6923729],[135.5353462,34.6924421],[135.5353525,34.6926069],[135.5353589,34.6927276],[135.5353552,34.6928459],[135.5353481,34.692963],[135.5353371,34.6930874],[135.5353206,34.6932111],[135.5352955,34.693338],[135.5352697,34.6934691],[135.5352334,34.6935978],[135.5351585,34.6938195],[135.5349272,34.6944237],[135.5348075,34.6947328],[135.5346402,34.6951408],[135.5344585,34.6955639],[135.534411,34.6956732],[135.534299,34.6959359],[135.5339615,34.6967228],[135.5335321,34.6977178],[135.5333864,34.6980591],[135.5333503,34.6981486],[135.5331657,34.6985729],[135.5330682,34.6987785],[135.5328995,34.6990798],[135.5327375,34.6993107],[135.5325516,34.6995359],[135.5323472,34.6997461],[135.5321213,34.6999441],[135.5318592,34.7001488],[135.5317423,34.7002269],[135.5317051,34.7002512],[135.5296817,34.7014839],[135.529606,34.7015294],[135.5292694,34.7017351],[135.5291833,34.7017875],[135.5285376,34.7021801],[135.5282493,34.702356],[135.5277152,34.7026662],[135.5276382,34.7027156],[135.5264943,34.7034192],[135.5264117,34.703472],[135.5258894,34.7037872],[135.5254945,34.7040317],[135.5251048,34.7042709],[135.5248013,34.7044526],[135.5247292,34.7044944],[135.5247041,34.7045097],[135.5245804,34.7045758],[135.524428,34.7046546],[135.5242991,34.7047153],[135.524168,34.7047747],[135.5240363,34.7048275],[135.5239065,34.7048782],[135.5236241,34.7049692],[135.5235015,34.705002],[135.523405,34.7050265],[135.5233302,34.705045],[135.5231081,34.7050894],[135.5229235,34.7051183],[135.5227411,34.7051436],[135.5225734,34.7051563],[135.522403,34.7051648],[135.5222515,34.7051679],[135.5220971,34.7051681],[135.5219622,34.7051654],[135.5218286,34.7051595],[135.5217004,34.705148],[135.5215481,34.7051344],[135.5214513,34.7051199],[135.5212821,34.7050942],[135.5211311,34.7050637],[135.5210025,34.7050349],[135.5207288,34.7049624],[135.5202984,34.7048244],[135.5196051,34.7045905],[135.5178193,34.7039908],[135.517432,34.7038672],[135.5172817,34.7038217],[135.5170333,34.7037522],[135.5169722,34.7037374],[135.5168217,34.7037052],[135.5165293,34.7036563],[135.5164601,34.7036497],[135.5163763,34.7036417],[135.5162475,34.7036293],[135.5161026,34.70362],[135.5159534,34.7036134],[135.5156531,34.7036156],[135.5155008,34.7036238],[135.5153586,34.7036327],[135.5152101,34.7036497],[135.5150662,34.7036687],[135.5149177,34.7036938],[135.5147696,34.7037225],[135.5146378,34.7037517],[135.5145008,34.703785],[135.514388,34.7038165],[135.5142742,34.7038516],[135.5141617,34.7038876],[135.5140493,34.7039258],[135.5138517,34.7040003],[135.5135768,34.7041232],[135.5133736,34.7042373],[135.5132749,34.7042933],[135.5131777,34.7043524],[135.5122921,34.7048956],[135.5118703,34.7051534],[135.5114947,34.7053864],[135.5112336,34.7055628],[135.511013,34.7056943],[135.5106515,34.7058971],[135.5103782,34.7060289],[135.5101112,34.7061384],[135.5099728,34.7061888],[135.5098362,34.7062361],[135.5097029,34.7062759],[135.5095696,34.7063127],[135.5093957,34.7063534],[135.5092802,34.7063772],[135.5091349,34.7064033],[135.5089903,34.7064259],[135.5086896,34.7064561],[135.5082731,34.7064789],[135.5077911,34.7065017],[135.5073149,34.706527],[135.5068335,34.7065524],[135.5064108,34.706571],[135.5062861,34.7065736],[135.5061298,34.7065736],[135.505985,34.70657],[135.5058245,34.7065614],[135.5057017,34.7065518],[135.505593,34.7065384],[135.5053528,34.7065037],[135.5051055,34.7064477],[135.5048797,34.7063915],[135.5046666,34.7063295],[135.5044809,34.7062755],[135.5042649,34.7062092],[135.5040897,34.7061512],[135.5038788,34.7060676],[135.5036632,34.7059806],[135.5034595,34.705877],[135.5032556,34.705772],[135.5028681,34.7055397],[135.5022365,34.7051718],[135.5017872,34.7049369],[135.5013633,34.7047641],[135.50019,34.7043194],[135.5000288,34.7042519],[135.4998705,34.7041813],[135.4995698,34.7040341],[135.4993246,34.7039113],[135.4985585,34.7035099],[135.4983572,34.7034011],[135.4981794,34.703292],[135.4979816,34.7031666],[135.4977562,34.7030028],[135.4975579,34.7028489],[135.4972644,34.7026256],[135.4971032,34.7025171],[135.4969175,34.7024008],[135.4958689,34.7018596],[135.4951594,34.7014934],[135.4948648,34.7013657],[135.4945441,34.701232],[135.4942971,34.7011254],[135.493293,34.7007176],[135.4930217,34.7005933],[135.4926991,34.7004358],[135.4923907,34.7002688],[135.4921242,34.7001132],[135.4918058,34.6999124],[135.4915696,34.699765],[135.4908711,34.6993207],[135.4906226,34.6991613],[135.4901086,34.698863],[135.489671,34.6986579],[135.4895038,34.6985743],[135.4887694,34.6982112],[135.488573,34.6981096],[135.4876059,34.6975875],[135.4872243,34.697376],[135.4868816,34.6972064],[135.4865176,34.6970244],[135.4861459,34.6968482],[135.4858381,34.6967238],[135.4853805,34.6965414],[135.4849514,34.696345],[135.4845563,34.6961531],[135.4841187,34.6959368],[135.4839238,34.6958396],[135.4837315,34.6957354],[135.4832918,34.6954727],[135.4828928,34.6952031],[135.4825063,34.6949154],[135.482129,34.6946242],[135.481768,34.6943381],[135.4810797,34.6937283],[135.480798,34.6934962],[135.4804659,34.6932343],[135.479458,34.6924627],[135.4783597,34.6916129],[135.4776682,34.6910824],[135.4772994,34.6907971],[135.4769189,34.6905015],[135.4765313,34.690209],[135.476187,34.6899309],[135.4758994,34.6897143],[135.4754446,34.6893573],[135.4750245,34.6890358],[135.4747611,34.688825],[135.4742853,34.6884647],[135.473955,34.6882312],[135.4735671,34.6879531],[135.4727496,34.6873307],[135.4719833,34.6867423],[135.4715205,34.6863844],[135.4708834,34.6859009],[135.4705952,34.6856886],[135.4702037,34.6853896],[135.4691996,34.6846363],[135.4688184,34.684346],[135.4685916,34.6841662],[135.468406,34.6840113],[135.4680924,34.6837404],[135.4677845,34.6834733],[135.467511,34.6832324],[135.4669686,34.6827469],[135.4663285,34.6821517],[135.4662021,34.6820366],[135.4660523,34.6818971],[135.4655062,34.6813874],[135.4654022,34.6812904],[135.464712,34.6806293],[135.4643566,34.6802898],[135.4640964,34.6800536],[135.463819,34.6798242],[135.4636755,34.6797083],[135.4635343,34.6795912],[135.463384,34.6794586],[135.4631935,34.6792932],[135.4630049,34.6791274],[135.4628158,34.6789576],[135.4626012,34.6787284],[135.462463,34.6785583],[135.4623346,34.6783733],[135.4622133,34.6781851],[135.4614689,34.6767452],[135.4613779,34.6765694],[135.4611978,34.6762196],[135.4610193,34.6758678],[135.4609305,34.6756874],[135.4608372,34.6754624],[135.4607473,34.6752179],[135.4606717,34.6749455],[135.4606219,34.6747394],[135.4605832,34.6745303],[135.4605504,34.6742613],[135.4605396,34.6741195],[135.4605307,34.6739759],[135.4605299,34.6738658],[135.4605308,34.6736603],[135.460541,34.6735021],[135.460557,34.6733105],[135.4605792,34.6731317],[135.460598,34.6730139],[135.4606352,34.6728365],[135.4606742,34.6726646],[135.460723,34.6724976],[135.4607748,34.6723258],[135.4608046,34.6722379],[135.4608716,34.6720679],[135.4610173,34.6717443],[135.4611042,34.6715795],[135.4611489,34.6714975],[135.4613241,34.6711962],[135.4614815,34.6709215],[135.4618509,34.6703001],[135.4622396,34.669632],[135.4626025,34.6689981],[135.462997,34.6683175],[135.4632262,34.6679239],[135.4632736,34.6678425],[135.4634436,34.6675556],[135.4635313,34.6674123],[135.4636273,34.6672671],[135.4636876,34.6671829],[135.4637659,34.6670825],[135.4638307,34.6670064],[135.4638991,34.6669308],[135.4640451,34.6667867],[135.4641982,34.6666498],[135.464365,34.6665244],[135.4645494,34.6664029],[135.4646846,34.6663298],[135.4648009,34.6662722],[135.4649298,34.6662083],[135.4650674,34.6661545],[135.465226,34.6660924],[135.4653488,34.6660538],[135.4655149,34.6660075],[135.4656127,34.6659866],[135.4657391,34.6659592],[135.4658772,34.6659376],[135.4660108,34.665919],[135.4662118,34.6659022],[135.4664181,34.665894],[135.4666179,34.6658968],[135.4668185,34.6659121],[135.4670205,34.6659372],[135.4671633,34.6659605],[135.4672986,34.6659873],[135.4674286,34.666018],[135.4675479,34.6660506],[135.4676917,34.6660968],[135.4678379,34.6661489],[135.4679317,34.6661863],[135.4680523,34.6662373],[135.468203,34.6663035],[135.4684109,34.6664006],[135.4685843,34.6664788],[135.4688444,34.6666002],[135.4689001,34.6666263],[135.4693716,34.6668459],[135.4697779,34.6670358],[135.4698643,34.6670756],[135.4701051,34.6671903],[135.4704883,34.6673684],[135.4707739,34.6674927],[135.4710827,34.6676066],[135.471239,34.6676538],[135.4714028,34.6676997],[135.4715639,34.6677391],[135.4717247,34.6677732],[135.4718272,34.6677913],[135.4718506,34.6677954],[135.4720554,34.6678274],[135.4722254,34.6678514],[135.472408,34.6678714],[135.4725773,34.6678838],[135.4726646,34.6678873],[135.4727685,34.6678908],[135.4728754,34.6678901],[135.4729878,34.6678905],[135.4731204,34.667887],[135.473275,34.6678766],[135.4733688,34.667869],[135.4736666,34.6678298],[135.4738901,34.667789],[135.4740126,34.6677632],[135.474115,34.6677368],[135.4742303,34.6677062],[135.4744005,34.6676548],[135.4745668,34.6676006],[135.4747395,34.6675391],[135.4754662,34.6672715],[135.4764182,34.6669177],[135.477029,34.6666895],[135.4774113,34.6665484],[135.4778662,34.6663784],[135.4783017,34.6662151],[135.4786832,34.6660736],[135.47908,34.6659238],[135.4803455,34.6654536],[135.4809668,34.6652251],[135.4811798,34.6651456],[135.482137,34.6647881],[135.4824686,34.6646642],[135.4826019,34.664614],[135.4841231,34.6640462],[135.4842874,34.6639829],[135.4845424,34.6638763],[135.4847148,34.6637949],[135.4848757,34.663713],[135.4850051,34.6636403],[135.4851283,34.6635646],[135.485188,34.6635234],[135.4853115,34.6634366],[135.4854083,34.6633655],[135.4856516,34.6631624],[135.485777,34.6630441],[135.4859064,34.6629109],[135.4860698,34.6627229],[135.4861752,34.6625926],[135.4862721,34.662464],[135.4865119,34.6621347],[135.4870521,34.6613718],[135.4871715,34.6612017],[135.487797,34.6603238],[135.4878675,34.6602262],[135.4881346,34.659853],[135.488229,34.6597181],[135.4883953,34.659501],[135.4885004,34.659373],[135.4886214,34.6592387],[135.4887274,34.6591259],[135.4888418,34.6590078],[135.4888531,34.6589971],[135.4889142,34.6589395],[135.4890102,34.6588487],[135.4891684,34.6587139],[135.4895476,34.6583801],[135.4896155,34.6583195],[135.489864,34.6581015],[135.489903,34.6580672],[135.4900885,34.6579039],[135.4903886,34.6576428],[135.4906774,34.6573855],[135.4908982,34.657178],[135.4910735,34.6570018],[135.4912426,34.6568204],[135.4914089,34.6566247],[135.4915904,34.6563981],[135.4916835,34.656276],[135.4918081,34.6560994],[135.4919962,34.6558182],[135.4921441,34.6555625],[135.4922512,34.6553634],[135.4923636,34.6551415],[135.4926561,34.6545657],[135.4928059,34.6542893],[135.4929565,34.6539933],[135.4931156,34.6537359],[135.4932456,34.65353],[135.4933851,34.6533381],[135.4935166,34.6531754],[135.4937723,34.6529026],[135.4938991,34.6527826],[135.4940632,34.6526432],[135.4941849,34.652534],[135.4943873,34.6523809],[135.4945913,34.652243],[135.4947576,34.652134],[135.4950395,34.6519691],[135.4955585,34.6517217],[135.4957785,34.6516185],[135.4960007,34.6515232],[135.4961167,34.6514809],[135.4962326,34.6514385],[135.4966041,34.6513166],[135.4968445,34.6512431],[135.4971021,34.6511705],[135.4974303,34.6510884],[135.4978819,34.6509803],[135.4981415,34.6509167],[135.4994257,34.650608],[135.5006749,34.6503131],[135.5012356,34.6501812],[135.5022209,34.6499494],[135.5026915,34.6498389],[135.5032781,34.6496948],[135.5036303,34.6495945],[135.5039613,34.6494982],[135.5044353,34.6493584],[135.5046133,34.6493087],[135.5048969,34.6492356],[135.505273,34.6491336],[135.5070794,34.6486821],[135.5078484,34.6484995],[135.5080577,34.6484498],[135.508912,34.6482799],[135.5097921,34.6480844],[135.5101913,34.6479907],[135.5107158,34.6478661],[135.5111949,34.6477492],[135.5115671,34.647672],[135.5118504,34.6476283],[135.5124332,34.6475687],[135.5129468,34.6475195],[135.5133637,34.6474843],[135.5135998,34.6474647],[135.5142627,34.6473751],[135.5155639,34.6470562],[135.5156477,34.6470352],[135.5157028,34.6470198],[135.5158806,34.6469634],[135.516156,34.6468518],[135.5166014,34.6466489],[135.5170133,34.6464588],[135.5174416,34.6462859],[135.5178258,34.6461442],[135.5180824,34.6460508],[135.5183177,34.6459927],[135.5184264,34.645968],[135.5185535,34.6459415],[135.5188258,34.645894],[135.5189609,34.6458793],[135.5190905,34.6458684],[135.5192076,34.645863],[135.5193623,34.6458627],[135.5195288,34.6458703],[135.5197531,34.6458815],[135.5200327,34.6459144],[135.5203253,34.6459577],[135.5205931,34.6460206],[135.5206926,34.6460497],[135.5207784,34.6460747],[135.5208641,34.6460998],[135.5211363,34.6461969],[135.5213961,34.6463099],[135.5216453,34.6464342],[135.5217957,34.6465245],[135.5218405,34.6465515]]}}