{"type":"FeatureCollection","features":[{"type":"Feature","properties":{"name":"舞洲","name:en":"Maishima Island","kind":"coast"},"geometry":{"type":"Polygon","coordinates":[[[135.3932774,34.6699681],[135.3933272,34.6698581],[135.3928861,34.6696931],[135.3926414,34.6696846],[135.391858,34.669485],[135.391065,34.669203],[135.3909458,34.6690618],[135.3909512,34.6689066],[135.3880319,34.6678337],[135.3868405,34.6626555],[135.3878901,34.6625068],[135.3879515,34.662733],[135.3902796,34.662385],[135.3902692,34.662288],[135.39035,34.6622308],[135.39046,34.6622204],[135.3905033,34.6622569],[135.3921791,34.6619979],[135.3922605,34.6619054],[135.3924455,34.6618094],[135.3925992,34.6617853],[135.3928146,34.6617974],[135.3929467,34.6618869],[135.3962992,34.6613517],[135.3963403,34.6612972],[135.3964141,34.6612743],[135.3964841,34.6612883],[135.3965338,34.6613177],[135.3965497,34.6613841],[135.3975641,34.6612272],[135.4016719,34.660592],[135.4019939,34.6605422],[135.401937,34.6602699],[135.4064863,34.6595551],[135.4097755,34.6590384],[135.4101862,34.6613556],[135.4105677,34.6635078],[135.4109679,34.6656533],[135.4088315,34.6658931],[135.4090058,34.6668143],[135.4093803,34.6687936],[135.4066799,34.6705491],[135.402629,34.6731826],[135.3932774,34.6699681]]]}},{"type":"Feature","properties":{"name":"夢洲","name:en":"Yumeshima Island","kind":"coast"},"geometry":{"type":"Polygon","coordinates":[[[135.4045244,34.6537141],[135.3997399,34.656939],[135.398501,34.6571336],[135.3964366,34.6574572],[135.3964255,34.6574589],[135.3964142,34.6574607],[135.3960798,34.6575133],[135.3960267,34.6575209],[135.3923084,34.6581018],[135.3794671,34.6601079],[135.3794382,34.6601125],[135.3793943,34.6601189],[135.3729094,34.6520634],[135.3789584,34.643184],[135.392028,34.642314],[135.3926502,34.6418954],[135.3926844,34.6419285],[135.3927324,34.6418912],[135.3928041,34.6418402],[135.3935553,34.6426071],[135.3952525,34.644332],[135.4045244,34.6537141]]]}},{"type":"Feature","properties":{"name":"咲洲","name:en":"Sakishima Island","kind":"coast"},"geometry":{"type":"Polygon","coordinates":[[[135.4246428,34.6427311],[135.424217,34.642657],[135.4178727,34.6444134],[135.4173554,34.6441413],[135.4171693,34.6443726],[135.4169148,34.6446891],[135.4164698,34.6448169],[135.41588,34.6446076],[135.4158615,34.6446187],[135.41584,34.6446173],[135.4158227,34.644604],[135.4158198,34.6445862],[135.4148553,34.644244],[135.4148385,34.644254],[135.414816,34.6442524],[135.4148019,34.6442397],[135.4147985,34.6442239],[135.4094282,34.6423183],[135.4073108,34.6415669],[135.4052931,34.6408629],[135.405351,34.6407544],[135.4053932,34.6406308],[135.4054082,34.6404995],[135.4054049,34.6403304],[135.4053302,34.6400634],[135.405173,34.6398361],[135.4050341,34.639708],[135.4048066,34.6395778],[135.4045792,34.6394886],[135.4043077,34.6394156],[135.4040126,34.6393662],[135.4034909,34.6393544],[135.4029989,34.6393854],[135.4023973,34.6394837],[135.4018144,34.63964],[135.4017131,34.6396023],[135.3987795,34.6385582],[135.398483,34.63822],[135.3984831,34.6381803],[135.3984529,34.638121],[135.3984319,34.6313558],[135.3986044,34.6313594],[135.4009681,34.631432],[135.4025506,34.6314806],[135.40449,34.6315402],[135.4075474,34.6337606],[135.4082944,34.634303],[135.4085126,34.6344615],[135.4088913,34.6347365],[135.4098053,34.6354004],[135.4104744,34.6358865],[135.4111535,34.6363793],[135.4113916,34.6365533],[135.4122829,34.6372006],[135.4148031,34.6348196],[135.4084976,34.6302373],[135.4074853,34.6294997],[135.4074652,34.6294285],[135.4102526,34.6259526],[135.4104272,34.6258632],[135.4128558,34.6258546],[135.4205712,34.6258486],[135.420923,34.6249565],[135.4221292,34.6219086],[135.4222216,34.6218966],[135.4244542,34.6225046],[135.4317921,34.6244154],[135.4326704,34.6242166],[135.4327536,34.6242543],[135.433252,34.6244799],[135.4336393,34.6251059],[135.4406937,34.6279355],[135.4406408,34.6282007],[135.4415765,34.6287378],[135.4416203,34.6285206],[135.4416622,34.6283148],[135.4418612,34.6283961],[135.440208,34.636763],[135.4393056,34.6412172],[135.438336,34.6410807],[135.438255,34.6414727],[135.438393,34.6414241],[135.4384078,34.6414637],[135.4369107,34.6421357],[135.435666,34.6426931],[135.435121,34.6429277],[135.4347547,34.6430562],[135.4343455,34.6431632],[135.4342419,34.6431827],[135.4339865,34.6432286],[135.4335906,34.6432646],[135.43323,34.6432713],[135.4328911,34.6432566],[135.4325351,34.643215],[135.4323929,34.6438312],[135.4324782,34.6438425],[135.4324367,34.6439795],[135.4324627,34.6439849],[135.4324524,34.6440188],[135.4324264,34.6440134],[135.4324235,34.644023],[135.4323456,34.6440099],[135.4323422,34.6440212],[135.4286027,34.6433953],[135.4246428,34.6427311]]]}},{"type":"Feature","properties":{"name":"","name:en":"","kind":"coast"},"geometry":{"type":"LineString","coordinates":[[135.3586719,34.7041517],[135.3562122,34.7023292],[135.3562807,34.7022667],[135.3587405,34.7040892],[135.3586719,34.7041517]]}},{"type":"Feature","properties":{"name":"","name:en":"","kind":"coast"},"geometry":{"type":"LineString","coordinates":[[135.3767805,34.6857284],[135.3753135,34.6871665],[135.3753621,34.6872675],[135.3753335,34.6872926],[135.3753409,34.687307],[135.3756029,34.6870551],[135.3756389,34.6870831],[135.3753565,34.6873517],[135.3753685,34.6873783],[135.3754987,34.6873404],[135.3755324,34.6874213],[135.3754043,34.6874578],[135.3761902,34.6893132],[135.3769189,34.691046],[135.3771763,34.6916581],[135.3772405,34.6916087],[135.3772391,34.691594],[135.377317,34.6915766],[135.377324,34.6915832],[135.3773515,34.691592],[135.3774976,34.6919281],[135.3774855,34.6919458],[135.3774763,34.6919484],[135.3774833,34.6919582],[135.3774028,34.6919834],[135.377399,34.6919752],[135.3773751,34.6919751],[135.3773086,34.691963],[135.3772923,34.6919606],[135.3774863,34.6924077],[135.377423,34.6924238],[135.3775292,34.6926848],[135.3783269,34.6924438],[135.3783469,34.6924476]]}},{"type":"Feature","properties":{"name":"","name:en":"","kind":"coast"},"geometry":{"type":"LineString","coordinates":[[135.1676087,34.6481394],[135.1676563,34.6480828],[135.1679009,34.6479567],[135.1680335,34.6479346],[135.1685227,34.6479979],[135.1695494,34.6480851],[135.170588,34.6481786],[135.1833525,34.6494898],[135.1835174,34.6496255],[135.1838178,34.6498727],[135.186666,34.6522168],[135.1866762,34.6523757],[135.186954,34.6526102],[135.1870047,34.652616],[135.1876277,34.6526854],[135.1876097,34.6527737],[135.1874629,34.6527607],[135.1874735,34.6526877],[135.1870017,34.6526331],[135.1869381,34.6530364],[135.186895,34.6532688],[135.1868487,34.6532649],[135.1868742,34.653036],[135.1868279,34.6530161],[135.1866858,34.6530647],[135.1864863,34.6530806],[135.1865029,34.6531758],[135.186182,34.653295],[135.186074,34.656077],[135.185976,34.656076],[135.1860548,34.65342],[135.1858959,34.6535159],[135.1848035,34.6536601],[135.1843187,34.6541896],[135.1843818,34.6543245],[135.1844287,34.6545583],[135.1841739,34.654639],[135.1842825,34.6548055],[135.1845749,34.6546941],[135.185147,34.655546],[135.1847315,34.6557681],[135.184794,34.65589],[135.1837024,34.6564171],[135.1837461,34.6564945],[135.1834324,34.6566816],[135.1832407,34.6567335],[135.184259,34.65922],[135.184111,34.659256],[135.1831003,34.656746],[135.182619,34.655569],[135.1807282,34.6554096],[135.1806615,34.6554343],[135.1805502,34.6555778],[135.1806125,34.6578662],[135.180281,34.6583251],[135.1805763,34.65855],[135.1801137,34.6590246],[135.17979,34.6587993],[135.1794162,34.6593481],[135.1786757,34.6606766],[135.1805699,34.6610662],[135.1805322,34.6611796],[135.178612,34.6607777],[135.177954,34.662468],[135.177695,34.66273],[135.1774267,34.6630088],[135.1774331,34.6631271],[135.1774117,34.6638447],[135.1781442,34.6638518],[135.1781575,34.66383],[135.1787081,34.6638451],[135.179813,34.662408],[135.1827216,34.6616585],[135.1828343,34.6617056],[135.1836332,34.6637801],[135.1837648,34.6638346],[135.1859941,34.6632538],[135.1873779,34.6668841],[135.1825574,34.6681622],[135.1804669,34.6679777],[135.180476,34.667875],[135.1796867,34.6665748],[135.1781297,34.6666509],[135.1782005,34.6677717],[135.1779327,34.6681138],[135.177714,34.6684067],[135.1776541,34.6704379],[135.1809405,34.6707347],[135.1823153,34.6704282],[135.1823063,34.6702426],[135.182222,34.6699016],[135.1822784,34.6698322],[135.1822542,34.6696772],[135.182223,34.6696816],[135.1821864,34.6696852],[135.182129,34.6695397],[135.182135,34.669448],[135.183082,34.6692475],[135.1831414,34.6692702],[135.1831866,34.6694335],[135.1830925,34.6694756],[135.1830934,34.669496],[135.1823751,34.6697038],[135.1823787,34.6697065],[135.1823892,34.6697259],[135.1834021,34.6694198],[135.1850087,34.6690518],[135.1850511,34.6691684],[135.1851569,34.6694701],[135.1851814,34.6695344],[135.1836169,34.6699372],[135.1829696,34.6701028],[135.1827067,34.6701658],[135.1827146,34.6702343],[135.1832549,34.6701746],[135.1848755,34.6701284],[135.1848776,34.6702441],[135.1861491,34.6702559],[135.1861555,34.670169],[135.1875919,34.670174],[135.1881009,34.6701692],[135.1880921,34.6702685],[135.187662,34.6702659],[135.1876634,34.6703771],[135.1878816,34.6705023],[135.188158,34.6706708],[135.1882665,34.6705499],[135.1883138,34.670582],[135.1882298,34.6706849],[135.188395,34.6707871],[135.1885881,34.6709069],[135.1887261,34.670866],[135.188746,34.6709205],[135.1886762,34.6709411],[135.1887062,34.6709665],[135.1887255,34.6709996],[135.1886846,34.6710163],[135.1887038,34.6710497],[135.1887627,34.671198],[135.1889161,34.6714876],[135.1888973,34.6714966],[135.1890131,34.6717364],[135.1890956,34.6719137],[135.1890986,34.6719549],[135.1890681,34.6720021],[135.1890737,34.6720291],[135.1891105,34.6720409],[135.1890565,34.672197],[135.1890837,34.6722052],[135.1890671,34.6722551],[135.1894175,34.6723284],[135.1893753,34.6724843],[135.1893507,34.6724828],[135.189246,34.6728112],[135.1892756,34.6728212],[135.189238,34.6729051],[135.1888334,34.6728365],[135.1887332,34.6731988],[135.1886204,34.6736065],[135.1886036,34.6736669],[135.1885719,34.6737024],[135.1883647,34.6736607],[135.188354,34.6736893],[135.188324,34.6736843],[135.1883049,34.6737704],[135.1882561,34.6739466],[135.188236,34.6739901],[135.1881786,34.673978],[135.1881455,34.6740034],[135.18808,34.6742276],[135.1880956,34.6742302],[135.1880926,34.6742465],[135.1880678,34.6742724],[135.1880074,34.6742628],[135.1879814,34.6743193],[135.1878966,34.6745084],[135.187958,34.6745252],[135.1879395,34.6745677],[135.187928,34.6745665],[135.1879121,34.6745748],[135.1878785,34.6746309],[135.1878927,34.6746351],[135.1878734,34.6746793],[135.187848,34.6746724],[135.1878174,34.6747327],[135.1878262,34.6747382],[135.18781,34.6747717],[135.1877297,34.6747512],[135.1875229,34.6748463],[135.1874948,34.6748283],[135.1875059,34.6748156],[135.1873677,34.6747898],[135.1872655,34.6748715],[135.1872994,34.6749136],[135.1872579,34.6749403],[135.1870171,34.6750954],[135.1869888,34.6751136],[135.1869211,34.6750344],[135.1868411,34.6750839],[135.1866344,34.6750971],[135.186179,34.6749553],[135.1861314,34.6749633],[135.185937,34.6752919],[135.1859637,34.6753561],[135.1869228,34.6757405],[135.1869365,34.6757392],[135.1870573,34.6757885],[135.1870868,34.6757353],[135.1873272,34.6758374],[135.187033,34.6763259],[135.1869869,34.6763247],[135.1869846,34.6763549],[135.1870132,34.6763555],[135.1870088,34.6764364],[135.1869808,34.6764358],[135.186964,34.6767572],[135.1869589,34.676859],[135.1847361,34.6767699],[135.18471,34.6767388],[135.184435,34.6767262],[135.1844084,34.6767082],[135.184219,34.6767302],[135.1842188,34.6767182],[135.1841098,34.6767169],[135.1840951,34.6769015],[135.1839389,34.6773031],[135.1838765,34.6774634],[135.1836184,34.677391],[135.1834759,34.6771807],[135.183448,34.6771275],[135.1823614,34.6770161],[135.1822983,34.6768095],[135.1822832,34.6767983],[135.1821103,34.6767995],[135.1821374,34.677367],[135.1822466,34.6773674],[135.1822928,34.6772808],[135.1823292,34.6772633],[135.1825297,34.6772892],[135.1827013,34.6774053],[135.1826181,34.6778933],[135.1827434,34.6779987],[135.1827795,34.6780021],[135.1828635,34.6774224],[135.1830042,34.6773409],[135.183359,34.6773757],[135.1837555,34.677802],[135.1856138,34.6778587],[135.1860209,34.6779815],[135.1849846,34.6803866],[135.1851402,34.6804298],[135.1850215,34.6807238],[135.1839885,34.6807189],[135.1839341,34.6807186],[135.1837688,34.6807178],[135.1836115,34.6807171],[135.1834693,34.6807164],[135.1834345,34.6807704],[135.183473,34.6808917],[135.1835005,34.6809787],[135.183865,34.6809782],[135.1845414,34.6809774],[135.1843079,34.6815548],[135.1843806,34.6820424],[135.1846022,34.6821093],[135.1852011,34.6822901],[135.1857614,34.6824544],[135.1862955,34.682611],[135.1869948,34.6810245],[135.1874206,34.6805134],[135.1882316,34.6795409],[135.1887574,34.6789088],[135.1897926,34.6795001],[135.189272,34.6801255],[135.1884695,34.6810895],[135.1903409,34.6813044],[135.1903507,34.6813262],[135.1903457,34.6813643],[135.1903348,34.6814073],[135.1902146,34.6835564],[135.1902176,34.6835936],[135.190241,34.6836201],[135.1902276,34.6838594],[135.1902323,34.6839493],[135.1902122,34.6839895],[135.1902159,34.68406],[135.1902286,34.6840968],[135.1902035,34.6842558],[135.1901619,34.684386],[135.1901572,34.6845111],[135.1901914,34.6847074],[135.1901578,34.6852517],[135.1901506,34.6853365],[135.1901415,34.6855233],[135.1904048,34.6855283],[135.1904807,34.685507],[135.1911669,34.6855316],[135.1912437,34.685536],[135.1914875,34.6855515],[135.1916408,34.6855565],[135.1919247,34.6855659],[135.1920069,34.6855686],[135.1926448,34.6855962],[135.1927228,34.6855994],[135.1931513,34.6855987],[135.1931457,34.6847616],[135.1929728,34.6847445],[135.1929791,34.6847011],[135.1928849,34.6846918],[135.1928701,34.6846903],[135.1925297,34.6846567],[135.1925233,34.6847002],[135.1924279,34.684691],[135.1924171,34.68469],[135.1922341,34.6846716],[135.1922387,34.6846424],[135.1922473,34.6845868],[135.1923288,34.6840309],[135.1925254,34.6826903],[135.1925295,34.6826608],[135.192605,34.6826697],[135.1931264,34.6794442],[135.193131,34.6794341],[135.1931379,34.6794252],[135.1931441,34.6794195],[135.1931539,34.6794131],[135.1931677,34.6794076],[135.1931788,34.6794053],[135.193193,34.6794047],[135.1941908,34.6795142],[135.1942248,34.6795179],[135.194237,34.6795218],[135.1942491,34.6795283],[135.1942591,34.6795368],[135.1942664,34.6795466],[135.1942706,34.6795563],[135.1942722,34.6795632],[135.1942726,34.6795717],[135.1937894,34.6825931],[135.1937704,34.6827122],[135.1944696,34.682789],[135.195298,34.6828731],[135.1953175,34.6827515],[135.1957293,34.6801794],[135.1957999,34.679737],[135.195855,34.6796924],[135.1969025,34.6798017],[135.1969338,34.6798367],[135.1968597,34.6803013],[135.1964339,34.6829676],[135.1964707,34.6829716],[135.1977561,34.6831097],[135.1978196,34.6827398],[135.1979163,34.6827505],[135.1980261,34.6827627],[135.1981443,34.6820249],[135.1984593,34.6800657],[135.1984777,34.680004],[135.1985008,34.6799842],[135.1995701,34.6800926],[135.1995856,34.6800976],[135.1995958,34.6801042],[135.1996033,34.6801127],[135.1996081,34.6801231],[135.1996067,34.680145],[135.1995824,34.6803785],[135.199478,34.6809886],[135.1994449,34.6812127],[135.1993518,34.6818437],[135.1992433,34.6825224],[135.2010338,34.6828955],[135.2014639,34.6815172],[135.2019859,34.679844],[135.2023582,34.6786508],[135.2023766,34.6786403],[135.2024108,34.6786391],[135.2029793,34.6789651],[135.2029393,34.6790154],[135.2031923,34.6791624],[135.2032288,34.6791228],[135.2036058,34.6793317],[135.2032118,34.6805999],[135.2026819,34.682305],[135.2018429,34.6850052],[135.202766,34.6858902],[135.203889,34.6845807],[135.2042147,34.6847663],[135.2030387,34.686137],[135.2039243,34.6869194],[135.2075063,34.6842937],[135.2181691,34.6900115],[135.2145021,34.6927497],[135.2152463,34.6934318],[135.2149016,34.6938618],[135.2144474,34.6939325],[135.2131834,34.693295],[135.2110971,34.6940935],[135.2068005,34.6917898],[135.2068625,34.6917272],[135.2068395,34.6917132],[135.2068579,34.6916825],[135.2066958,34.6915946],[135.2066778,34.6916146],[135.2064597,34.691492],[135.2060892,34.6912585],[135.2060533,34.6912941],[135.2060701,34.6913057],[135.2058837,34.691508],[135.2058294,34.6914755],[135.2060084,34.6912674],[135.2060222,34.6912745],[135.206052,34.691234],[135.2057348,34.6910419],[135.2052983,34.6915152],[135.2052487,34.6914788],[135.2056778,34.6910041],[135.2053974,34.6908297],[135.2051785,34.6910733],[135.2050313,34.691319],[135.2049449,34.6915587],[135.2048685,34.6917621],[135.2048,34.6919662],[135.2047719,34.6920495],[135.2046887,34.6922062],[135.204813,34.6922568],[135.2048875,34.6922859],[135.2050096,34.6923333],[135.2050536,34.6923151],[135.2050988,34.6923093],[135.2051423,34.6923064],[135.2052854,34.6923891],[135.2053799,34.6924049],[135.2056201,34.6924094],[135.2056582,34.6924405],[135.2057148,34.6924411],[135.2057301,34.6924269],[135.20581,34.6924276],[135.2061175,34.6926928],[135.2064957,34.6927997],[135.2074275,34.6933795],[135.2074876,34.6933259],[135.2080497,34.6936809],[135.207999,34.6937432],[135.211371,34.6958602],[135.2124459,34.6946981],[135.2129693,34.6946496],[135.214952,34.6964184],[135.2150424,34.6964592],[135.2180152,34.6981828],[135.2192764,34.6989191],[135.2192915,34.6989284],[135.2205327,34.6992124],[135.2215463,34.698958],[135.2251796,34.699569],[135.2245477,34.7014239],[135.2256766,34.7016892],[135.2257681,34.701705],[135.2260646,34.7007018],[135.2263075,34.6998692],[135.2261788,34.6998383],[135.2263609,34.6987149],[135.2184631,34.6968834],[135.2184256,34.6963233],[135.2164751,34.6951141],[135.2164965,34.6947654],[135.2168505,34.6943417],[135.2189028,34.6954877],[135.2240186,34.6916911],[135.2383087,34.6932745],[135.2349681,34.6985437],[135.2281894,34.6988299],[135.2279885,34.7000452],[135.2299861,34.7003338],[135.2347563,34.7008694],[135.2350964,34.7009072],[135.2354652,34.7009458],[135.2363353,34.7010368],[135.2369993,34.7011062],[135.2397533,34.7014083],[135.2444971,34.6995089],[135.2445285,34.6995616],[135.24484,34.6994375],[135.2449755,34.6993936],[135.245111,34.6993599],[135.2454556,34.699361],[135.249378,34.6998024],[135.2531607,34.7002158],[135.253309,34.7002476],[135.2533945,34.7003107],[135.2534785,34.7004386],[135.2534818,34.700553],[135.252453,34.706786],[135.252422,34.7069031],[135.2523547,34.7069719],[135.2522484,34.7070131],[135.2520794,34.7070368],[135.2515282,34.7069939],[135.2510601,34.7069432],[135.250456,34.7068594],[135.2503293,34.7075749],[135.2503254,34.7078453],[135.2502561,34.7080401],[135.2502346,34.7081393],[135.2503232,34.7081338],[135.2514685,34.7081216],[135.2513737,34.7086208],[135.2514587,34.7086191],[135.251536,34.7086129],[135.251542,34.7085935],[135.2515462,34.7085635],[135.2515871,34.7085696],[135.2516731,34.7081191],[135.2527516,34.7080701],[135.2527211,34.7084334],[135.252777,34.7084318],[135.2528333,34.7084335],[135.2528483,34.7080708],[135.2543823,34.7081565],[135.256712,34.70806],[135.2567826,34.7080571],[135.2568151,34.7084284],[135.2571291,34.7084118],[135.2571258,34.7082836],[135.2572358,34.7082786],[135.2572304,34.7080751],[135.2573402,34.7080702],[135.2573398,34.7080341],[135.2575358,34.7078579],[135.2586912,34.7078083],[135.2587935,34.7077616],[135.2589455,34.7077543],[135.2601862,34.7076512],[135.2603187,34.7076371],[135.2605767,34.7076143],[135.2609034,34.7076305],[135.261093,34.7076185],[135.2610932,34.7075894],[135.2613182,34.7075682],[135.2615505,34.7075277],[135.2615596,34.7075533],[135.2618434,34.7075025],[135.2621198,34.7074528],[135.2630259,34.7072906],[135.2630217,34.7072525],[135.2631127,34.7072363],[135.2633926,34.7071865],[135.2638907,34.7070972],[135.2639406,34.7072812],[135.2639456,34.7073005],[135.2639107,34.7073079],[135.2639654,34.7075181],[135.264069,34.7074986],[135.2641154,34.7076533],[135.2644313,34.7075941],[135.2643369,34.7072363],[135.265001,34.7071086],[135.2662677,34.7068823],[135.2675254,34.7066526],[135.2675656,34.7067297],[135.267787,34.7066919],[135.2679143,34.7069683],[135.267982,34.7069587],[135.2679878,34.7069711],[135.2682199,34.7069317],[135.2682687,34.7069234],[135.2683244,34.706914],[135.2688494,34.7063571],[135.2693011,34.7062073],[135.2698537,34.7064029],[135.2705521,34.706656],[135.2705652,34.7066541],[135.27087,34.7067618],[135.270872,34.7067513],[135.2721629,34.707209],[135.274194,34.7079426],[135.2743675,34.7080045],[135.2744512,34.7078535],[135.2759859,34.7083952],[135.2760159,34.7083168],[135.2761878,34.7083894],[135.2761494,34.7084566],[135.2763437,34.7085426],[135.2776797,34.7091989],[135.2777099,34.709163],[135.278059,34.709344],[135.2798692,34.7102161],[135.2796876,34.7104738],[135.2800395,34.710634],[135.2801662,34.7104621],[135.2802217,34.710431],[135.2802536,34.7104306],[135.2809436,34.7107724],[135.2808471,34.7108964],[135.2807982,34.7109012],[135.2807833,34.7108936],[135.280726,34.7109754],[135.2807476,34.7109862],[135.2807507,34.7110217],[135.2807352,34.711043],[135.2810573,34.7112143],[135.2815081,34.7114687],[135.2820032,34.7117806],[135.2821381,34.7118592],[135.2818044,34.7123436],[135.2819443,34.7124206],[135.28217,34.7125384],[135.2827654,34.7128345],[135.2831393,34.712744],[135.2831564,34.7127158],[135.2829221,34.7126065],[135.282348,34.7123153],[135.2823629,34.7122976],[135.2829422,34.7125922],[135.2832361,34.712725],[135.283176,34.712807],[135.2831573,34.712974],[135.2831448,34.713086],[135.2842134,34.7131852],[135.2841784,34.7135476],[135.2843076,34.713559],[135.2855588,34.7136891],[135.2855294,34.7139547],[135.2855179,34.7140585],[135.2868225,34.7141905],[135.2872844,34.7142413],[135.287269,34.7144126],[135.2872606,34.7145064],[135.2872512,34.714611],[135.2881778,34.7146984],[135.2886545,34.7147359],[135.2886563,34.7147823],[135.2894798,34.7149979],[135.2900392,34.714868],[135.2908505,34.7151606],[135.2908976,34.7151386],[135.2908188,34.7149571],[135.2912283,34.714827],[135.2914988,34.715388],[135.2916411,34.7154398],[135.2918727,34.7159246],[135.2917162,34.7161962],[135.2919466,34.7162942],[135.2917597,34.7166155],[135.2915285,34.7165241],[135.2912216,34.7170782],[135.2924021,34.7175227],[135.2923703,34.7175641],[135.2913662,34.7171871],[135.2913135,34.7172619],[135.2914978,34.7173353],[135.291254,34.7177385],[135.2924135,34.7181824],[135.2926767,34.7177376],[135.2928175,34.7176911],[135.2930998,34.7177959],[135.2931053,34.7179839],[135.2926508,34.7190235],[135.2924818,34.7193419],[135.2924982,34.7193894],[135.2924456,34.7195116],[135.2924334,34.7195119],[135.2922601,34.7198219],[135.2917383,34.7205825],[135.2917815,34.7206033],[135.2917452,34.7206579],[135.2917774,34.7206732],[135.2918451,34.7207046],[135.2918874,34.7206512],[135.292013,34.7207112],[135.2923892,34.7201398],[135.2924905,34.7201222],[135.2926091,34.7201773],[135.2923856,34.7205203],[135.2927296,34.7206739],[135.2931218,34.7200849],[135.2928322,34.7199485],[135.2926702,34.719894],[135.2927694,34.7197306],[135.2926521,34.719676],[135.292619,34.7196491],[135.2926111,34.7195926],[135.2926217,34.7195514],[135.2926648,34.7194614],[135.2928074,34.7193772],[135.2929825,34.7194488],[135.2930841,34.7192943],[135.2929624,34.7192498],[135.2929264,34.7192289],[135.2929076,34.719184],[135.2929168,34.7191327],[135.2930202,34.7189571],[135.2937687,34.7192516],[135.2941046,34.7193983],[135.2942841,34.7194508],[135.2970426,34.7194444],[135.2971691,34.7194779],[135.2976033,34.7194731],[135.2978269,34.7194419],[135.29904,34.719275],[135.300529,34.7190458],[135.3005164,34.7193442],[135.3004735,34.7196701],[135.3005481,34.719678],[135.3007183,34.7196346],[135.3006977,34.7195677],[135.3009219,34.7195147],[135.3009329,34.7193505],[135.3009468,34.7193525],[135.3009398,34.7195088],[135.301005,34.7194961],[135.3010178,34.7193535],[135.3010285,34.7193554],[135.3010208,34.7194965],[135.3010428,34.7195499],[135.3011499,34.7195273],[135.3011717,34.7195497],[135.301313,34.7195768],[135.3013434,34.7194909],[135.3014419,34.7194634],[135.3014688,34.7194603],[135.3018584,34.7193887],[135.3025007,34.7192701],[135.3031805,34.7191448],[135.3035244,34.7190813],[135.3035457,34.719069],[135.3035448,34.7189718],[135.3035015,34.7189638],[135.3035005,34.7188827],[135.3035127,34.7188622],[135.3037863,34.7188112],[135.3045573,34.718665],[135.3046177,34.7186617],[135.304655,34.7186646],[135.3047315,34.7186823],[135.3047409,34.7187439],[135.3049483,34.7187551],[135.3050777,34.7187621],[135.3051232,34.71869],[135.30516,34.7186272],[135.3052412,34.7186282],[135.3053329,34.7186123],[135.3054029,34.7185748],[135.3054647,34.7185335],[135.3058505,34.71484],[135.305829,34.7147756],[135.3058129,34.7147098],[135.3058194,34.7146685],[135.3058331,34.7146243],[135.3058719,34.7145635],[135.3059267,34.7145276],[135.306025,34.7144845],[135.3060974,34.7144773],[135.3061746,34.7144841],[135.3062506,34.7145129],[135.3063082,34.7145475],[135.3088857,34.7150611],[135.3139009,34.7160546],[135.3139505,34.7160869],[135.3140251,34.716095],[135.3140893,34.7160907],[135.3160916,34.716493],[135.3161839,34.7167973],[135.3163333,34.7168257],[135.3164535,34.7168485]]}},{"type":"Feature","properties":{"name":"","name:en":"","kind":"coast"},"geometry":{"type":"LineString","coordinates":[[135.4031158,34.6937585],[135.4044551,34.6954387],[135.404457,34.6954496],[135.4043267,34.6955245],[135.4045025,34.6957719],[135.4047117,34.6958165],[135.4048837,34.695743],[135.4049491,34.6957825],[135.406359,34.6975958],[135.4072928,34.6970931]]}},{"type":"Feature","properties":{"name":"","name:en":"","kind":"coast"},"geometry":{"type":"LineString","coordinates":[[135.372214,34.6816872],[135.3727371,34.6821249],[135.3727063,34.6821369],[135.3735405,34.6828822],[135.3737033,34.6827631],[135.3737121,34.6827312],[135.3737553,34.6826932],[135.3737309,34.6826693],[135.373726,34.6826568],[135.3738254,34.6825836],[135.3738626,34.6826079],[135.3739072,34.6825986],[135.3742085,34.6828628],[135.3740327,34.6829973],[135.3744131,34.6833336],[135.3744,34.6833486],[135.3743364,34.6832877],[135.3741621,34.6834237],[135.3749774,34.6841431],[135.376659,34.6856499],[135.37672,34.6856811],[135.3767726,34.6857223],[135.3767805,34.6857284]]}},{"type":"Feature","properties":{"name":"","name:en":"","kind":"coast"},"geometry":{"type":"LineString","coordinates":[[135.3896244,34.6923348],[135.3899842,34.6927689],[135.3900599,34.6928603],[135.3904779,34.6933907],[135.3906679,34.6932909],[135.3907312,34.6932996],[135.3918771,34.6947888],[135.3920875,34.6946809],[135.3931847,34.6960933],[135.3938952,34.6969881],[135.3933116,34.6973019],[135.3938574,34.6979997],[135.3934876,34.6984997],[135.3934718,34.6985166],[135.3934569,34.6985035],[135.393427,34.6985503],[135.3933869,34.6985549],[135.3933748,34.698571],[135.3933897,34.6985933],[135.3932833,34.6987375],[135.3932516,34.6987382],[135.3932358,34.698752],[135.3932535,34.6987827],[135.3931341,34.6989465],[135.3930996,34.698948],[135.393079,34.6989787],[135.3930884,34.6989817],[135.3930184,34.699083],[135.3930361,34.6990914],[135.3929742,34.6991781],[135.3929391,34.6991827],[135.392927,34.6991942],[135.392941,34.6992226],[135.3928626,34.6993384],[135.3928384,34.6993276],[135.3928188,34.6993537],[135.3928281,34.6993813],[135.3927301,34.6995274],[135.3921712,34.7003298],[135.3920508,34.7004937],[135.3920826,34.7005588],[135.3920582,34.700582],[135.3920649,34.7005987],[135.3920975,34.7005892],[135.3921369,34.7006697],[135.3922028,34.7008296],[135.3921852,34.7008563],[135.3921913,34.7008686],[135.3922228,34.7008802],[135.3922761,34.701011],[135.3921644,34.7011795],[135.392258,34.7012337],[135.3923988,34.7013153],[135.3924918,34.7013226],[135.3925459,34.7013203],[135.3927586,34.7012772],[135.3929301,34.7012188],[135.3930556,34.7011742],[135.3931078,34.7011159],[135.393172,34.7010187],[135.3930097,34.7009408],[135.3930389,34.7008977],[135.3932016,34.7009758],[135.393372,34.7007325],[135.3933608,34.700728],[135.3940373,34.6997495],[135.3947133,34.6987881],[135.3947325,34.6987956],[135.3949177,34.6986189],[135.3949086,34.698613],[135.3949272,34.6985963],[135.3949474,34.6986109],[135.3947462,34.6988053],[135.3947845,34.6988202],[135.3948098,34.6987794],[135.3950001,34.6988741],[135.3949307,34.6989661],[135.3960367,34.7003174],[135.396304,34.700235],[135.396521,34.700179],[135.3966943,34.7001268],[135.3969869,34.7001172],[135.3974617,34.7001867],[135.3975739,34.700244],[135.3976783,34.7003276],[135.3979489,34.7005349],[135.3980393,34.7006007],[135.3981469,34.7007202],[135.3981665,34.7007167],[135.3981897,34.7007143],[135.398213,34.7007138],[135.3982339,34.7007194],[135.3982565,34.7007293],[135.3982732,34.7007405],[135.3982873,34.7007535],[135.3982759,34.7007392],[135.3982654,34.7007176],[135.3982611,34.7006854],[135.3982674,34.7006565],[135.3982793,34.7006387],[135.398302,34.7006175],[135.3982373,34.7005502],[135.3981661,34.7004695],[135.398078,34.7003214],[135.3980485,34.7002657],[135.3980481,34.7002216],[135.3980823,34.7001802],[135.3983452,34.7000167],[135.3983761,34.7000113],[135.3984295,34.7000131],[135.398458,34.7000229],[135.398497,34.7000486],[135.3987216,34.7002217],[135.398784,34.7002989],[135.3988014,34.700317],[135.3988314,34.7003118],[135.398857,34.7003101],[135.3988835,34.7003123],[135.3989106,34.70032],[135.3989324,34.7003324],[135.3989495,34.7003456],[135.3989372,34.7003301],[135.3989327,34.7003166],[135.3989298,34.7002983],[135.3989316,34.7002743],[135.3989364,34.7002542],[135.3989504,34.700227]]}},{"type":"Feature","properties":{"name":"","name:en":"","kind":"coast"},"geometry":{"type":"LineString","coordinates":[[135.3243403,34.725569],[135.3243997,34.7255653],[135.3244278,34.7255664],[135.3244402,34.7255785],[135.3246304,34.7255687],[135.3248234,34.7255445],[135.3249456,34.7255324],[135.3251467,34.7254771],[135.3252514,34.725431],[135.3253411,34.7253912],[135.3254471,34.7253439],[135.3257394,34.7252878],[135.3258629,34.7252634],[135.3259702,34.7252326],[135.3262799,34.7251696],[135.3264086,34.7251085],[135.3265293,34.7251186],[135.3267014,34.7250636],[135.326853,34.7249994],[135.3271732,34.7248843],[135.3273375,34.7248385],[135.3275017,34.7247939],[135.3276791,34.7247407],[135.3278462,34.7246858],[135.3279151,34.7246561],[135.3279645,34.7246473],[135.3280608,34.7246265],[135.3281112,34.7246099],[135.3281642,34.7245767],[135.3281649,34.7245376],[135.3281817,34.7244819],[135.3282273,34.7244356],[135.3282742,34.7243882],[135.3283252,34.7243954],[135.32835,34.7244119],[135.3283587,34.7244527],[135.3283795,34.7245244],[135.3283969,34.7245508],[135.3284154,34.7245613],[135.3284419,34.7245784],[135.328474,34.7245891],[135.3284871,34.7246054],[135.3284999,34.7246305],[135.3285022,34.7246707],[135.3284918,34.7246916],[135.3284774,34.724712],[135.3284801,34.7247484],[135.3284891,34.7247726],[135.3284955,34.7247862],[135.3285052,34.7247947],[135.3285304,34.7248068],[135.3285491,34.7248217],[135.3285609,34.7248413],[135.3285689,34.7248658],[135.328581,34.7249074],[135.328587,34.7249341],[135.3285756,34.7249363],[135.3285763,34.7249515],[135.3285857,34.7249653],[135.3285984,34.7249738],[135.3286061,34.7249895],[135.3286057,34.725],[135.3287638,34.724961]]}},{"type":"Feature","properties":{"name":"","name:en":"","kind":"coast"},"geometry":{"type":"LineString","coordinates":[[135.3968054,34.6859646],[135.3985243,34.6881001],[135.3986046,34.6880732],[135.398787,34.688303],[135.3990685,34.688641],[135.3989956,34.688702],[135.3991915,34.6889552],[135.4001673,34.6902162],[135.4008462,34.691083],[135.4012367,34.6915893],[135.4014769,34.6918919],[135.4016078,34.6918254],[135.4016692,34.6919074],[135.4016028,34.6919476],[135.4016125,34.6919613],[135.4016845,34.6919283],[135.4017159,34.6919582],[135.4018566,34.6918905],[135.4031158,34.6937585]]}},{"type":"Feature","properties":{"name":"","name:en":"","kind":"coast"},"geometry":{"type":"LineString","coordinates":[[135.3349149,34.725042],[135.3349787,34.7251542],[135.3352486,34.7254897],[135.3354356,34.7256933],[135.3355236,34.7261454],[135.3356249,34.7266388]]}},{"type":"Feature","properties":{"name":"","name:en":"","kind":"coast"},"geometry":{"type":"LineString","coordinates":[[135.3080543,34.706118],[135.3075411,34.7061873],[135.3072924,34.7063878],[135.3071674,34.7065666],[135.3071823,34.7066201],[135.3072248,34.7066805],[135.3072719,34.7067718],[135.3073906,34.7069402],[135.3074487,34.7070912],[135.3075507,34.7072145],[135.3077018,34.7073453],[135.3078736,34.7074632],[135.3080816,34.7075706],[135.3084763,34.7076804],[135.3087111,34.707709],[135.308991,34.7077252],[135.3092971,34.7077279],[135.3096896,34.7076868],[135.3100552,34.7076236],[135.3104057,34.7075242],[135.3107369,34.7073952],[135.3109655,34.7072745],[135.311076,34.7071905],[135.3111665,34.7070818],[135.3112937,34.7068773],[135.3113425,34.7066853],[135.3114041,34.7066718],[135.3114774,34.7066528],[135.3115266,34.7065959],[135.3115412,34.7065037],[135.3115257,34.7063457],[135.3115176,34.7062307],[135.3114335,34.7062062],[135.3113364,34.7061774],[135.3113028,34.7061631],[135.3113173,34.7061294],[135.3114203,34.7061153],[135.3114864,34.7061113],[135.3115775,34.7060744],[135.3117912,34.7060292],[135.311808,34.7059985],[135.3117926,34.7059802],[135.3117539,34.7059653],[135.3115528,34.7059933],[135.3114651,34.7059825],[135.3114041,34.7059728],[135.3113829,34.7059528],[135.3113701,34.7059212],[135.3113644,34.705885],[135.3113657,34.7058453],[135.3113348,34.7058347],[135.3112796,34.7058411],[135.3112302,34.7058452],[135.3112159,34.705858],[135.3112157,34.7058814],[135.311187,34.7059025],[135.3111183,34.7059099],[135.3110514,34.7059155],[135.3110081,34.7059336],[135.3109327,34.7059699],[135.3108864,34.7059913],[135.310839,34.70599],[135.3108091,34.7059643],[135.3107803,34.7059244],[135.3107708,34.705877],[135.3107038,34.7058776],[135.3106968,34.7057882],[135.311812,34.705635],[135.315649,34.705303]]}},{"type":"Feature","properties":{"name":"","name:en":"","kind":"coast"},"geometry":{"type":"LineString","coordinates":[[135.322093,34.705617],[135.322094,34.707824],[135.3220969,34.7078778],[135.3220844,34.7078967],[135.3220729,34.7079173],[135.3220476,34.7079539],[135.322,34.7079841],[135.321944,34.7079958],[135.3217177,34.7079921],[135.3213295,34.7080266],[135.3210415,34.7080714],[135.3206374,34.7081657],[135.3201644,34.7083481],[135.3185319,34.7090727],[135.3184533,34.7090787],[135.3183809,34.709061],[135.3183432,34.7090154],[135.3175652,34.7078159],[135.3175024,34.7077592],[135.3174155,34.7077324],[135.317351,34.7077311],[135.3172994,34.7077405],[135.315851,34.7083767],[135.3160277,34.7086417],[135.3172646,34.7080979],[135.31758,34.7085888],[135.3163432,34.7091306]]}},{"type":"Feature","properties":{"name":"","name:en":"","kind":"coast"},"geometry":{"type":"LineString","coordinates":[[135.3996405,34.6997269],[135.3994968,34.6994896],[135.3994965,34.6994764],[135.3995402,34.6994567],[135.3995431,34.6994623],[135.3997132,34.6994169],[135.3997167,34.6994262],[135.3995494,34.6994717],[135.3995537,34.6994795],[135.3995326,34.6994872],[135.3996441,34.6996737],[135.3996731,34.6996643],[135.399713,34.6997412],[135.3999672,34.6998295],[135.4002407,34.6996585],[135.4002003,34.6996032],[135.400753,34.6993578],[135.4007486,34.6993323],[135.4009252,34.6992547],[135.4009523,34.6992752],[135.4011954,34.6991662],[135.4001283,34.6978008],[135.4001395,34.6975825],[135.4001275,34.6975476],[135.4000907,34.6975111],[135.3976586,34.6944054],[135.3974279,34.6945322],[135.3952269,34.6917309],[135.3954594,34.6916024],[135.3949175,34.6909118],[135.3948653,34.6908452],[135.3943653,34.6902081],[135.3941342,34.6899135],[135.3937223,34.6893885],[135.393673,34.6893257],[135.3935126,34.6891213],[135.393429,34.6891529],[135.393008,34.688592],[135.3926986,34.6882313],[135.3926723,34.6882219],[135.3913247,34.6874628],[135.3863143,34.6846839],[135.3819716,34.6822723],[135.3763762,34.6802071]]}},{"type":"Feature","properties":{"name":"","name:en":"","kind":"coast"},"geometry":{"type":"LineString","coordinates":[[135.3849958,34.6963206],[135.3851061,34.6964971],[135.3866889,34.6958673],[135.3862301,34.6950884],[135.386229,34.694863],[135.3861959,34.6948364],[135.3861368,34.6948265],[135.3860958,34.6947912],[135.3860775,34.6947446],[135.3860902,34.6946746],[135.3861144,34.6946516],[135.3860808,34.6946224],[135.3860827,34.6945917],[135.3860958,34.6945595],[135.3860622,34.6945258],[135.3860454,34.6944752],[135.3860566,34.6944245],[135.3860752,34.6944046],[135.3860566,34.6943816],[135.3860528,34.6943371],[135.3860696,34.6943018],[135.3860398,34.6942895],[135.3860181,34.6942453],[135.3860118,34.6942021],[135.3860155,34.6941822],[135.3859862,34.6941525],[135.3859707,34.6941147],[135.3859614,34.6940963],[135.3859241,34.6940763],[135.3858887,34.6940303],[135.38587,34.6939858],[135.3858793,34.6939429],[135.3858495,34.6939229],[135.3858327,34.6938953],[135.3858345,34.6938708],[135.3857991,34.6938539],[135.3857618,34.693814],[135.3857413,34.6937787],[135.3857431,34.6937174],[135.3857021,34.6936897],[135.3856928,34.6936637],[135.3856965,34.6936407],[135.385648,34.6936069],[135.3856237,34.6935716],[135.3856088,34.6935394],[135.3856076,34.693516],[135.3856076,34.6934802],[135.3855733,34.6934627],[135.3855601,34.6934314],[135.3855615,34.6933999],[135.3855113,34.6933782],[135.3854763,34.6933369],[135.3854638,34.693286],[135.3854691,34.6932535],[135.3854311,34.6932271],[135.3854216,34.6931938],[135.3854177,34.6931656],[135.385382,34.6931537],[135.3853495,34.6931175],[135.3853332,34.6930886],[135.3853293,34.6930495],[135.3853398,34.6930268],[135.3853148,34.693017],[135.3852889,34.6929889],[135.3852818,34.6929628],[135.3852818,34.6929345],[135.3852541,34.6929248],[135.3852127,34.6928899],[135.3851878,34.6928334],[135.3852002,34.6927781],[135.3852312,34.6927442],[135.3852791,34.6927189],[135.3853348,34.6927139],[135.3853896,34.6927236],[135.3854124,34.6927465],[135.3854222,34.6927746],[135.3854927,34.692767],[135.3856181,34.6927548],[135.3858184,34.6927361],[135.3859133,34.6927058],[135.3864229,34.6925497],[135.3866746,34.6924635],[135.3874321,34.6922287],[135.3881749,34.6919954],[135.3887894,34.6918089],[135.3892853,34.6919165],[135.3896244,34.6923348]]}},{"type":"Feature","properties":{"name":"","name:en":"","kind":"coast"},"geometry":{"type":"LineString","coordinates":[[135.3783469,34.6924476],[135.3784157,34.6924278],[135.3785359,34.6923931],[135.3788255,34.6923073],[135.3789317,34.6922758],[135.3788614,34.6921399],[135.37882,34.6920283],[135.3787491,34.6918593],[135.3787796,34.6917378],[135.3788946,34.6916585],[135.3790483,34.6916147],[135.3798166,34.6914158],[135.3807467,34.6911774],[135.3808856,34.6911448],[135.3809958,34.6911796],[135.3810799,34.6912317],[135.3811971,34.691444],[135.3815145,34.6919957],[135.3818367,34.6925482],[135.382195,34.6931669],[135.3824511,34.6930665],[135.3824806,34.6929764],[135.3819697,34.6921276],[135.3814473,34.6912072],[135.3816594,34.6911255],[135.3827208,34.6929813],[135.3827632,34.6930504],[135.3830479,34.6935136],[135.3828298,34.693596],[135.382658,34.6932997],[135.3825869,34.6931833]]}},{"type":"Feature","properties":{"name":"","name:en":"","kind":"coast"},"geometry":{"type":"LineString","coordinates":[[135.3359236,34.7272464],[135.3359911,34.7272477],[135.3360692,34.7271974],[135.3361311,34.7271941],[135.3361881,34.7271504],[135.33746,34.7270994],[135.3373962,34.7266819],[135.3371684,34.7266941],[135.3367124,34.7267029],[135.336081,34.726677],[135.3359671,34.7265896],[135.3357133,34.7266148],[135.3356771,34.7263734],[135.3357348,34.72624],[135.3357455,34.7261276],[135.3358773,34.7261142],[135.3358488,34.725722],[135.3362291,34.7254811],[135.3362113,34.7254679],[135.3367185,34.7251708],[135.3367453,34.725196],[135.3371144,34.7249762],[135.3370934,34.7249502],[135.3373201,34.7248171],[135.3376123,34.7246695]]}},{"type":"Feature","properties":{"name":"","name:en":"","kind":"coast"},"geometry":{"type":"LineString","coordinates":[[135.3517789,34.7140294],[135.352298,34.713564],[135.3523837,34.7134702],[135.352451,34.7132025],[135.352539,34.7130192],[135.3528611,34.712838],[135.3529973,34.7126917],[135.353123,34.7126737],[135.3534447,34.7124317],[135.3535693,34.7122674],[135.3537462,34.7121872]]}},{"type":"Feature","properties":{"name":"","name:en":"","kind":"coast"},"geometry":{"type":"LineString","coordinates":[[135.3163432,34.7091306],[135.3165199,34.709395],[135.3177436,34.708858],[135.3179505,34.7091625],[135.317955,34.7092404],[135.3179075,34.7093039],[135.3178247,34.7093463],[135.3165179,34.7099265],[135.3166482,34.7101301],[135.3166584,34.710146],[135.3167045,34.7102181],[135.316739,34.7102717],[135.3168078,34.7102483],[135.3168768,34.7102337],[135.3169494,34.7102285],[135.3170217,34.7102271],[135.3170937,34.7102329],[135.3171643,34.7102459],[135.3172324,34.710266],[135.3183864,34.7097543],[135.3186196,34.7101216],[135.3187163,34.7103185],[135.3187668,34.710307],[135.3187799,34.710304],[135.3187928,34.7103011],[135.3191832,34.7102119],[135.3192139,34.7102049],[135.3193389,34.7101764],[135.319421,34.7103847],[135.3194574,34.7106046],[135.3194628,34.7109292],[135.3194301,34.7111369],[135.3193738,34.7113216],[135.3193027,34.7114874],[135.3204851,34.7118842],[135.3204769,34.7119007],[135.3204217,34.7120118],[135.3204713,34.7120284],[135.3205264,34.7119174],[135.3205347,34.7119008],[135.32072,34.711963],[135.320815,34.711731],[135.320903,34.7114527],[135.320953,34.711175],[135.320981,34.7108977],[135.3209715,34.7105341],[135.3209142,34.7101734],[135.3208206,34.7098628],[135.3208198,34.7092324],[135.3208454,34.7090764],[135.320906,34.708969],[135.321018,34.708796],[135.321169,34.70865],[135.3213917,34.7085255],[135.3216063,34.7084533],[135.321863,34.7084207],[135.3220061,34.7084306]]}},{"type":"Feature","properties":{"name":"","name:en":"","kind":"coast"},"geometry":{"type":"LineString","coordinates":[[135.3223794,34.7257474],[135.3224151,34.7257697],[135.3225167,34.7258332],[135.3236621,34.7258321]]}},{"type":"Feature","properties":{"name":"","name:en":"","kind":"coast"},"geometry":{"type":"LineString","coordinates":[[135.3461544,34.7201497],[135.3456773,34.7206449],[135.3456573,34.7206587],[135.3456405,34.7206636],[135.345387,34.7206948],[135.3453046,34.7206942],[135.3450149,34.7205291],[135.3447651,34.7202249],[135.3447135,34.7195382],[135.3445794,34.7193673],[135.3444004,34.7192507]]}},{"type":"Feature","properties":{"name":"","name:en":"","kind":"coast"},"geometry":{"type":"LineString","coordinates":[[135.315649,34.705303],[135.320939,34.704839],[135.322093,34.705617]]}},{"type":"Feature","properties":{"name":"","name:en":"","kind":"coast"},"geometry":{"type":"LineString","coordinates":[[135.3598962,34.6913756],[135.3599417,34.691336],[135.3630093,34.6885249],[135.363037,34.6884995],[135.3631414,34.6883491]]}},{"type":"Feature","properties":{"name":"","name:en":"","kind":"coast"},"geometry":{"type":"LineString","coordinates":[[135.3904132,34.679732],[135.3919734,34.6800609],[135.3968054,34.6859646]]}},{"type":"Feature","properties":{"name":"","name:en":"","kind":"coast"},"geometry":{"type":"LineString","coordinates":[[135.3684913,34.6832185],[135.3712887,34.6808565],[135.372214,34.6816872]]}},{"type":"Feature","properties":{"name":"","name:en":"","kind":"coast"},"geometry":{"type":"LineString","coordinates":[[135.320955,34.716151],[135.3163694,34.7152236],[135.316139,34.715177],[135.310191,34.714002]]}},{"type":"Feature","properties":{"name":"","name:en":"","kind":"coast"},"geometry":{"type":"LineString","coordinates":[[135.310191,34.714002],[135.3061614,34.7132847],[135.3061369,34.7132702],[135.3061155,34.7132508],[135.3061057,34.7132372],[135.306098,34.7132223],[135.3060935,34.7131975],[135.3061055,34.7128206],[135.3061102,34.7127718],[135.3061382,34.7126066],[135.3061795,34.7123624],[135.3062438,34.7117758],[135.3062731,34.7116486],[135.3064765,34.7097526],[135.3064983,34.7097488],[135.3065001,34.7097262],[135.306482,34.709726],[135.3065056,34.7095005],[135.3065226,34.7094992],[135.3065244,34.709475],[135.3065081,34.709474],[135.3066402,34.708298],[135.3066454,34.7082241],[135.3066577,34.7082099],[135.3067174,34.7076726],[135.3067432,34.7075732],[135.3069413,34.7061569],[135.3070824,34.7061415],[135.308066,34.7060713],[135.3080543,34.706118]]}},{"type":"Feature","properties":{"name":"","name:en":"","kind":"coast"},"geometry":{"type":"LineString","coordinates":[[135.3037014,34.7121674],[135.3036663,34.7124918],[135.3037226,34.7124918],[135.3032855,34.7168782],[135.2984075,34.7175939],[135.2969345,34.7185795],[135.2947886,34.7185792],[135.2945441,34.7185703],[135.2942236,34.7185097],[135.2937814,34.7183283],[135.2938788,34.7176057],[135.2951005,34.7155333],[135.2933047,34.7148159],[135.2922032,34.7120432],[135.2924171,34.7106464],[135.2925122,34.7103057],[135.2923407,34.7102445],[135.2924396,34.7099052],[135.2925613,34.7099457],[135.2926934,34.7087766],[135.2929562,34.7073654],[135.2933535,34.7047282],[135.2936434,34.7045372],[135.3040773,34.7057028],[135.3042949,34.7059218],[135.3039452,34.7100048],[135.3038567,34.71047],[135.3037014,34.7121674]]}},{"type":"Feature","properties":{"name":"","name:en":"","kind":"coast"},"geometry":{"type":"LineString","coordinates":[[135.3763762,34.6802071],[135.3758497,34.6800135],[135.3758352,34.6800319],[135.3757025,34.6799797],[135.3739156,34.6786317],[135.3762122,34.6766612],[135.3795142,34.6773791]]}},{"type":"Feature","properties":{"name":"","name:en":"","kind":"coast"},"geometry":{"type":"LineString","coordinates":[[135.3795142,34.6773791],[135.3842171,34.6784019],[135.3904132,34.679732]]}},{"type":"Feature","properties":{"name":"","name:en":"","kind":"coast"},"geometry":{"type":"LineString","coordinates":[[135.3220061,34.7084306],[135.3220823,34.7084734],[135.3221064,34.7085366],[135.322122,34.715024],[135.322083,34.716377],[135.320955,34.716151]]}},{"type":"Feature","properties":{"name":"","name:en":"","kind":"coast"},"geometry":{"type":"LineString","coordinates":[[135.3476613,34.7139768],[135.3475139,34.714093],[135.343257,34.7153404],[135.342415,34.7137134],[135.344393,34.7071427],[135.3443071,34.7071273],[135.3450045,34.7047856],[135.3451091,34.7048054],[135.3452099,34.7044965],[135.346992,34.702876],[135.3471098,34.7028658],[135.3481622,34.7036566]]}},{"type":"Feature","properties":{"name":"","name:en":"","kind":"coast"},"geometry":{"type":"LineString","coordinates":[[135.3989504,34.700227],[135.3989358,34.7002114],[135.3988948,34.7001643],[135.3988576,34.7001194],[135.3987369,34.6999118],[135.3987128,34.6998689],[135.3987178,34.6998092],[135.3987367,34.6997855],[135.3987661,34.6997645],[135.3988031,34.6997491],[135.3988521,34.6997444],[135.3989033,34.6997601],[135.3989471,34.6997914],[135.3990105,34.6998403],[135.3990305,34.6998331],[135.3990627,34.6998708],[135.3991458,34.6998142],[135.3996405,34.6997269]]}},{"type":"Feature","properties":{"name":"","name:en":"","kind":"coast"},"geometry":{"type":"LineString","coordinates":[[135.3239069,34.720747],[135.3239021,34.7223253],[135.3238498,34.7223268],[135.3238472,34.7237973],[135.3238815,34.7237982],[135.3238672,34.7242609],[135.3236722,34.7242592],[135.32371,34.724525],[135.323853,34.724525],[135.323857,34.724713],[135.3223794,34.7257474]]}},{"type":"Feature","properties":{"name":"","name:en":"","kind":"coast"},"geometry":{"type":"LineString","coordinates":[[135.3825869,34.6931833],[135.3825294,34.6930879],[135.3822272,34.693226],[135.3823061,34.6933687],[135.3824218,34.6935666],[135.3825915,34.6936801],[135.3826755,34.6936939],[135.3827185,34.6937156],[135.3827619,34.6937152],[135.3828658,34.693674],[135.3829833,34.6936418],[135.3831127,34.6936395],[135.3832222,34.6936648],[135.3833563,34.6936976],[135.3834246,34.6937422],[135.3834931,34.6937956],[135.3835645,34.693901],[135.3837865,34.6942684],[135.3841028,34.6948014],[135.3847259,34.6958691],[135.3849958,34.6963206]]}},{"type":"Feature","properties":{"name":"","name:en":"","kind":"coast"},"geometry":{"type":"LineString","coordinates":[[135.3164535,34.7168485],[135.3165166,34.7167433],[135.3165343,34.7167484],[135.3165431,34.7167364],[135.3165227,34.716727],[135.3165765,34.7166524],[135.3166046,34.7166304],[135.3166275,34.7166221],[135.3166526,34.7166198],[135.3168558,34.7166553],[135.3169258,34.7166226],[135.3169456,34.7166219],[135.3178106,34.7167987],[135.3177946,34.7168603],[135.3178079,34.7168621],[135.3178247,34.7168012],[135.3195028,34.7171349],[135.3194881,34.717198],[135.3195027,34.7172004],[135.3195152,34.7171373],[135.3206172,34.7173491],[135.32061,34.7173832],[135.32226,34.7177111],[135.3222538,34.7177448],[135.3222696,34.7177469],[135.3222759,34.7177145],[135.3235695,34.7179709],[135.3236116,34.7179606],[135.3236615,34.7179533],[135.3237113,34.7179542],[135.3237859,34.717968],[135.3238464,34.7179963],[135.3238914,34.718024],[135.323927,34.7180557],[135.3239467,34.7180872],[135.3239602,34.7181339],[135.3239666,34.7181904],[135.3239633,34.7182393],[135.3239519,34.7182837],[135.3239324,34.7183134],[135.323907,34.7183397],[135.3238992,34.7183558],[135.3239064,34.7188961],[135.3239069,34.720747]]}},{"type":"Feature","properties":{"name":"","name:en":"","kind":"coast"},"geometry":{"type":"LineString","coordinates":[[135.3287638,34.724961],[135.3289116,34.7249245],[135.3289005,34.7247696],[135.3289086,34.7246903],[135.329017,34.724583],[135.3290641,34.7245536],[135.329058,34.7244549],[135.3291374,34.7243617],[135.3293954,34.7242979],[135.3296654,34.724239],[135.331565,34.723427],[135.3327789,34.7229822],[135.332834,34.722962],[135.3331485,34.7228066],[135.3341059,34.722219],[135.334334,34.7220294],[135.334389,34.7219186],[135.3343847,34.7217563],[135.3346563,34.7217522],[135.3346644,34.7219911],[135.3347059,34.7221844],[135.3347471,34.7222575],[135.3347808,34.7223411],[135.334904,34.7227773],[135.3349368,34.7230396],[135.3349717,34.7231675],[135.3350046,34.7232463],[135.3351174,34.7232507],[135.3352143,34.7232495],[135.3353834,34.7237114],[135.3353286,34.7238663],[135.334415,34.7241627],[135.3349149,34.725042]]}},{"type":"Feature","properties":{"name":"","name:en":"","kind":"coast"},"geometry":{"type":"LineString","coordinates":[[135.3248375,34.7165398],[135.324852,34.7108404],[135.3248612,34.7103737],[135.3248812,34.7103737],[135.3249238,34.7103736],[135.3297451,34.7103679],[135.3297458,34.7104067],[135.3300615,34.7104067],[135.3300678,34.7103284],[135.3309993,34.7103303],[135.3309999,34.7104104],[135.3341703,34.7103846],[135.3344406,34.71035],[135.3344366,34.71047]]}},{"type":"Feature","properties":{"name":"","name:en":"","kind":"coast"},"geometry":{"type":"LineString","coordinates":[[135.3481622,34.7036566],[135.3530498,34.7073294],[135.3524156,34.7078913],[135.352404,34.7079398],[135.3523798,34.7080691],[135.3524074,34.7083125],[135.35246,34.7085126],[135.3524119,34.7086875],[135.3523149,34.7087744],[135.3521583,34.7088464],[135.3520574,34.7089199],[135.3518857,34.7091184],[135.3517296,34.709207],[135.3510429,34.7096982],[135.3507418,34.7098257],[135.3506019,34.7098264],[135.3504775,34.7097391],[135.35035,34.7097209],[135.3502107,34.7097468],[135.3500233,34.7099099],[135.3501074,34.7101216],[135.3501345,34.7103172],[135.3500856,34.710483],[135.3500216,34.7106133],[135.3498539,34.7107765],[135.348895,34.7115879],[135.3486934,34.7117919],[135.3480837,34.7122989],[135.347676,34.7127046],[135.3475712,34.712756],[135.347956,34.7137444],[135.3476613,34.7139768]]}},{"type":"Feature","properties":{"name":"","name:en":"","kind":"coast"},"geometry":{"type":"LineString","coordinates":[[135.3546888,34.7113589],[135.3547828,34.7112237],[135.3549768,34.7110609],[135.355302,34.710797],[135.3554284,34.7106206],[135.355464,34.710571],[135.355559,34.710463],[135.355803,34.710264],[135.356275,34.709984],[135.3565706,34.7096959],[135.3569082,34.7092405],[135.357094,34.709046],[135.3570362,34.7089578],[135.357335,34.7088446],[135.3573602,34.7087579],[135.3574654,34.7086169],[135.3577172,34.7084452],[135.3579213,34.7083096],[135.358196,34.708154],[135.3582895,34.7081456],[135.3583372,34.7080915],[135.3583788,34.7080313],[135.358443,34.7079883],[135.3585054,34.7079613],[135.3585664,34.7079106],[135.3585425,34.7078772],[135.3600835,34.7061656],[135.3602526,34.7060152],[135.3604866,34.7058839],[135.3607383,34.705812],[135.3610366,34.7057671],[135.3613016,34.7057635],[135.3615387,34.7057693],[135.3618534,34.7058021],[135.3632649,34.7061959],[135.3633088,34.7061229]]}},{"type":"Feature","properties":{"name":"","name:en":"","kind":"coast"},"geometry":{"type":"LineString","coordinates":[[135.41797,34.6698778],[135.4171686,34.6688131],[135.4171625,34.668608],[135.4171309,34.668609],[135.4171308,34.6685773],[135.4171618,34.6685748],[135.4171438,34.6681976],[135.4171372,34.6680579],[135.4169385,34.6638835],[135.4172768,34.663714],[135.4192293,34.6642705]]}},{"type":"Feature","properties":{"name":"","name:en":"","kind":"coast"},"geometry":{"type":"LineString","coordinates":[[135.4192293,34.6642705],[135.4213055,34.6648424],[135.4214108,34.6646147],[135.4227402,34.665002],[135.4226386,34.6652601],[135.4228764,34.6653236],[135.4234066,34.6654272],[135.4245363,34.6657528],[135.4258811,34.6681416],[135.4260429,34.6681885],[135.4261306,34.6681133],[135.4261185,34.6680978],[135.4261757,34.6679916],[135.4262692,34.6678178],[135.4256687,34.6667662],[135.4256828,34.6667557],[135.4240031,34.6637979],[135.4238745,34.6635715],[135.4226375,34.6632121],[135.4226854,34.6630809],[135.422256,34.6629577],[135.4222048,34.662943],[135.4220685,34.6629039],[135.4220376,34.662895],[135.4178447,34.6616781],[135.4177752,34.6618582],[135.4166197,34.6615434],[135.4164977,34.6614648],[135.4164286,34.6613646],[135.4152506,34.6560905],[135.4152395,34.6558414],[135.4147495,34.6537284],[135.4143603,34.6520536],[135.41429,34.6519681],[135.4142554,34.6518223],[135.4142243,34.6518059],[135.4142129,34.6517785],[135.4142911,34.6516474],[135.4144976,34.6515642],[135.4157002,34.6519733],[135.4157821,34.6521105],[135.4157482,34.6521876],[135.4159453,34.6522702],[135.4165868,34.6548686],[135.4168875,34.6548899],[135.4172216,34.6563561],[135.417243,34.656449],[135.417268,34.6565572],[135.4173234,34.6567974],[135.4173268,34.6568123],[135.4173444,34.6568888],[135.4173659,34.6569817],[135.4175274,34.6576141],[135.4176481,34.6576067],[135.4180774,34.6595238],[135.4204632,34.660198],[135.4204289,34.6600518],[135.4202896,34.6594588],[135.4203448,34.6594499],[135.419789,34.656545],[135.41918,34.653328],[135.41935,34.6532],[135.4207819,34.6537558],[135.420851,34.6538295],[135.422481,34.6567895],[135.422578,34.6567526],[135.4225793,34.6567703],[135.4226893,34.6567295],[135.4227523,34.6568552],[135.4226554,34.6568915],[135.4226759,34.6569391],[135.4226692,34.6570328],[135.422773,34.6572285],[135.4231116,34.6573501],[135.4231303,34.6573664],[135.4233822,34.6574631],[135.4235406,34.6571445],[135.4263106,34.6557402],[135.4263817,34.6557041],[135.4280038,34.6548818]]}},{"type":"Feature","properties":{"name":"","name:en":"","kind":"coast"},"geometry":{"type":"LineString","coordinates":[[135.446215,34.610702],[135.446833,34.606161],[135.439802,34.606136],[135.437597,34.606103],[135.437019,34.604789],[135.43714,34.604749],[135.4462896,34.6019412],[135.4465721,34.6018545],[135.4463799,34.6014223],[135.4466463,34.6009533],[135.4464682,34.6005938],[135.4462824,34.6006499],[135.446155,34.6003555],[135.4456845,34.5992686],[135.4457003,34.5992583],[135.445603,34.5990398],[135.4456366,34.5989684],[135.4456318,34.5987283],[135.4454053,34.5981853],[135.4452443,34.5982295],[135.4451278,34.597991],[135.4448646,34.5979086],[135.4446816,34.5975003],[135.4440392,34.5976975],[135.443765,34.5976797],[135.4423137,34.5980991],[135.4389596,34.5991302],[135.4333269,34.6007949],[135.4339179,34.6021196],[135.4339792,34.6022492],[135.433939,34.6022924],[135.4338486,34.6023205],[135.4341629,34.6026292],[135.4340125,34.6027325],[135.4336341,34.6023569],[135.4329042,34.6025603],[135.4324559,34.6026847],[135.4319054,34.6028415],[135.4315335,34.6029685],[135.4314586,34.6030316],[135.4313784,34.6030279],[135.4311763,34.6029029],[135.431105,34.6028372],[135.4309251,34.602887],[135.430912,34.6028606],[135.429465,34.6032807],[135.4282024,34.6036417],[135.4272553,34.6039226],[135.4272758,34.603976],[135.4256661,34.6044508],[135.4244695,34.6048005],[135.4244328,34.6047978],[135.4239439,34.6049554],[135.4236936,34.6050365],[135.4236047,34.6050391],[135.4235414,34.6049826],[135.4235453,34.6048955],[135.4238939,34.6028795],[135.425365,34.594373],[135.425538,34.593366],[135.427873,34.592455],[135.434434,34.589957],[135.437729,34.588698],[135.4433732,34.5904379],[135.4439741,34.5893359],[135.4440045,34.5893452],[135.4439929,34.5893708],[135.4442876,34.5894605],[135.4442991,34.5894349],[135.4456915,34.5898631],[135.447024,34.59027],[135.4474698,34.590408],[135.4475006,34.5904022],[135.4517686,34.5919056],[135.454253,34.5912713],[135.458041,34.5903167],[135.4590517,34.5900553],[135.4599266,34.5907151],[135.4597197,34.5948364],[135.4599408,34.5948412],[135.4605992,34.594863],[135.4606863,34.5927963],[135.460922,34.5927187],[135.460931,34.5925139],[135.4609383,34.5923457],[135.4608948,34.5923428],[135.4609014,34.592119],[135.4609537,34.5921023],[135.462634,34.5915669],[135.4628052,34.5879957],[135.4691505,34.585871],[135.4689849,34.58555],[135.4689493,34.5854812],[135.4645573,34.5869674],[135.4643856,34.5870093],[135.4642032,34.5870358],[135.4638761,34.5870439],[135.462423,34.587341],[135.4606373,34.5877287],[135.4606166,34.5879023],[135.452445,34.590019],[135.452172,34.58977],[135.4492917,34.5871163],[135.4492846,34.5870528],[135.4493062,34.5870065],[135.4493591,34.5869657],[135.4519043,34.5863248],[135.4534472,34.5859243],[135.4540987,34.5857569],[135.4540952,34.5857478],[135.4541741,34.5857275],[135.4541776,34.5857367],[135.4545731,34.5856351],[135.4556993,34.5853458],[135.4580041,34.5847543],[135.4597936,34.5843019],[135.4599556,34.5842603],[135.4599036,34.584121],[135.4635568,34.5832074],[135.4636399,34.5831979],[135.4637104,34.5832062],[135.4637761,34.5832228],[135.463827,34.5832437],[135.4638639,34.5832652],[135.4642847,34.5831351],[135.4643527,34.5832891],[135.4639906,34.583398],[135.4639819,34.5834436],[135.4639652,34.583512],[135.4639246,34.5835947],[135.4636111,34.5840602],[135.463497,34.5843003],[135.4634257,34.5844637],[135.4635604,34.5846503],[135.4640053,34.5849511],[135.4642234,34.5850116],[135.4645844,34.5850169],[135.4649959,34.5849359],[135.4661646,34.5845701],[135.466181,34.5845596],[135.466184,34.5845427],[135.4661824,34.58453],[135.4655986,34.5838974],[135.4656208,34.5834762],[135.4656422,34.5834756],[135.4656395,34.5835391],[135.4657254,34.5835424],[135.4657276,34.5835157],[135.4657968,34.5835125],[135.4658213,34.5833034],[135.4658192,34.5830157],[135.4657793,34.5830141],[135.465775,34.5829669],[135.4657477,34.5828726],[135.4657522,34.5828642],[135.4657562,34.5828563],[135.465757,34.5828472],[135.4657569,34.5828389],[135.4657487,34.5828243],[135.4657359,34.5828164],[135.4657161,34.5828167],[135.4656878,34.5828231],[135.4656503,34.582828],[135.4656104,34.5828291],[135.4655759,34.5828245],[135.4654718,34.5826098],[135.4654696,34.5825912],[135.4654724,34.5825725],[135.4654801,34.5825548],[135.4654922,34.582539],[135.4655083,34.5825256],[135.4655274,34.5825154],[135.4656826,34.5824706],[135.4656665,34.5824332],[135.4656503,34.5823969],[135.4656328,34.582402],[135.4656226,34.5824043],[135.465613,34.5824032],[135.4656058,34.5824002],[135.4655997,34.5823949],[135.4655809,34.5823529],[135.4655806,34.5823449],[135.4655824,34.5823391],[135.4655867,34.582333],[135.4655921,34.5823286],[135.4656117,34.5823218],[135.4655952,34.5822834],[135.4655786,34.5822448],[135.4655681,34.5822487],[135.4655556,34.5822496],[135.4655473,34.5822483],[135.4655381,34.5822447],[135.465531,34.5822396],[135.4655244,34.5822311],[135.4654294,34.5822635],[135.4654058,34.5822702],[135.4653808,34.582271],[135.4653566,34.5822658],[135.4653353,34.582255],[135.4653187,34.5822397],[135.4652159,34.5820565],[135.4648885,34.5817976],[135.4648372,34.5817982],[135.4647863,34.5817929],[135.4647368,34.5817818],[135.4646897,34.5817651],[135.464646,34.581743],[135.4646064,34.5817162],[135.4645718,34.581685],[135.4645428,34.5816501],[135.4645201,34.5816122],[135.4644955,34.5816036],[135.4640724,34.5814745],[135.4636541,34.5814044],[135.4632256,34.5815641],[135.4631464,34.5816962],[135.4630854,34.5817979],[135.4629288,34.5821339],[135.4628256,34.5823555],[135.4626498,34.5827198],[135.4625822,34.5827755],[135.4625466,34.5828614],[135.4614538,34.5831767],[135.4592425,34.5836034],[135.4592109,34.5836031],[135.4591761,34.5835982],[135.4591305,34.5835678],[135.459107,34.5835308],[135.4591016,34.5834839],[135.4590902,34.5834502],[135.4590721,34.5834226],[135.4590426,34.5833972],[135.4590024,34.5833829],[135.4589635,34.5833757],[135.4589243,34.5833791],[135.458694,34.5834574],[135.4586517,34.5834635],[135.4586115,34.5834602],[135.4585806,34.5834475],[135.4581602,34.583188],[135.4582246,34.583125],[135.4573442,34.5825763],[135.4573744,34.5825407],[135.4572999,34.582496],[135.4572898,34.5825148],[135.4571752,34.5825135],[135.4571773,34.5826501],[135.4564458,34.5826555],[135.4564402,34.5825207],[135.4560034,34.5825202],[135.456005,34.582634],[135.4551624,34.582636],[135.4551618,34.5825153],[135.45501,34.5825187],[135.4550103,34.5826102],[135.4541007,34.5826107],[135.4540711,34.5826107],[135.4534295,34.582728],[135.4533843,34.5826234],[135.4518676,34.5831152],[135.4519617,34.5833186],[135.4505348,34.5837956],[135.450443,34.5836084],[135.4502154,34.5836859],[135.4500878,34.5834244],[135.450438,34.5822182],[135.4504977,34.5820126],[135.4505097,34.5819751],[135.4506704,34.5813916],[135.4505602,34.5813683],[135.450619,34.5811816],[135.450722,34.5811992],[135.4509654,34.5803659],[135.4509804,34.5802264],[135.4509927,34.5801869],[135.4510018,34.5801883],[135.4510651,34.5799638],[135.4510536,34.5799534],[135.451074,34.5799156],[135.4511017,34.5799194],[135.4513228,34.5791663],[135.4511627,34.5791287],[135.4517451,34.5771351],[135.4519521,34.5770357],[135.4519118,34.5769999],[135.452675,34.5765011],[135.4558901,34.5764145],[135.4566877,34.576409],[135.4566817,34.5760548],[135.4567405,34.5760492],[135.456729,34.5757697],[135.4576167,34.5757256],[135.457571,34.573866],[135.4575452,34.5738391],[135.4575221,34.573815],[135.4573005,34.5735837],[135.4570896,34.5733033],[135.457149,34.5732738],[135.4570638,34.5731651],[135.4570558,34.573155],[135.4567594,34.572777],[135.4567478,34.5727622],[135.4566953,34.5726941],[135.4566673,34.5727059],[135.4566877,34.5727255],[135.4564189,34.572919],[135.4564051,34.5729305],[135.4562626,34.5730371],[135.4563068,34.5730784],[135.456016,34.5732826],[135.4559916,34.5732568],[135.4554421,34.5736455],[135.4554844,34.5742279],[135.4554733,34.574235],[135.4554245,34.5742664],[135.455412,34.5742745],[135.455501,34.575824],[135.4550976,34.575835],[135.4541536,34.5758583]]}},{"type":"Feature","properties":{"name":"","name:en":"","kind":"coast"},"geometry":{"type":"LineString","coordinates":[[135.4185159,34.6706093],[135.4182281,34.6702236],[135.4181776,34.670156],[135.41797,34.6698778]]}},{"type":"Feature","properties":{"name":"","name:en":"","kind":"coast"},"geometry":{"type":"LineString","coordinates":[[135.4255335,34.6512974],[135.4256214,34.6511238],[135.4254236,34.6510466],[135.4254058,34.6510344],[135.425396,34.6510182],[135.4253933,34.6509985],[135.4253989,34.6509825],[135.4257687,34.6502985],[135.4261235,34.6499145],[135.4263318,34.6500571],[135.4265088,34.6500108],[135.4279134,34.6497676],[135.4279357,34.6498526],[135.4269584,34.6500225],[135.4270017,34.6501925],[135.4279045,34.6507738],[135.4283859,34.6507993],[135.428779,34.6501156],[135.4288495,34.6501363],[135.4284383,34.6508529],[135.4281479,34.6508392],[135.4281865,34.6508637],[135.4281959,34.6508572],[135.4282211,34.6508601],[135.428256,34.6508769],[135.4281932,34.6509989],[135.4281927,34.6510287],[135.4281343,34.6511495],[135.4292092,34.6515304],[135.429462,34.650834],[135.4294641,34.6508165],[135.4295793,34.650771],[135.4295921,34.6507915],[135.4326748,34.6494469],[135.4328607,34.64941],[135.4328768,34.6494266],[135.4329459,34.6493922],[135.4329878,34.6493726],[135.4330401,34.6493548],[135.4330255,34.6493307],[135.4332255,34.6492417],[135.4343134,34.6486412],[135.4353977,34.6480435]]}},{"type":"Feature","properties":{"name":"第3号岸壁","name:en":"Wharf No.3","kind":"coast"},"geometry":{"type":"LineString","coordinates":[[135.4353977,34.6480435],[135.4386369,34.6466672],[135.4386622,34.6467049],[135.4398639,34.6461926]]}},{"type":"Feature","properties":{"name":"","name:en":"","kind":"coast"},"geometry":{"type":"LineString","coordinates":[[135.4180656,34.6866819],[135.4202271,34.682868],[135.4219947,34.6798807],[135.4219177,34.6797355],[135.4216889,34.6795959],[135.4214045,34.6794315],[135.4211283,34.6793554],[135.420903,34.6792606],[135.4181088,34.6784835],[135.4178426,34.6783716],[135.4122151,34.6768048],[135.4121793,34.6767257],[135.4119073,34.6766487],[135.411611,34.6765483],[135.4088643,34.6755409],[135.4071355,34.6749168],[135.4071174,34.6748428],[135.407157,34.6748565],[135.4089025,34.6754615],[135.4089084,34.6754509],[135.4093388,34.6746679],[135.4087596,34.673156],[135.4089774,34.6730975],[135.4087303,34.6724182],[135.408809,34.6723957],[135.4087849,34.6723385],[135.4087061,34.672361],[135.408694,34.6723283],[135.4084684,34.6723877],[135.408258,34.6718352],[135.4082541,34.6718249],[135.4099057,34.6707421],[135.4099713,34.6707303],[135.4103089,34.6716331],[135.4103917,34.6716177],[135.4104174,34.6716926],[135.4107665,34.6717854],[135.4107892,34.6717914],[135.4108126,34.6717979],[135.4110978,34.6718779],[135.411484,34.672008],[135.4117614,34.6720868],[135.411789,34.6720211],[135.4119808,34.6720756],[135.4120179,34.6720861],[135.4120318,34.6720901],[135.4120042,34.6721558],[135.4121929,34.672205],[135.4124278,34.6722841],[135.4124979,34.6721247],[135.4124346,34.6720982],[135.412444,34.6720889],[135.4140602,34.6725435],[135.4140795,34.6724911],[135.4164489,34.6714549],[135.4185159,34.6706093]]}},{"type":"Feature","properties":{"name":"","name:en":"","kind":"coast"},"geometry":{"type":"LineString","coordinates":[[135.4175338,34.6879107],[135.4175198,34.6878541],[135.417509,34.6878001],[135.4175245,34.6877226],[135.417549,34.687665],[135.4177211,34.6872811],[135.4177531,34.6872084],[135.4177917,34.6871612],[135.4178247,34.687093],[135.4178613,34.687007],[135.4179152,34.6868778],[135.4179577,34.6867578],[135.4179853,34.6867211],[135.4180311,34.6866965],[135.4180656,34.6866819]]}},{"type":"Feature","properties":{"name":"","name:en":"","kind":"coast"},"geometry":{"type":"LineString","coordinates":[[135.4398639,34.6461926],[135.4421209,34.6454266],[135.4421405,34.645374],[135.4423126,34.6452964],[135.4422953,34.6452511],[135.4438174,34.6445906],[135.4438401,34.6446286],[135.4440883,34.6445299],[135.4441205,34.6444606],[135.4447408,34.64378],[135.4470952,34.6412626],[135.4473428,34.6398869]]}},{"type":"Feature","properties":{"name":"","name:en":"","kind":"coast"},"geometry":{"type":"LineString","coordinates":[[135.404314,34.599207],[135.402634,34.599988],[135.402373,34.600061],[135.402192,34.600059],[135.402046,34.599914],[135.402032,34.59981],[135.403428,34.593127],[135.404792,34.586597],[135.404812,34.586576],[135.405836,34.58233],[135.40592,34.581875],[135.406816,34.577737],[135.407915,34.5726818],[135.408746,34.568859],[135.409085,34.567405],[135.4091345,34.5671582],[135.409789,34.563892],[135.409791,34.5638597],[135.409794,34.5638115],[135.409794,34.563811],[135.409953,34.563076],[135.410454,34.560745],[135.4094443,34.5581712],[135.4094546,34.5577955],[135.4096032,34.5577955],[135.4095924,34.554949],[135.4094744,34.5549317],[135.4094112,34.5544615],[135.406016,34.548547],[135.405619,34.548717],[135.405158,34.550869],[135.404986,34.551669],[135.404877,34.551664],[135.404707,34.552588],[135.404611,34.552583],[135.40457,34.552826],[135.403855,34.553446],[135.403788,34.553395],[135.404511,34.552809],[135.404538,34.552573],[135.403931,34.552522],[135.403931,34.552419],[135.404094,34.552415],[135.404107,34.552484],[135.404613,34.552518],[135.404675,34.551986],[135.404203,34.552031],[135.404169,34.552076],[135.404039,34.552065],[135.404067,34.551907],[135.404216,34.551919],[135.404216,34.551982],[135.404742,34.551921],[135.404803,34.551647],[135.404264,34.551581],[135.404257,34.551692],[135.404141,34.551699],[135.404251,34.551017],[135.404341,34.551034],[135.404351,34.550937],[135.404284,34.550927],[135.404319,34.550791],[135.404432,34.550807],[135.404385,34.551217],[135.404891,34.551281],[135.405492,34.548421],[135.405873,34.548282],[135.400632,34.539044],[135.399142,34.536416],[135.3946442,34.5324916],[135.3938561,34.5314439],[135.388354,34.5240047],[135.3883115,34.5239476],[135.3873725,34.5227581],[135.3844884,34.5188266],[135.3844785,34.5188509],[135.3843368,34.519256],[135.3835853,34.5215141],[135.3831076,34.5229767],[135.3824296,34.5250342],[135.3820682,34.5261218],[135.3817597,34.5270412],[135.3817862,34.5270492],[135.3807964,34.5300278],[135.3808134,34.5300332],[135.380779,34.5301412],[135.3783208,34.5318925],[135.3782548,34.5319374],[135.372978,34.524906],[135.372205,34.523873],[135.3712947,34.5226015],[135.3681078,34.518326],[135.3671593,34.5170606],[135.3681386,34.5163324],[135.3701668,34.5148272],[135.3721677,34.5133384],[135.375472,34.5108784],[135.3761666,34.5118171],[135.3766065,34.512418],[135.3772053,34.511963],[135.3771878,34.5119465],[135.3780845,34.511271],[135.3781092,34.5112939],[135.3785648,34.5109485],[135.3777608,34.5098695],[135.3773846,34.5093699],[135.3737149,34.5072955],[135.372206,34.504898],[135.3712057,34.5036231],[135.3712356,34.5036037],[135.3711737,34.503525],[135.371223,34.5034902],[135.3707198,34.5027976],[135.3707468,34.500393],[135.3707708,34.496646],[135.3707708,34.4965377],[135.3707678,34.4956119],[135.372205,34.49448],[135.372274,34.494462],[135.3724409,34.4943651],[135.372235,34.4939],[135.372205,34.493885],[135.370272,34.4902265],[135.3702463,34.4901779],[135.3702351,34.4901567],[135.3721603,34.4891517],[135.3728026,34.488826],[135.3738611,34.488268],[135.3739163,34.4882404],[135.3739466,34.4882253],[135.3754259,34.4874858],[135.3753553,34.4874025],[135.375373,34.4872683],[135.3753075,34.4871677],[135.3753465,34.4871438],[135.3754102,34.4871123],[135.375635,34.4869963],[135.3756756,34.4869751],[135.3757481,34.487067],[135.3759162,34.4870393],[135.3760083,34.4870568],[135.3760767,34.4871522],[135.3773698,34.4865004],[135.3771521,34.4859607],[135.3771089,34.4858364],[135.3767522,34.4848204],[135.3764194,34.4838918],[135.3759403,34.4824915],[135.3758767,34.4824686],[135.3758146,34.4823507],[135.3724185,34.4833622],[135.372245,34.482674],[135.372205,34.482632],[135.371837,34.481268],[135.372205,34.481093],[135.376966,34.478609],[135.3765021,34.4773352],[135.3760939,34.4760846],[135.3757683,34.4759143],[135.3752158,34.4756255],[135.37516,34.475551],[135.375723,34.475239],[135.375848,34.475193],[135.376014,34.475078],[135.376131,34.47502],[135.376023,34.474886],[135.376449,34.474697],[135.376255,34.474395],[135.376263,34.474371],[135.376394,34.474328],[135.37635,34.474199],[135.375976,34.473276],[135.375864,34.473242],[135.37575,34.473217],[135.375129,34.473579],[135.375064,34.473629],[135.37515,34.473758],[135.374989,34.473836],[135.373535,34.474691],[135.374434,34.475795],[135.374047,34.476072],[135.374139,34.476171],[135.37411,34.476215],[135.37327,34.47681],[135.372682,34.4772],[135.372719,34.477257],[135.372205,34.477582],[135.371726,34.477877],[135.371549,34.477704],[135.371119,34.478015],[135.366153,34.480657],[135.364193,34.478106],[135.363812,34.477609],[135.367382,34.472978],[135.3671896,34.4728548],[135.3678956,34.471917],[135.3673512,34.4716328],[135.3677836,34.471064],[135.3684838,34.4714282],[135.371221,34.471916],[135.372205,34.471629],[135.37218,34.471514],[135.371438,34.470586],[135.371352,34.470564],[135.3706,34.469569],[135.370424,34.469125],[135.370374,34.468813],[135.3703219,34.4684931],[135.3703225,34.4682908],[135.3703192,34.4681725],[135.3702911,34.4680155],[135.3702244,34.4678414],[135.3701589,34.4677407],[135.3700838,34.4676473],[135.3700617,34.4676628],[135.3699669,34.4675757],[135.3698705,34.4675136],[135.3697737,34.4674744],[135.369682,34.4674519],[135.369581,34.467441],[135.3694606,34.4674366],[135.3693102,34.4674627],[135.3691149,34.4675467],[135.3690961,34.4675312],[135.3688617,34.4676729],[135.3686399,34.4677716],[135.3684657,34.4677937],[135.368307,34.4677899],[135.3681468,34.4677658],[135.3680167,34.4677309],[135.3679034,34.4676667],[135.3678657,34.4676879],[135.3677339,34.4675892],[135.3676098,34.4675465],[135.3672176,34.467652],[135.3670191,34.4678546],[135.3672484,34.4680123],[135.3672633,34.4684646],[135.367195,34.4684666],[135.3672023,34.4686474],[135.3669848,34.4686523],[135.3669757,34.468473],[135.3669148,34.4684748],[135.3668821,34.4678867],[135.3667996,34.4678892],[135.3668055,34.4679989],[135.3667681,34.4680394],[135.3667364,34.4680417],[135.3666472,34.4680484],[135.3665847,34.4680531],[135.365511,34.4681455],[135.3655726,34.4682459],[135.3655288,34.4682687],[135.3655246,34.4682709],[135.3654938,34.4682323],[135.3641282,34.4665228],[135.3635514,34.4657932],[135.3625678,34.4663241]]}},{"type":"Feature","properties":{"name":"","name:en":"","kind":"coast"},"geometry":{"type":"LineString","coordinates":[[135.4079611,34.6197285],[135.4059711,34.619723],[135.4055756,34.6193319],[135.4048565,34.6193153],[135.4044442,34.6197248],[135.4037865,34.6197243],[135.402162,34.620693],[135.3995402,34.6206837],[135.3994472,34.6206443],[135.3998257,34.6196829],[135.4002113,34.6186923],[135.4011452,34.6184168],[135.4012185,34.6182151],[135.4007762,34.6176937],[135.4006322,34.6173471],[135.4016155,34.6148132],[135.4026755,34.6120813],[135.4026425,34.6120751],[135.4026556,34.6120302],[135.4026819,34.6120497],[135.4028362,34.6120629],[135.4028363,34.6120913],[135.4033925,34.6120878],[135.4060082,34.6120959],[135.4113205,34.6120963],[135.4170212,34.6120862],[135.4175228,34.6107925],[135.4182777,34.6107922],[135.4191567,34.6107921],[135.4191575,34.6108817],[135.4191574,34.6113975],[135.4191649,34.612662],[135.4204255,34.6129152],[135.4190557,34.6174634],[135.4184286,34.6195454],[135.4170791,34.6197059],[135.4170506,34.6194559],[135.4148278,34.6197118],[135.4148089,34.6195956],[135.4150191,34.6195552],[135.415004,34.6194619],[135.4147871,34.6194823],[135.4147747,34.6194228],[135.4121815,34.6197244],[135.4079611,34.6197285]]}},{"type":"Feature","properties":{"name":"","name:en":"","kind":"coast"},"geometry":{"type":"LineString","coordinates":[[135.4541536,34.5758583],[135.4527079,34.5758888],[135.4517721,34.5753682],[135.4516322,34.5749341],[135.4513992,34.5749883],[135.4505827,34.5724177],[135.4508131,34.5723642],[135.449743,34.5690525],[135.4496869,34.5688893],[135.4494279,34.568055],[135.4494353,34.5680137],[135.4521089,34.5669439],[135.4521018,34.5669293],[135.4527801,34.566655],[135.4532088,34.5665012],[135.4532678,34.5664387],[135.4533338,34.5664348],[135.452917,34.5657016],[135.4531417,34.5656191],[135.4530263,34.5654388],[135.452797,34.5655242],[135.4523689,34.5647966],[135.4498125,34.5655698],[135.4486204,34.5659253],[135.4485894,34.5659477],[135.4485919,34.565985],[135.448655,34.5661326],[135.4476862,34.5664056],[135.4472679,34.5665646],[135.446484,34.5667959],[135.4461817,34.5666807],[135.4460997,34.5667083],[135.444996,34.56708],[135.444969,34.567249],[135.444831,34.567243],[135.444811,34.56735],[135.444716,34.56735],[135.444647,34.567851],[135.444709,34.567876],[135.444655,34.568163],[135.444557,34.568188],[135.444476,34.568692],[135.444587,34.568732],[135.444617,34.568864],[135.444696,34.568867],[135.444362,34.570604],[135.4438933,34.57336],[135.4438308,34.5736452],[135.4438186,34.573714],[135.443799,34.573825],[135.4437996,34.5739083],[135.443568,34.5752369],[135.4434564,34.5759246],[135.4433652,34.5759227],[135.4432608,34.5762367],[135.4434312,34.5762829],[135.4433683,34.5764319],[135.4433922,34.5764373],[135.443294,34.576752],[135.4431315,34.577333],[135.4431203,34.5773884],[135.4430937,34.5774044],[135.4429647,34.5778862],[135.4427578,34.5786439],[135.4427064,34.5786393],[135.4424542,34.5786169],[135.4423701,34.579137],[135.4425496,34.5791656],[135.442566,34.5791682],[135.4425973,34.5791997],[135.4425252,34.5794308],[135.4424766,34.5794482],[135.4424515,34.5795885],[135.442392,34.579977],[135.441576,34.582889],[135.441544,34.582921],[135.4378317,34.5827901],[135.4351581,34.5826964],[135.4343919,34.5826656],[135.4343607,34.5828798],[135.4341736,34.5840422],[135.4340242,34.5849706],[135.4340229,34.5850079],[135.4340176,34.5850405],[135.4339738,34.5853113],[135.4339488,34.5854652],[135.4339039,34.5857429],[135.433892,34.5858159],[135.4338536,34.5860533],[135.4338493,34.5860798],[135.433872,34.586121],[135.4337853,34.5867029],[135.4262015,34.5896742],[135.4261319,34.5896431],[135.4262676,34.588729],[135.4263038,34.5887145],[135.4264447,34.5878562],[135.4262861,34.5878327],[135.4262377,34.5878256],[135.4264623,34.5865201],[135.4267477,34.5847949],[135.426805,34.5848013],[135.4269608,34.5848186],[135.4270441,34.5843276],[135.4269198,34.5843147],[135.4269153,34.5843442],[135.4268839,34.5843409],[135.426825,34.5843348],[135.4268503,34.5841894],[135.4269087,34.5841959],[135.4270654,34.5842131],[135.4271825,34.5835659],[135.4269296,34.5835383],[135.4271507,34.5822486],[135.4274467,34.5822831],[135.4274552,34.5822404],[135.4271604,34.5822128],[135.427329,34.5811475],[135.4275726,34.5811725],[135.4276614,34.5806727],[135.4276679,34.5806358],[135.4277614,34.5801094],[135.4278444,34.5796153],[135.4278518,34.5795715],[135.4280771,34.5782307],[135.4285201,34.5757071],[135.428538,34.5756053],[135.4286451,34.574995],[135.4287062,34.5750001],[135.4288226,34.574309],[135.4290604,34.5728979],[135.429078,34.5727934],[135.4292799,34.5715947],[135.429297,34.5714935],[135.4294299,34.5707045],[135.4280579,34.5705412],[135.428035,34.5705385],[135.4271889,34.5704378],[135.4271034,34.5704276],[135.425996,34.5702958],[135.4258947,34.5702837],[135.4251373,34.570194],[135.4208178,34.5696794],[135.4199633,34.5740543],[135.418798,34.579574],[135.41865,34.580269],[135.418744,34.580279],[135.418764,34.580256],[135.41894,34.580279],[135.418883,34.580583],[135.418731,34.580578],[135.418738,34.58051],[135.418593,34.580484],[135.418489,34.58095],[135.418559,34.580962],[135.418599,34.580887],[135.418782,34.580913],[135.418713,34.581221],[135.418555,34.5812],[135.418574,34.581159],[135.418463,34.581153],[135.418303,34.582027],[135.417244,34.586597],[135.415729,34.593751],[135.413874,34.594649],[135.40968,34.596674],[135.404314,34.599207]]}},{"type":"Feature","properties":{"name":"","name:en":"","kind":"coast"},"geometry":{"type":"LineString","coordinates":[[135.408214,34.6965971],[135.40833,34.69621],[135.408506,34.695675],[135.408608,34.69528],[135.408742,34.694874],[135.409137,34.693972],[135.409493,34.693302],[135.410004,34.692437],[135.410301,34.692023],[135.410433,34.691879],[135.410793,34.691489],[135.411079,34.691263],[135.411563,34.69093],[135.412361,34.690428],[135.413086,34.690048],[135.4141932,34.6895155],[135.414513,34.6895157]]}},{"type":"Feature","properties":{"name":"","name:en":"","kind":"coast"},"geometry":{"type":"LineString","coordinates":[[135.3586667,34.6276246],[135.3649153,34.6323565],[135.3648214,34.632425],[135.3644918,34.6322513],[135.3585081,34.6277567],[135.3541144,34.631725],[135.3541086,34.6317524],[135.3540874,34.6317845],[135.3540591,34.6318064],[135.3540243,34.6318149],[135.3540263,34.6318336],[135.3540186,34.6318499],[135.3540002,34.6318627],[135.35398,34.6318623],[135.3539781,34.6318883],[135.3539651,34.6319179],[135.3539405,34.6319409],[135.3539087,34.6319563],[135.3538837,34.6319574],[135.3538849,34.6319781],[135.3538734,34.6319976],[135.3538482,34.6320142],[135.3538208,34.632016],[135.3538171,34.6320363],[135.3538076,34.6320598],[135.3537871,34.632082],[135.3537524,34.6320975],[135.3537257,34.6321014],[135.3537279,34.6321138],[135.3537261,34.6321302],[135.3537148,34.6321433],[135.3536966,34.632152],[135.3536694,34.6321533],[135.3536701,34.6321762],[135.35366,34.6322005],[135.3536382,34.6322212],[135.3536073,34.632238],[135.3535714,34.6322421],[135.3535363,34.632239],[135.3535772,34.6323466],[135.3533437,34.6325608],[135.3532034,34.6324144],[135.3436691,34.6224379],[135.3435894,34.622269],[135.3435199,34.622049]]}},{"type":"Feature","properties":{"name":"","name:en":"","kind":"coast"},"geometry":{"type":"LineString","coordinates":[[135.3435199,34.622049],[135.343474,34.6218077],[135.3434663,34.6215789],[135.3435169,34.621278],[135.3436028,34.6210153],[135.3456657,34.6172967]]}},{"type":"Feature","properties":{"name":"","name:en":"","kind":"coast"},"geometry":{"type":"LineString","coordinates":[[135.3991962,34.6879923],[135.3992775,34.6879473],[135.3992963,34.6879494],[135.4002039,34.6891216],[135.4001123,34.6891701],[135.4000935,34.6891659],[135.3991962,34.6880078],[135.3991962,34.6879923]]}},{"type":"Feature","properties":{"name":"","name:en":"","kind":"coast"},"geometry":{"type":"LineString","coordinates":[[135.4042266,34.6400178],[135.4042912,34.6399177],[135.4043935,34.6398418],[135.404508,34.6398018],[135.4046318,34.6397928],[135.404753,34.6398158],[135.4048596,34.6398685],[135.4049412,34.6399458],[135.4049896,34.64004],[135.4050003,34.640142],[135.4049721,34.6402416],[135.4049079,34.6403292],[135.4048138,34.6403962],[135.404686,34.6404384],[135.4045483,34.6404421],[135.4044174,34.6404069],[135.4043089,34.640337],[135.404236,34.6402409],[135.4042075,34.64013],[135.4042266,34.6400178]]}},{"type":"Feature","properties":{"name":"中央突堤緑地北岸壁","name:en":"Central Pier North Wharf","kind":"coast"},"geometry":{"type":"LineString","coordinates":[[135.4273989,34.6519488],[135.4255335,34.6512974]]}},{"type":"Feature","properties":{"name":"","name:en":"","kind":"coast"},"geometry":{"type":"LineString","coordinates":[[135.4280038,34.6548818],[135.4283751,34.6538505],[135.4283774,34.653844],[135.4283797,34.6538375],[135.4287203,34.6528933],[135.4286948,34.6528812],[135.4285898,34.6527879],[135.428618,34.6527125],[135.428625,34.6526939],[135.4287647,34.652321],[135.4279541,34.6520227],[135.4279584,34.6520093],[135.4274577,34.6518354],[135.4273989,34.6519488]]}},{"type":"Feature","properties":{"name":"鶴浜岸壁","name:en":"","kind":"coast"},"geometry":{"type":"LineString","coordinates":[[135.4473428,34.6398869],[135.4473729,34.6397199],[135.4478047,34.6373207]]}},{"type":"Feature","properties":{"name":"鶴浜南岸壁","name:en":"","kind":"coast"},"geometry":{"type":"LineString","coordinates":[[135.4478047,34.6373207],[135.4481191,34.6355741]]}},{"type":"Feature","properties":{"name":"","name:en":"","kind":"coast"},"geometry":{"type":"LineString","coordinates":[[135.3405856,34.7145811],[135.3411761,34.7157983],[135.34076,34.7181002],[135.3404671,34.7180647],[135.340299,34.7178818],[135.338212,34.7191357],[135.3377671,34.7194049],[135.3374862,34.7195749],[135.3371682,34.7197673],[135.3368652,34.7199506],[135.336496,34.720174],[135.3355417,34.7207514]]}},{"type":"Feature","properties":{"name":"","name:en":"","kind":"coast"},"geometry":{"type":"LineString","coordinates":[[135.3486556,34.7221905],[135.3488381,34.7219782],[135.3488346,34.7218667],[135.3483811,34.7215684],[135.3482699,34.7214953]]}},{"type":"Feature","properties":{"name":"","name:en":"","kind":"coast"},"geometry":{"type":"LineString","coordinates":[[135.3447573,34.7213719],[135.3449369,34.721341],[135.3449313,34.7212808],[135.3452004,34.7212399],[135.3452348,34.7212891],[135.345604,34.7209895],[135.3456945,34.7209447],[135.345936,34.7207124],[135.3460291,34.7206107],[135.3460579,34.7206074],[135.3460695,34.7205926],[135.3462902,34.7207095],[135.3463857,34.7206912],[135.3465738,34.7207819],[135.3469555,34.7212327],[135.3479067,34.7218038],[135.3480373,34.7218249],[135.3486556,34.7221905]]}},{"type":"Feature","properties":{"name":"","name:en":"","kind":"coast"},"geometry":{"type":"LineString","coordinates":[[135.3446968,34.7219],[135.344578,34.7214025],[135.3447573,34.7213719]]}},{"type":"Feature","properties":{"name":"","name:en":"","kind":"coast"},"geometry":{"type":"LineString","coordinates":[[135.3376123,34.7246695],[135.337812,34.724565],[135.338356,34.724239],[135.338229,34.724098],[135.338458,34.723959],[135.338583,34.724099],[135.338843,34.723955],[135.338927,34.722502],[135.3388689,34.7223832],[135.33894,34.722268],[135.343209,34.719676],[135.344302,34.720827],[135.344181,34.721811],[135.3443161,34.7219723],[135.3446968,34.7219]]}},{"type":"Feature","properties":{"name":"","name:en":"","kind":"coast"},"geometry":{"type":"LineString","coordinates":[[135.3633088,34.7061229],[135.3635372,34.7057432],[135.3638007,34.705305]]}},{"type":"Feature","properties":{"name":"","name:en":"","kind":"coast"},"geometry":{"type":"LineString","coordinates":[[135.3537462,34.7121872],[135.3539427,34.7119245],[135.3541609,34.711765],[135.3543159,34.7116517],[135.3546317,34.7114411],[135.3546888,34.7113589]]}},{"type":"Feature","properties":{"name":"","name:en":"","kind":"coast"},"geometry":{"type":"LineString","coordinates":[[135.3489089,34.7146888],[135.3489423,34.7146619],[135.349421,34.7150104],[135.349653,34.715012],[135.350515,34.714886],[135.350781,34.714814],[135.350966,34.714714],[135.351156,34.714571],[135.3516867,34.7141155],[135.3517789,34.7140294]]}},{"type":"Feature","properties":{"name":"","name:en":"","kind":"coast"},"geometry":{"type":"LineString","coordinates":[[135.3482699,34.7214953],[135.348162,34.7214267],[135.3461544,34.7201497]]}},{"type":"Feature","properties":{"name":"","name:en":"","kind":"coast"},"geometry":{"type":"LineString","coordinates":[[135.3444004,34.7192507],[135.3442683,34.719256],[135.343696,34.7185664],[135.3451601,34.7174989],[135.3451131,34.7174603],[135.3474289,34.7157623],[135.3487894,34.714785],[135.3489089,34.7146888]]}},{"type":"Feature","properties":{"name":"","name:en":"","kind":"coast"},"geometry":{"type":"LineString","coordinates":[[135.3631414,34.6883491],[135.3656897,34.6859053],[135.3684913,34.6832185]]}},{"type":"Feature","properties":{"name":"","name:en":"","kind":"coast"},"geometry":{"type":"LineString","coordinates":[[135.357669,34.6996488],[135.353939,34.6968234],[135.3575043,34.6935519],[135.3583552,34.6927243],[135.3596882,34.6915569],[135.3598962,34.6913756]]}},{"type":"Feature","properties":{"name":"","name:en":"","kind":"coast"},"geometry":{"type":"LineString","coordinates":[[135.3638007,34.705305],[135.3635,34.7054303],[135.3634366,34.7053578],[135.3636047,34.7052713],[135.363722,34.705027],[135.362155,34.703567],[135.3621519,34.7034769],[135.362082,34.703419],[135.362176,34.703235],[135.361608,34.702914],[135.36299,34.70164],[135.361325,34.700361],[135.360534,34.701091],[135.359655,34.701153],[135.357669,34.6996488]]}},{"type":"Feature","properties":{"name":"","name:en":"","kind":"coast"},"geometry":{"type":"LineString","coordinates":[[135.3236621,34.7258321],[135.3239505,34.7258443],[135.32422,34.7258707],[135.3241904,34.7256436],[135.3241891,34.725626],[135.3241944,34.7255918],[135.3242164,34.7255769],[135.324317,34.7255705],[135.3243403,34.725569]]}},{"type":"Feature","properties":{"name":"","name:en":"","kind":"coast"},"geometry":{"type":"LineString","coordinates":[[135.3356249,34.7266388],[135.3357509,34.727253],[135.3358538,34.7272462],[135.3359236,34.7272464]]}},{"type":"Feature","properties":{"name":"","name:en":"","kind":"coast"},"geometry":{"type":"LineString","coordinates":[[135.3355417,34.7207514],[135.334978,34.7210924],[135.334643,34.7212774],[135.334359,34.7212924],[135.3301788,34.7216857],[135.3248873,34.7169726],[135.3248366,34.7169051],[135.3248375,34.7165398]]}},{"type":"Feature","properties":{"name":"","name:en":"","kind":"coast"},"geometry":{"type":"LineString","coordinates":[[135.3344366,34.71047],[135.3345332,34.7104689],[135.3345385,34.7107103],[135.3347746,34.7107281],[135.3347746,34.7106155],[135.3367487,34.7107147],[135.336746,34.7108195],[135.3388035,34.7109078],[135.3405856,34.7145811]]}},{"type":"Feature","properties":{"name":"","name:en":"","kind":"coast"},"geometry":{"type":"LineString","coordinates":[[135.414513,34.6895157],[135.4160001,34.6887276],[135.4175338,34.6879107]]}},{"type":"Feature","properties":{"name":"","name:en":"","kind":"coast"},"geometry":{"type":"LineString","coordinates":[[135.4072928,34.6970931],[135.408214,34.6965971]]}},{"type":"Feature","properties":{"name":"","name:en":"","kind":"coast"},"geometry":{"type":"LineString","coordinates":[[135.4476424,34.6180815],[135.4476198,34.6180774],[135.4476017,34.6180658],[135.4475896,34.6180437],[135.4475645,34.6178711]]}},{"type":"Feature","properties":{"name":"","name:en":"","kind":"coast"},"geometry":{"type":"LineString","coordinates":[[135.423432,34.611592],[135.4234213,34.6107729],[135.4298246,34.6107683],[135.4333162,34.6107695],[135.4333124,34.6107195],[135.4371111,34.6107102],[135.4409088,34.6107187],[135.446215,34.610702]]}},{"type":"Feature","properties":{"name":"","name:en":"","kind":"coast"},"geometry":{"type":"LineString","coordinates":[[135.4480741,34.6218158],[135.448059,34.62168],[135.4476944,34.6188744],[135.4476969,34.6188591],[135.4477027,34.6188475],[135.4476734,34.6184756],[135.4476424,34.6180815]]}},{"type":"Feature","properties":{"name":"","name:en":"","kind":"coast"},"geometry":{"type":"LineString","coordinates":[[135.4475645,34.6178711],[135.4464237,34.6180762]]}},{"type":"Feature","properties":{"name":"","name:en":"","kind":"coast"},"geometry":{"type":"LineString","coordinates":[[135.4464237,34.6180762],[135.4451271,34.6183242],[135.4447831,34.6183903],[135.4429119,34.6181236],[135.4425103,34.6201953]]}},{"type":"Feature","properties":{"name":"","name:en":"","kind":"coast"},"geometry":{"type":"LineString","coordinates":[[135.4329575,34.6130379],[135.4266246,34.613041],[135.4261232,34.6179638],[135.4236671,34.6191531],[135.4234164,34.618987],[135.4234136,34.6119027],[135.423432,34.611592]]}},{"type":"Feature","properties":{"name":"","name:en":"","kind":"coast"},"geometry":{"type":"LineString","coordinates":[[135.4331125,34.6234086],[135.4327064,34.6232478],[135.4327255,34.623218],[135.4330879,34.622288],[135.4313152,34.6218129],[135.4312826,34.6218043],[135.4312981,34.6217101],[135.4313203,34.6215752],[135.4312762,34.6214482],[135.431244,34.6213553],[135.4303637,34.6215441],[135.4303389,34.6214595],[135.4303325,34.6214392],[135.4303126,34.6213714],[135.4313587,34.6211392],[135.4313229,34.621017],[135.4312817,34.6208765],[135.4313767,34.6208521],[135.4314534,34.620186],[135.4314057,34.6200252],[135.4313735,34.6199171],[135.4303439,34.6201429],[135.4303137,34.6201495],[135.4302893,34.6200682],[135.4302832,34.6200495],[135.430261,34.6199753],[135.4305823,34.6199029],[135.431285,34.6197479],[135.4314927,34.6196987],[135.4314654,34.6196043],[135.4314324,34.6194904],[135.4315258,34.6194635],[135.4315781,34.6189921],[135.4315434,34.6188538],[135.4315225,34.6187706],[135.4306236,34.618965],[135.4305979,34.6188852],[135.4305919,34.6188664],[135.4305639,34.6187792],[135.4307194,34.6187455],[135.4313857,34.6186011],[135.4316233,34.6185496],[135.4315945,34.6184545],[135.4315445,34.6182898],[135.4316571,34.6182682],[135.431736,34.6175476],[135.4316671,34.6173312],[135.430173,34.6176621],[135.4301799,34.6160348],[135.4329642,34.6150074],[135.4329599,34.6140729],[135.4329575,34.6130379]]}},{"type":"Feature","properties":{"name":"","name:en":"","kind":"coast"},"geometry":{"type":"LineString","coordinates":[[135.4425103,34.6201953],[135.441506,34.625103],[135.4414532,34.6253938],[135.4414442,34.6254434],[135.4413106,34.6261793],[135.4377833,34.6247715],[135.4342267,34.6233493],[135.4335912,34.6235981],[135.4331125,34.6234086]]}},{"type":"Feature","properties":{"name":"","name:en":"","kind":"coast"},"geometry":{"type":"LineString","coordinates":[[135.4481191,34.6355741],[135.4482423,34.6348897],[135.4502789,34.6351324],[135.4503185,34.6351371],[135.4509432,34.6352115],[135.4512178,34.6351713],[135.4512295,34.6351696],[135.4512371,34.6351683],[135.4515638,34.6351145],[135.45158,34.6351118],[135.4518088,34.6350741],[135.4518233,34.6350718],[135.4520845,34.6350288],[135.4521025,34.6350257],[135.4525695,34.6349488],[135.4526681,34.6349418],[135.4527358,34.6345321],[135.4527453,34.6344746],[135.4528024,34.6341295],[135.45286,34.6336978],[135.4529016,34.6333861],[135.4528758,34.6333647],[135.4528511,34.6332495],[135.4528725,34.6332462],[135.4527917,34.6328875],[135.4529017,34.63283],[135.4528776,34.632804],[135.4530338,34.6327395],[135.4529746,34.6326626],[135.4529946,34.6325602],[135.4530031,34.6325036],[135.453024,34.632354],[135.4531489,34.6315583],[135.4532393,34.6310868],[135.4535699,34.6292291],[135.4517564,34.6300321],[135.4517323,34.6299901],[135.450356,34.6305886],[135.4483785,34.631005],[135.4483314,34.6310037],[135.4481447,34.6307036],[135.4485803,34.6284788],[135.448569,34.6265136],[135.4485503,34.624777],[135.4485459,34.6247694],[135.4485311,34.6247702],[135.448502,34.624707],[135.4484882,34.6247054],[135.4484786,34.6246997],[135.448474,34.6246928],[135.4484696,34.6246663],[135.4483014,34.6236604],[135.448165,34.622633],[135.4481035,34.6220801],[135.4471564,34.6220811],[135.447127,34.6218167],[135.4480741,34.6218158]]}},{"type":"Feature","properties":{"name":"","name:en":"","kind":"coast"},"geometry":{"type":"LineString","coordinates":[[135.3456657,34.6172967],[135.3457159,34.6173346],[135.3493094,34.6200504],[135.3493272,34.6200639],[135.3493457,34.6200779],[135.3490775,34.620345],[135.3586667,34.6276246]]}}]}