{"type":"FeatureCollection","features":[{"type":"Feature","properties":{"name":"Osaka Metro長堀鶴見緑地線","name:en":"Nagahori Tsurumi-Ryokuchi (Taisho --> Kadoma-Minami)","colour":"#A9CC51","operator":"大阪市高速電気軌道"},"geometry":{"type":"LineString","coordinates":[[135.4785502,34.6655282],[135.4790746,34.6663454],[135.479285,34.6666898],[135.4793426,34.6667817],[135.4794346,34.6670459],[135.4794741,34.6672433],[135.4794692,34.6675462],[135.4794543,34.6676969],[135.4794414,34.6677641],[135.4793931,34.667983],[135.4791676,34.6688524],[135.4790887,34.6691626],[135.4790881,34.6694022],[135.4791523,34.6698211],[135.4791602,34.670079],[135.4791824,34.6702517],[135.4794668,34.6714613],[135.4796633,34.6719968],[135.4808265,34.6744974],[135.4810826,34.674808],[135.4814079,34.6751161],[135.4818509,34.6753991],[135.4823679,34.6756344],[135.4828501,34.6757784],[135.4833969,34.6758688],[135.4838327,34.675901],[135.484286,34.6758769],[135.484977,34.6758085],[135.4855464,34.6757583],[135.4862146,34.675729],[135.4869076,34.6757278],[135.4877141,34.6757296],[135.4883812,34.675731],[135.4904841,34.6756811],[135.4929701,34.675583],[135.4944753,34.6755169],[135.4971917,34.675374],[135.497295,34.675374],[135.4976754,34.675375],[135.4981046,34.675394],[135.4992026,34.6753751],[135.4998201,34.6753695],[135.5009244,34.675307],[135.504144,34.675326],[135.5057462,34.675319],[135.5064405,34.6753201],[135.5072139,34.675313],[135.508204,34.6753189],[135.5100467,34.67533],[135.5111037,34.675344],[135.5112953,34.6753609],[135.5115901,34.675372],[135.5118093,34.6753779],[135.5119921,34.6753967],[135.5122159,34.6754413],[135.5124438,34.6755107],[135.5131898,34.675717],[135.5139322,34.6759324],[135.5143459,34.6760008],[135.5147586,34.6760289],[135.5150543,34.676041],[135.5172406,34.676063],[135.5175582,34.676069],[135.5181338,34.676049],[135.5184843,34.676041],[135.5186769,34.6760259],[135.5206597,34.6758969],[135.5212561,34.6758604],[135.5226567,34.6757488],[135.5233849,34.6756587],[135.5237744,34.6755952],[135.5245045,34.675468],[135.5256068,34.6752794],[135.5267077,34.6750864],[135.5274387,34.6749551],[135.5279875,34.6748602],[135.5281742,34.6748267],[135.5283541,34.674801],[135.528728,34.6747571],[135.5289189,34.6747327],[135.5290948,34.6747125],[135.5291851,34.6747007],[135.5292186,34.6746968],[135.5292535,34.6746944],[135.5292934,34.674693],[135.5294701,34.6746858],[135.5296642,34.6746742],[135.5298466,34.6746673],[135.5300376,34.6746563],[135.5304734,34.6746356],[135.5305922,34.6746285],[135.5307847,34.674618],[135.5308792,34.6746177],[135.5309695,34.674619],[135.5311602,34.6746337],[135.5312343,34.67464],[135.531248,34.6746417],[135.5312661,34.6746475],[135.5313315,34.6746753],[135.5315084,34.6747459],[135.5316595,34.6748242],[135.5317137,34.6748678],[135.5317902,34.6749472],[135.5318579,34.6750139],[135.5318946,34.6750623],[135.5319867,34.6752075],[135.5321527,34.6754816],[135.5323085,34.6757617],[135.5323439,34.6758228],[135.5323769,34.6759023],[135.5324348,34.6760541],[135.5324775,34.6761924],[135.5325183,34.6763509],[135.5325533,34.6765012],[135.5326189,34.6767986],[135.5327162,34.6772622],[135.5328116,34.6777082],[135.5328711,34.6780188],[135.5329688,34.6784833],[135.5331145,34.6792347],[135.5331722,34.6795391],[135.5332316,34.6798462],[135.5332895,34.680155],[135.533319,34.6803133],[135.5333387,34.6804554],[135.5333834,34.6807641],[135.5333894,34.6810648],[135.5333847,34.6813769],[135.5333808,34.6816892],[135.5333548,34.6821897],[135.5333421,34.6826971],[135.5332682,34.6836925],[135.5331354,34.6847583],[135.5328519,34.685882],[135.5326007,34.6864434],[135.5310849,34.6893509],[135.5307672,34.6899601],[135.5307554,34.689982],[135.530038,34.6913217],[135.5294491,34.6924039],[135.5288743,34.6933952],[135.5286314,34.6938121],[135.5284194,34.6941557],[135.5283949,34.6942383],[135.5282911,34.6945246],[135.5283072,34.6949863],[135.5284474,34.6953193],[135.5289033,34.6958516],[135.5295616,34.6965749],[135.5305022,34.6975755],[135.5307004,34.6977675],[135.5311473,34.6980346],[135.5313762,34.6981637],[135.531971,34.6983857],[135.5326799,34.6985803],[135.5336707,34.6987814],[135.5352619,34.6991105],[135.5361951,34.6992875],[135.5383652,34.6997],[135.5394989,34.6999155],[135.5400509,34.7000285],[135.5405453,34.7001219],[135.5411022,34.70013],[135.5460213,34.7003559],[135.5470156,34.7004379],[135.5484762,34.7005788],[135.5519737,34.7009948],[135.554306,34.7013116],[135.5547882,34.7013772],[135.5595318,34.7019308],[135.5597779,34.7019698],[135.5598873,34.7019967],[135.5610075,34.7022702],[135.5622413,34.7025921],[135.5626415,34.7026997],[135.5634135,34.7027634],[135.5642276,34.7027939],[135.5660584,34.7029119],[135.5671255,34.7029759],[135.5682086,34.7030399],[135.5695204,34.7031983],[135.569872,34.7032408],[135.5714952,34.7034088],[135.5719328,34.7034558],[135.5734082,34.7036534],[135.5739612,34.7038322],[135.5741996,34.7040499],[135.5744006,34.7043085],[135.5745617,34.7046128],[135.5745932,34.7048102],[135.5746091,34.7070411],[135.5746112,34.7073855],[135.5746436,34.7075489],[135.5747258,34.7077863],[135.5747922,34.7078757],[135.5748589,34.7079654],[135.5753177,34.7083234],[135.5777215,34.7095173],[135.5782166,34.7097724],[135.5785774,34.7099504],[135.5787202,34.7100209],[135.5806204,34.7109587],[135.581311,34.7112859],[135.5818311,34.7118088],[135.5820941,34.7119858],[135.5856017,34.7136546],[135.5868288,34.7142306],[135.5874577,34.7145256],[135.5879849,34.7147762],[135.5884824,34.7149981],[135.5889818,34.7152066],[135.5893172,34.7153497],[135.5896443,34.7154854],[135.5899808,34.7156272],[135.5903117,34.7157683],[135.590642,34.7159134],[135.5909769,34.7160609],[135.5913061,34.7162148],[135.5917887,34.7164345],[135.5930846,34.7170733]]}},{"type":"Feature","properties":{"name":"Osaka Metro中央線 (夢洲 => 長田)","name:en":"Osaka Municipal Subway Chūō Line (Yumeshima => Nagata)","colour":"#019A66","operator":"大阪市高速電気軌道"},"geometry":{"type":"LineString","coordinates":[[135.3905899,34.6529239],[135.3902098,34.6525407],[135.3899918,34.6523222],[135.3896383,34.6520205],[135.3893936,34.6517692],[135.3892626,34.651628],[135.3891233,34.6514698],[135.3887495,34.6510181],[135.3886173,34.650839],[135.3885214,34.6506812],[135.3884523,34.6505213],[135.3884056,34.6503692],[135.3883776,34.6502232],[135.3883645,34.6500803],[135.3883683,34.6499282],[135.3883888,34.6497638],[135.388428,34.6495855],[135.3887946,34.6481451],[135.3888513,34.6479484],[135.3889326,34.6477477],[135.38904,34.6475326],[135.3891452,34.647342],[135.3892482,34.6471813],[135.3893876,34.6469854],[135.3895228,34.6468283],[135.3896623,34.6466818],[135.3898554,34.6464964],[135.3900442,34.6463376],[135.3902631,34.6461734],[135.3913532,34.6454373],[135.391675,34.6452095],[135.3919647,34.6449977],[135.3924049,34.6446932],[135.3997753,34.6397263],[135.4000688,34.6395459],[135.4003079,34.6394121],[135.4005567,34.6392904],[135.400799,34.6391873],[135.4010494,34.6390937],[135.4013047,34.6390161],[135.401591,34.6389425],[135.4018463,34.638889],[135.4021211,34.6388462],[135.402391,34.6388194],[135.4026984,34.6388034],[135.4029553,34.6388007],[135.4032415,34.6388114],[135.4035245,34.6388381],[135.4038058,34.6388769],[135.4040709,34.6389264],[135.4043376,34.638992],[135.4046108,34.6390763],[135.4048775,34.6391686],[135.4051328,34.6392757],[135.4053605,34.639384],[135.4055963,34.6395125],[135.4058288,34.639657],[135.4060418,34.6398055],[135.406237,34.6399526],[135.4072046,34.6406965],[135.4074127,34.6408477],[135.407616,34.6409788],[135.4078388,34.6410988],[135.4080713,34.6412005],[135.408312,34.6412942],[135.4095568,34.6417359],[135.4099254,34.6418723],[135.4114766,34.6424294],[135.4121727,34.6426716],[135.4125611,34.6428112],[135.4134084,34.643109],[135.4136894,34.6432026],[135.4140025,34.6433002],[135.4147398,34.6435401],[135.4157758,34.6439067],[135.4161094,34.6440372],[135.4167694,34.6443376],[135.4171779,34.6445717],[135.4260309,34.6501754],[135.427501,34.651114],[135.4278043,34.6512911],[135.4279718,34.6513819],[135.428373,34.6515713],[135.4286283,34.6516739],[135.4305764,34.6524378],[135.432191,34.6530721],[135.4326102,34.6532477],[135.4330976,34.6534516],[135.4335608,34.6536346],[135.4338013,34.6537287],[135.4344007,34.6539654],[135.4350006,34.6541947],[135.435149,34.6542414],[135.4353755,34.6543164],[135.4356148,34.6544129],[135.435784,34.6544766],[135.437418,34.6551186],[135.4387217,34.655641],[135.4401548,34.6561895],[135.4408243,34.6564573],[135.4419181,34.6568763],[135.4428124,34.6572296],[135.4439444,34.6576741],[135.4445971,34.6579307],[135.4453365,34.6582192],[135.446275,34.6585878],[135.4467882,34.6587956],[135.4469397,34.6588664],[135.4470718,34.658931],[135.4472167,34.6590091],[135.4473473,34.6590922],[135.4474876,34.659191],[135.4476366,34.6593111],[135.4476476,34.659318],[135.4477853,34.6594471],[135.447928,34.6595774],[135.4480194,34.6596881],[135.4481295,34.6598366],[135.4482362,34.6599922],[135.4484234,34.6602813],[135.448799,34.66087],[135.44917,34.6614505],[135.4494044,34.6618211],[135.4497189,34.6623014],[135.4509138,34.6641828],[135.4509639,34.6642645],[135.4510178,34.6643422],[135.4510721,34.6644131],[135.4511295,34.664481],[135.4512094,34.6645626],[135.451264,34.6646147],[135.4513114,34.6646556],[135.4513618,34.6646948],[135.4514446,34.6647551],[135.4515486,34.6648194],[135.4516636,34.6648806],[135.4517709,34.6649289],[135.4519524,34.6649979],[135.4522208,34.6650907],[135.4586318,34.6672574],[135.4596739,34.6676163],[135.4614496,34.6682177],[135.4620861,34.6684336],[135.4631261,34.6687876],[135.4638189,34.6690418],[135.465412,34.6696436],[135.4657354,34.6697799],[135.4660349,34.6699313],[135.4662497,34.6700575],[135.4665293,34.6702348],[135.4666785,34.6703406],[135.4668208,34.6704494],[135.4670822,34.6706682],[135.4680878,34.6715455],[135.4686405,34.672023],[135.4688754,34.672229],[135.469121,34.672426],[135.4692931,34.6725488],[135.4694699,34.6726688],[135.4702593,34.6731756],[135.4713622,34.6738788],[135.4720634,34.6743387],[135.4727684,34.6747939],[135.473524,34.675318],[135.4743645,34.6759631],[135.4752827,34.6766852],[135.4762019,34.6774022],[135.4774314,34.6783761],[135.4777438,34.6786246],[135.4782549,34.679024],[135.4783951,34.679129],[135.4785429,34.6792294],[135.4786618,34.679305],[135.4788699,34.6794172],[135.4790969,34.6795219],[135.4793101,34.679602],[135.4795232,34.6796693],[135.4796675,34.6797092],[135.4838283,34.6807236],[135.4842424,34.680819],[135.4848029,34.680933],[135.485681,34.6810999],[135.4862742,34.6812113],[135.4867085,34.6812775],[135.4871848,34.6813227],[135.488091,34.6813788],[135.4886233,34.6814175],[135.4889046,34.6814379],[135.4898402,34.6815059],[135.4912079,34.6816053],[135.4923651,34.6816847],[135.4954196,34.6818943],[135.4959034,34.6819332],[135.4966168,34.6819865],[135.4971789,34.6820208],[135.4975527,34.6820453],[135.49872,34.6820385],[135.5005376,34.6820314],[135.5060053,34.6819293],[135.5069338,34.6818955],[135.5098579,34.6818564],[135.5113676,34.6818004],[135.5153379,34.6816037],[135.5171854,34.6815063],[135.5174698,34.6814704],[135.5192871,34.6813603],[135.5198787,34.6813384],[135.5201252,34.6813334],[135.5203767,34.6813282],[135.5209549,34.6813164],[135.5229127,34.6813603],[135.5232136,34.6813973],[135.526132,34.6814694],[135.5270155,34.6815054],[135.527547,34.6815274],[135.5286265,34.6815564],[135.5320338,34.6814987],[135.5333977,34.6815064],[135.5342469,34.6814934],[135.535922,34.6814415],[135.5363372,34.6814573],[135.538579,34.6814298],[135.5394841,34.6814254],[135.54026,34.6813631],[135.5409512,34.681279],[135.5421924,34.681129],[135.5433668,34.6809759],[135.5457466,34.6806757],[135.5472125,34.6804741],[135.5486158,34.6802759],[135.5532135,34.679704],[135.5558757,34.6793589],[135.5574567,34.6791315],[135.5578427,34.6790989],[135.56219,34.678543],[135.5627358,34.6784843],[135.5632728,34.6784554],[135.5634364,34.6784544],[135.564079,34.6784494],[135.5670402,34.6783724],[135.5692396,34.6783424],[135.5708681,34.6783314],[135.5715333,34.6783622],[135.5719206,34.6784001],[135.5722224,34.6784558],[135.5727324,34.6785623],[135.5734285,34.6786792],[135.5744382,34.6788733],[135.5748789,34.6789487],[135.5752534,34.6789962],[135.5759923,34.6790378],[135.5774875,34.679014],[135.5793423,34.6789535],[135.5800415,34.6789358],[135.5809159,34.6789021],[135.5824404,34.6788824],[135.5843917,34.6788502],[135.5846863,34.6788502],[135.5860752,34.6788253],[135.5869332,34.6788022],[135.5886385,34.6787754],[135.5910607,34.6787791]]}},{"type":"Feature","properties":{"name":"Osaka Metro今里筋線","name:en":"Osaka Metro Imazatosuji Line","colour":"#EE7B1A","operator":"大阪市高速電気軌道"},"geometry":{"type":"LineString","coordinates":[[135.5430271,34.6701679],[135.5432371,34.6717043],[135.5433841,34.672776],[135.543546,34.6738924],[135.5437399,34.6752286],[135.5440016,34.6770634],[135.5444558,34.6804447],[135.5445343,34.6810546],[135.5445946,34.6814459],[135.544719,34.6822834],[135.5449438,34.6839785],[135.5451621,34.6855063],[135.5453805,34.6870464],[135.5455824,34.6884174],[135.5457361,34.6896477],[135.5458732,34.6908763],[135.5460021,34.6919595],[135.546101,34.6925685],[135.546139,34.6930286],[135.5461528,34.6934863],[135.5461618,34.6944178],[135.5461951,34.6962526],[135.5462136,34.6971818],[135.54623,34.698102],[135.5462529,34.7001234],[135.5462694,34.7009642],[135.5462895,34.702884],[135.5463155,34.7053579],[135.5463346,34.7071933],[135.5463532,34.7087506],[135.5463795,34.7109005],[135.5464174,34.7120032],[135.5464176,34.7130898],[135.5464134,34.7149191],[135.5464132,34.7151969],[135.546455,34.7152955],[135.5465294,34.7153787],[135.5465919,34.7154332],[135.5466628,34.7154769],[135.546767,34.7155315],[135.5468712,34.7155693],[135.5469506,34.7155826],[135.547017,34.7155822],[135.5510198,34.715462],[135.5530743,34.7154075],[135.5548877,34.7153531],[135.5583018,34.7152855],[135.5597736,34.7152626],[135.5599178,34.7152578],[135.5600194,34.7152652],[135.5601596,34.715303],[135.5602791,34.7153284],[135.560363,34.7153635],[135.5604511,34.7154314],[135.5605078,34.7154897],[135.5605408,34.7155772],[135.5605635,34.715859],[135.5606695,34.719392],[135.5607348,34.7210981],[135.5607758,34.7222702],[135.5608493,34.7240534],[135.560862,34.724889],[135.5609155,34.725487],[135.5609231,34.7258364],[135.5609213,34.7261275],[135.5608775,34.7263451],[135.5608226,34.7265566],[135.560763,34.7267665],[135.5606436,34.7269565],[135.5604881,34.7271963],[135.5602356,34.7275423],[135.5593224,34.7283854],[135.5580942,34.7295304],[135.5562082,34.7312741],[135.5559962,34.7314687],[135.5557338,34.7317509],[135.5553232,34.7322226],[135.5548691,34.7327653],[135.5540969,34.7336449],[135.5525489,34.7353928],[135.5502283,34.7379851],[135.5487726,34.7395845],[135.547849,34.7405905],[135.5471795,34.7413028],[135.5466664,34.7418457],[135.5456374,34.7428364],[135.5445246,34.7439168],[135.5440004,34.7444085],[135.5437881,34.7445567],[135.542829,34.7451584],[135.542705,34.7452427],[135.5426366,34.7453337],[135.5425912,34.7454219],[135.5425687,34.7455826],[135.5425873,34.7456959],[135.5426539,34.7459956],[135.5435982,34.7491066],[135.5445284,34.7522157],[135.545068,34.7539007],[135.5451057,34.7540515],[135.5451325,34.7542301],[135.5451905,34.7543697],[135.5452592,34.7544559],[135.5454053,34.7545293],[135.5456582,34.75463],[135.5458854,34.7547252],[135.5462851,34.7549278],[135.5465486,34.7551231],[135.5466946,34.7552341],[135.5468076,34.7553614],[135.5469559,34.7555296],[135.5470139,34.7556906],[135.5470506,34.7559027],[135.5470753,34.7565096],[135.5471648,34.7583615],[135.5472368,34.7600039]]}},{"type":"Feature","properties":{"name":"Osaka Metro千日前線 (野田阪神 => 南巽)","name:en":"Osaka Metro Sennichimae Line (Nodahanshin => Minami-Tatsumi)","colour":"#E44D93","operator":"大阪市高速電気軌道"},"geometry":{"type":"LineString","coordinates":[[135.4748985,34.6943695],[135.4748905,34.6933308],[135.4749039,34.6919645],[135.4748824,34.6916558],[135.4748985,34.6915135],[135.4749776,34.6913459],[135.4758427,34.6901087],[135.4762235,34.6895606],[135.4769142,34.6885715],[135.477051,34.6884325],[135.4772454,34.6882682],[135.4774708,34.6881304],[135.4783492,34.6876386],[135.4802334,34.6865612],[135.4808852,34.6862259],[135.4812151,34.6860815],[135.4819192,34.6858631],[135.4827306,34.6856459],[135.4836439,34.6854033],[135.4844217,34.6852026],[135.4845437,34.6851585],[135.4847556,34.6850658],[135.4848723,34.684993],[135.4849716,34.6849103],[135.4850882,34.6847019],[135.4852867,34.6842928],[135.4856609,34.683405],[135.4859881,34.682461],[135.4862832,34.6816405],[135.4863837,34.6813229],[135.4864216,34.6811946],[135.486509,34.6808982],[135.4865178,34.6808685],[135.4865282,34.6808195],[135.4866264,34.680356],[135.4868048,34.6795142],[135.4872863,34.6777033],[135.4873788,34.6771916],[135.4873735,34.6767857],[135.4873601,34.6764703],[135.487344,34.676156],[135.4872863,34.6758626],[135.4872622,34.6755428],[135.4871415,34.6747299],[135.4870355,34.6738961],[135.486939,34.6731384],[135.4868585,34.6725638],[135.4866318,34.6709457],[135.4865648,34.6703336],[135.4865581,34.6700259],[135.4865701,34.6698681],[135.4866332,34.6694843],[135.4867673,34.6690894],[135.486951,34.6688787],[135.4872219,34.6686923],[135.4875827,34.6685225],[135.4878804,34.6684684],[135.4882626,34.6684464],[135.488614,34.6684353],[135.4889935,34.6684254],[135.4894857,34.6684034],[135.4902676,34.6683295],[135.4911205,34.6682434],[135.4917321,34.6681828],[135.4924804,34.6681033],[135.4934809,34.6679985],[135.4951599,34.6677901],[135.4956025,34.6677239],[135.4960893,34.6676401],[135.4971743,34.667447],[135.4977912,34.6673765],[135.4979467,34.6673665],[135.4986535,34.6673257],[135.499025,34.6673147],[135.499725,34.6673048],[135.5001394,34.6672981],[135.500692,34.6672893],[135.5015878,34.667275],[135.5020264,34.6672661],[135.5027989,34.6672551],[135.5038932,34.6672397],[135.5041721,34.6672364],[135.5050492,34.6672253],[135.5064158,34.6671823],[135.5077234,34.6671161],[135.5087587,34.6670632],[135.5099188,34.6670257],[135.5112129,34.6669805],[135.5130945,34.6669121],[135.5144021,34.6668669],[135.5153503,34.666793],[135.5157901,34.6667521],[135.516348,34.6667069],[135.5170079,34.6666275],[135.5176342,34.6665492],[135.5182014,34.6664698],[135.5187795,34.666397],[135.5192395,34.6663462],[135.5207227,34.6662006],[135.5216588,34.6661102],[135.5222033,34.666065],[135.5225869,34.6660429],[135.5228752,34.6660363],[135.5240111,34.6660517],[135.5247648,34.6660506],[135.5259034,34.6660252],[135.5277246,34.6659977],[135.5290604,34.6660004],[135.5300635,34.6660054],[135.5307917,34.6660495],[135.5315535,34.6661047],[135.5333653,34.6662392],[135.5341914,34.6662723],[135.5343953,34.6662911],[135.5347694,34.6663771],[135.5359495,34.6667612],[135.5397288,34.6679666],[135.5424137,34.6688523],[135.5427088,34.6689074],[135.5429824,34.6689383],[135.5432734,34.6689107],[135.544007,34.6687376],[135.5446534,34.6685677],[135.5458262,34.6682655],[135.5473021,34.6678871],[135.5484018,34.6676147],[135.5486043,34.6675739],[135.5488376,34.6675596],[135.5490589,34.6675971],[135.5494277,34.6676588],[135.5508707,34.6678761],[135.5519745,34.6680405],[135.5522883,34.6680802],[135.553038,34.6681497],[135.5542946,34.6682059],[135.5553782,34.66826],[135.5557162,34.6682357],[135.5558918,34.6682103],[135.5560756,34.6681783],[135.5563411,34.6680989],[135.5565342,34.6679434],[135.5566227,34.6678331],[135.5568185,34.667511],[135.5568695,34.6671349],[135.5568413,34.6667775],[135.5566965,34.665691],[135.5565691,34.6644644],[135.5565262,34.6640067],[135.5565007,34.6635467],[135.5564176,34.6624646],[135.5563086,34.6614304],[135.5561775,34.660211],[135.5560796,34.6593836],[135.5560447,34.6590858],[135.5558395,34.657548],[135.555228,34.6545353],[135.5550657,34.6535005],[135.5548297,34.6519946],[135.5544864,34.6500573],[135.554131,34.6480836],[135.5539908,34.6473162],[135.5536857,34.645642],[135.553388,34.6438039],[135.5532297,34.6429091],[135.5531922,34.6427281],[135.5531358,34.6424907]]}},{"type":"Feature","properties":{"name":"Osaka Metro四つ橋線","name:en":"Osaka Municipal Subway Yotsubashi Line (Suminoekoen --> Nishi-Umeda)","colour":"#0078BE","operator":"大阪市高速電気軌道"},"geometry":{"type":"LineString","coordinates":[[135.4730773,34.60874],[135.4731054,34.609573],[135.4731094,34.6096251],[135.4732134,34.6112476],[135.4732623,34.6122854],[135.4733253,34.6136355],[135.4733575,34.6142557],[135.4734004,34.6150836],[135.4734527,34.6155151],[135.4735733,34.6160497],[135.4736933,34.6164361],[135.4738746,34.6168158],[135.4743307,34.6176779],[135.4749656,34.6189817],[135.47537,34.6197676],[135.4756653,34.6202933],[135.4759106,34.6205089],[135.4762846,34.6207771],[135.4785341,34.621173],[135.4794095,34.6213305],[135.4801686,34.6214637],[135.4841474,34.6221746],[135.4845073,34.622202],[135.4853726,34.6221929],[135.4873056,34.6221709],[135.4885431,34.622157],[135.4889272,34.622218],[135.4892145,34.6223732],[135.4895827,34.6226095],[135.4898913,34.6228431],[135.4900796,34.6230538],[135.4901022,34.6230988],[135.4902912,34.623448],[135.4903816,34.6237848],[135.4906311,34.6247304],[135.4908952,34.6257801],[135.4910302,34.6263813],[135.4911654,34.626864],[135.4913256,34.6274438],[135.4917832,34.6287963],[135.4926861,34.6310973],[135.4927745,34.6313372],[135.4928437,34.6315209],[135.4935722,34.6335247],[135.4938351,34.6344204],[135.4939526,34.6348925],[135.4944514,34.6366478],[135.4947044,34.6376261],[135.4951274,34.6390261],[135.4953464,34.6398571],[135.4959596,34.6419052],[135.4959793,34.6419687],[135.4959992,34.6420428],[135.4965462,34.6442969],[135.4966631,34.6449127],[135.496672,34.6449523],[135.4971491,34.6472578],[135.497295,34.6478195],[135.4974096,34.6484234],[135.4975974,34.6501485],[135.4976334,34.650718],[135.4976941,34.6514412],[135.4978439,34.6552393],[135.4978373,34.6562415],[135.4978296,34.656602],[135.4978134,34.6573616],[135.4978112,34.6576576],[135.4978087,34.6579792],[135.497801,34.6590009],[135.497798,34.6594046],[135.4979061,34.661538],[135.4979604,34.6624138],[135.4979954,34.6630021],[135.4979777,34.6646885],[135.4979835,34.6654563],[135.497953,34.6655504],[135.4975716,34.666319],[135.4969565,34.6676142],[135.4965605,34.6687017],[135.4964838,34.6689812],[135.4963802,34.669382],[135.4962755,34.6699195],[135.4963972,34.6711923],[135.4966373,34.6730724],[135.4967318,34.6740381],[135.4968068,34.6748149],[135.4968443,34.6752516],[135.4968913,34.6758388],[135.4969247,34.6767857],[135.496922,34.6781978],[135.4969017,34.6788357],[135.496833,34.679466],[135.496817,34.6803725],[135.496836,34.6814123],[135.4968496,34.6815696],[135.4968515,34.6815912],[135.4968826,34.6819501],[135.4968712,34.6827731],[135.4968572,34.6835412],[135.49688,34.6845004],[135.4968745,34.684986],[135.4968197,34.6869646],[135.4967764,34.6878127],[135.4967066,34.6883528],[135.49647,34.6901285],[135.4964066,34.6906158],[135.4963139,34.691495],[135.4962717,34.6918102],[135.4961711,34.6923703],[135.4960978,34.6927323],[135.4958191,34.694213],[135.4957701,34.6944861],[135.4955354,34.695714],[135.4954164,34.6963435],[135.4953752,34.6966243],[135.4953908,34.6969425],[135.4955551,34.6985576],[135.4956212,34.6994836],[135.4956632,34.700164]]}},{"type":"Feature","properties":{"name":"Osaka Metro堺筋線","name:en":"Osaka Municipal Subway Sakaisuji Line (Tenjinbashisuji 6-chome --> Tengachaya)","colour":"#814721","operator":"大阪市高速電気軌道"},"geometry":{"type":"LineString","coordinates":[[135.5108581,34.7098099],[135.5108896,34.7087955],[135.5108478,34.7074736],[135.5108719,34.7044749],[135.5108792,34.7042172],[135.5108949,34.7030483],[135.5109749,34.7007655],[135.5110199,34.698803],[135.5110359,34.6975768],[135.5110419,34.6971],[135.5110579,34.6963684],[135.5110519,34.6959679],[135.5110059,34.6955281],[135.5108644,34.6950734],[135.5108363,34.6950215],[135.5106778,34.6947344],[135.5103458,34.6942567],[135.5103054,34.694216],[135.5100051,34.6938998],[135.509764,34.693695],[135.5096281,34.6935798],[135.5091154,34.6933112],[135.5087081,34.6931471],[135.5080309,34.6928702],[135.5076343,34.6927012],[135.5075772,34.6926785],[135.5073908,34.6925596],[135.5072005,34.6923712],[135.5070561,34.692203],[135.5069249,34.6920561],[135.5067519,34.6917533],[135.506649,34.6914744],[135.5066098,34.6911709],[135.5065879,34.6906134],[135.5065826,34.6897075],[135.5065812,34.6896162],[135.5065819,34.6895999],[135.5065803,34.6895474],[135.5065739,34.6890278],[135.5065723,34.6889178],[135.5065681,34.6885676],[135.5065559,34.6876728],[135.5065461,34.6869215],[135.506545,34.6867693],[135.5065381,34.6861046],[135.5065349,34.6859324],[135.5065341,34.6858389],[135.5065289,34.6852585],[135.5065283,34.6851886],[135.5065273,34.6851284],[135.5065099,34.6835337],[135.5064838,34.6826408],[135.5064858,34.6826169],[135.5064759,34.6815881],[135.5064779,34.681259],[135.5063689,34.6757565],[135.5063511,34.6748567],[135.5063279,34.6735374],[135.5062219,34.6699256],[135.5062149,34.668107],[135.5062079,34.6675044],[135.5061814,34.6667178],[135.5061179,34.6653477],[135.5060849,34.664426],[135.5060435,34.6629738],[135.5059475,34.6610562],[135.5059172,34.6603914],[135.505885,34.6596257],[135.5058468,34.6587622],[135.5057655,34.6571787],[135.5057276,34.656323],[135.5056863,34.6555986],[135.5056072,34.6550587],[135.5055362,34.6547204],[135.5054532,34.6543825],[135.5050877,34.6532901],[135.504721,34.6521676],[135.5038749,34.6495687],[135.5036229,34.6487937],[135.5035793,34.6486554],[135.5030243,34.6469379],[135.5026542,34.6454898],[135.5025721,34.6453885],[135.5024798,34.6453111],[135.5020582,34.6450166],[135.5020352,34.6450025],[135.501292,34.64459],[135.5008703,34.6443374],[135.5004852,34.6441071],[135.5000687,34.6438335],[135.4996939,34.6435712],[135.4992354,34.6431553],[135.4986976,34.6425433],[135.4985158,34.6422877],[135.4983046,34.641946],[135.4981691,34.641612],[135.4979985,34.6410979],[135.4978637,34.6405886],[135.4972226,34.6378669],[135.4971668,34.6376745]]}},{"type":"Feature","properties":{"name":"Osaka Metor谷町線","name:en":"Osaka Metro Tanimachi Line (Yao-Minami --> Dainichi)","colour":"#522886","operator":"大阪市高速電気軌道"},"geometry":{"type":"LineString","coordinates":[[135.5787996,34.7498446],[135.577713,34.7489818],[135.5754751,34.7472071],[135.5754003,34.7471491],[135.5751751,34.7469747],[135.5731205,34.7453828],[135.5729919,34.7452698],[135.572729,34.7450526],[135.5701654,34.7430339],[135.5695977,34.7425656],[135.5668444,34.7403953],[135.5644017,34.7384473],[135.563606,34.7378352],[135.5631043,34.7374477],[135.5614734,34.7361744],[135.5607624,34.7355762],[135.559373,34.7345024],[135.557985,34.7334264],[135.5559074,34.7320168],[135.5547161,34.7312073],[135.553764,34.7305572],[135.552651,34.7297752],[135.5518267,34.7291727],[135.551438,34.7288652],[135.551048,34.7285442],[135.55077,34.7280932],[135.550236,34.7268162],[135.549748,34.7255672],[135.549279,34.7242152],[135.549013,34.7234852],[135.547288,34.7179022],[135.54676,34.7161382],[135.5467161,34.7159472],[135.5465948,34.7157301],[135.5464107,34.7156036],[135.5458363,34.7153142],[135.544432,34.7147052],[135.543684,34.7143472],[135.543244,34.7141232],[135.542804,34.7137922],[135.54246,34.7134752],[135.541732,34.7127552],[135.54069,34.7116172],[135.540373,34.7112712],[135.5392824,34.7100675],[135.5385999,34.7093749],[135.538184,34.7089873],[135.5377661,34.7086347],[135.5375963,34.7085333],[135.537397,34.7084836],[135.537213,34.7084772],[135.5289404,34.7088839],[135.5267684,34.7089977],[135.5263319,34.7089976],[135.5258614,34.7089478],[135.5256582,34.7089212],[135.5253499,34.7088749],[135.5248694,34.7088054],[135.5234588,34.7085914],[135.5212733,34.7082704],[135.5204164,34.7081366],[135.5203852,34.7081329],[135.520164,34.7081152],[135.5198757,34.7081228],[135.5198344,34.7081216],[135.5198139,34.7081282],[135.5197913,34.7081328],[135.5197714,34.7081369],[135.519753,34.7081406],[135.5196671,34.7081576],[135.5193174,34.7082689],[135.51855,34.7085332],[135.518268,34.7086302],[135.516181,34.7092912],[135.5142286,34.7098757],[135.5134444,34.7101186],[135.5122956,34.7104868],[135.5118369,34.710632],[135.5113704,34.7107694],[135.5111513,34.7108117],[135.5108971,34.7108409],[135.5106805,34.7108481],[135.5105308,34.7108401],[135.5103415,34.7107998],[135.5101883,34.710739],[135.5098564,34.7105066],[135.50905,34.7098982],[135.507113,34.7083752],[135.5056426,34.7072106],[135.50494,34.7066592],[135.503415,34.7054802],[135.5018256,34.7042604],[135.5006567,34.7033517],[135.4999424,34.70275],[135.499576,34.7024247],[135.4995403,34.702383],[135.4995012,34.7023142],[135.4994772,34.7022555],[135.4994616,34.7021655],[135.499454,34.7020768],[135.499454,34.7018472],[135.4995239,34.7014581],[135.4998423,34.7005975],[135.500166,34.6996792],[135.5006396,34.6985476],[135.5006846,34.6984762],[135.5007341,34.6984367],[135.5008719,34.6983309],[135.5009829,34.6982626],[135.5011239,34.6981933],[135.5013693,34.6981272],[135.5016489,34.6980807],[135.5023355,34.698055],[135.5026771,34.6980671],[135.5035668,34.6980997],[135.5041118,34.6980914],[135.5045959,34.6980605],[135.5058572,34.6979839],[135.5084206,34.6977976],[135.5098542,34.6977216],[135.5111732,34.6976429],[135.5118454,34.6975944],[135.511849,34.6975948],[135.5123142,34.6975504],[135.5143421,34.6974026],[135.5145077,34.6973901],[135.51543,34.6973206],[135.5166028,34.6972892],[135.5170488,34.697249],[135.517319,34.6971784],[135.5175076,34.6970914],[135.5176513,34.6970012],[135.5177204,34.6969484],[135.517767,34.6969095],[135.5178665,34.6968083],[135.5179623,34.6966922],[135.5180365,34.6965417],[135.5181193,34.6962741],[135.5180786,34.6958471],[135.5179723,34.6952606],[135.5179278,34.6949526],[135.5179139,34.6948642],[135.5178308,34.6943353],[135.5177739,34.694071],[135.5176382,34.6934312],[135.5175408,34.6928669],[135.5174996,34.692534],[135.517439,34.6919995],[135.5173553,34.6912611],[135.5173011,34.6906245],[135.5173037,34.6897207],[135.5173144,34.6894771],[135.5173922,34.6881985],[135.5173804,34.6875307],[135.5174,34.685719],[135.517404,34.6848124],[135.5173544,34.6832175],[135.5173427,34.6823572],[135.5173118,34.6810989],[135.5173063,34.6807966],[135.5173046,34.6807031],[135.5172699,34.6788059],[135.5171398,34.6758447],[135.5170953,34.6751043],[135.5170528,34.6745375],[135.5170332,34.6742814],[135.5169052,34.6733839],[135.5167435,34.6719252],[135.5166109,34.6709897],[135.5164637,34.6700039],[135.5160669,34.6679532],[135.515867,34.6670802],[135.5156626,34.6661505],[135.5152919,34.6646288],[135.5150175,34.6632573],[135.5145935,34.6610423],[135.5142748,34.6588133],[135.5140101,34.6576529],[135.5138574,34.6567571],[135.5137561,34.6562627],[135.5136824,34.6557869],[135.5136457,34.6545852],[135.5136232,34.6532613],[135.5136474,34.6524646],[135.5137528,34.6514117],[135.5137652,34.6512165],[135.5137564,34.6510529],[135.5138389,34.6507504],[135.5137049,34.6501966],[135.5135657,34.6494263],[135.5131833,34.6477357],[135.5129448,34.6463953],[135.512414,34.6441314],[135.5122925,34.6436053],[135.512018,34.6424824],[135.5119437,34.6422176],[135.511917,34.6420774],[135.5119357,34.641924],[135.5119501,34.6416208],[135.5120461,34.6412178],[135.5121931,34.6409248],[135.5123398,34.640711],[135.5125558,34.640497],[135.5128848,34.640311],[135.5132815,34.6401548],[135.5136445,34.6400048],[135.5141215,34.6398148],[135.5146171,34.639548],[135.5149551,34.639305],[135.5152231,34.639061],[135.5166858,34.6375524],[135.5180147,34.636174],[135.518919,34.6351905],[135.5207983,34.6332638],[135.5231217,34.6308346],[135.5250317,34.6288002],[135.5271751,34.6265754],[135.5289203,34.6247595],[135.5298547,34.6238056],[135.5301988,34.6234263],[135.5306201,34.62296],[135.5307381,34.6228502],[135.5309607,34.6226468],[135.5316215,34.6221444],[135.5318676,34.621995],[135.532051,34.6218959],[135.5325144,34.6216708],[135.5329596,34.6214897],[135.5332782,34.6213794],[135.5336787,34.6213005],[135.5339554,34.621271],[135.5344423,34.6212519],[135.5354275,34.6212737],[135.5358044,34.6212971],[135.5397057,34.6217039],[135.5437767,34.6222438],[135.5448873,34.6224308],[135.5463728,34.6226346],[135.5465628,34.622659],[135.5469315,34.6226561],[135.5471007,34.6226446],[135.5474437,34.6225687],[135.5478116,34.6224122],[135.5479674,34.6223335],[135.5480678,34.6222067],[135.5482683,34.6219423],[135.5484379,34.621674],[135.5485984,34.6212802],[135.5487175,34.6209534],[135.5487296,34.6208977],[135.5488204,34.62048],[135.5488715,34.6200092],[135.5489202,34.6185105],[135.549029,34.6155318],[135.549127,34.6102866],[135.5491239,34.6101241],[135.549165,34.6099747],[135.5492085,34.6098267],[135.5492912,34.6096942],[135.5494145,34.6095674],[135.5495364,34.6094496],[135.5496813,34.6093552],[135.5498415,34.6092877],[135.5500279,34.6092637],[135.5502135,34.609244],[135.5504036,34.6092301],[135.5505899,34.6092265],[135.5513631,34.6092165],[135.5537841,34.6091899],[135.556946,34.6092054],[135.5601315,34.6092493],[135.5609627,34.6092574],[135.5613487,34.6092593],[135.5652331,34.60905],[135.5665487,34.6089809],[135.5670295,34.6089085],[135.5681441,34.6086781],[135.5692357,34.6084453],[135.5703502,34.6081811],[135.5720345,34.6077403],[135.5724245,34.6076543],[135.5725715,34.6075893],[135.5727795,34.6074683],[135.5729695,34.6072313],[135.5731515,34.6068233],[135.5732215,34.6065303],[135.5732555,34.6061473],[135.5732815,34.6056603],[135.5733425,34.6047943],[135.5734465,34.6039243],[135.573698,34.6029066],[135.5738935,34.6016793],[135.5742255,34.6002143],[135.5743291,34.5999076],[135.5744917,34.5994364],[135.5746416,34.5991103],[135.5749154,34.5987717],[135.5754092,34.5983814],[135.5758031,34.5981855],[135.5763615,34.5979513],[135.5774783,34.5977459],[135.5785337,34.5975369],[135.5788352,34.5974844],[135.5793064,34.5974108],[135.5797545,34.5973978],[135.5799419,34.5973992],[135.5811757,34.5974514],[135.5816469,34.5974391],[135.5818685,34.5974233],[135.5825224,34.5973754],[135.5829278,34.5973428],[135.583567,34.5971671]]}},{"type":"Feature","properties":{"name":"Osaka Metro御堂筋線 (箕面萱野 => 中百舌鳥)","name:en":"Osaka Metro Midosuji Line (Minoh-kayano → Nakamozu)","colour":"#E5171F","operator":"大阪市高速電気軌道"},"geometry":{"type":"LineString","coordinates":[[135.4891286,34.8313768],[135.4891338,34.8312074],[135.4891451,34.8309849],[135.4891419,34.8307687],[135.4891253,34.8305032],[135.4891113,34.8303079],[135.4890945,34.8301479],[135.4890509,34.8296176],[135.4890281,34.8292958],[135.4890025,34.8289682],[135.488994,34.8287168],[135.4889912,34.8285247],[135.4889899,34.8282885],[135.4890296,34.8272738],[135.4890483,34.8270003],[135.4891382,34.8262668],[135.489253,34.8253925],[135.4893635,34.824564],[135.4894034,34.8243268],[135.4894693,34.8240274],[135.489545,34.823731],[135.4896031,34.8235234],[135.4896759,34.8233077],[135.4897806,34.8230123],[135.4899681,34.8225613],[135.4902827,34.8218342],[135.4919027,34.8181146],[135.4920188,34.8178318],[135.4931464,34.8146321],[135.4932608,34.8143117],[135.493357,34.814042],[135.4934468,34.8137764],[135.4935516,34.8134835],[135.4936565,34.8131972],[135.4937567,34.8129608],[135.4938863,34.8127059],[135.4940178,34.8124937],[135.4941553,34.8123126],[135.4942997,34.8121289],[135.4945452,34.8118483],[135.494674,34.8116974],[135.4947848,34.8115399],[135.4948837,34.811383],[135.4949669,34.8112023],[135.4950273,34.8110216],[135.4950806,34.8108148],[135.4951083,34.8105866],[135.4951166,34.810352],[135.495112,34.8098942],[135.4951164,34.8088149],[135.4951145,34.8086972],[135.4951022,34.8085888],[135.4950799,34.8084138],[135.4950759,34.8082521],[135.4950746,34.8079564],[135.4950682,34.8074842],[135.4950591,34.8073366],[135.4950293,34.8071646],[135.494979,34.80698],[135.4949077,34.8068227],[135.494833,34.8066901],[135.4947405,34.8065477],[135.4946367,34.8064241],[135.4945056,34.8062943],[135.4943355,34.8061405],[135.4934651,34.8054376],[135.4933471,34.8053273],[135.4932215,34.8051952],[135.493127,34.8050781],[135.4930381,34.8049367],[135.4929687,34.8047989],[135.4929114,34.8046506],[135.4928787,34.8045254],[135.49286,34.8044138],[135.4928515,34.8042772],[135.4928603,34.80411],[135.492901,34.8038117],[135.4929417,34.8035474],[135.4929944,34.8032827],[135.493083,34.8029349],[135.4932395,34.8024295],[135.4933973,34.8020554],[135.4936896,34.8014427],[135.4946982,34.7993507],[135.4949468,34.7988303],[135.4958385,34.7969845],[135.4963054,34.7960158],[135.4965158,34.795571],[135.4966392,34.7953081],[135.4968123,34.794939],[135.4969925,34.7945055],[135.4971614,34.7940172],[135.4972775,34.7935964],[135.4973694,34.7931594],[135.497377,34.7931201],[135.4974244,34.7928553],[135.4974763,34.7924649],[135.4974855,34.7923526],[135.4975056,34.7921062],[135.4975089,34.7917505],[135.4975068,34.7915385],[135.4975046,34.7913223],[135.4975028,34.7909294],[135.4974898,34.7905363],[135.4974821,34.7903259],[135.4973826,34.7877715],[135.4973576,34.7871306],[135.4972792,34.785116],[135.4971937,34.7827592],[135.4971549,34.7818157],[135.4970932,34.7811479],[135.4970375,34.780691],[135.4969628,34.7802566],[135.4967867,34.7795052],[135.4966244,34.7789638],[135.4964467,34.7784549],[135.4961201,34.7775976],[135.4959458,34.7771609],[135.4957276,34.7766032],[135.495628,34.7763146],[135.4955464,34.7760399],[135.4954007,34.7754202],[135.4953392,34.7750638],[135.4952935,34.7746372],[135.495265,34.7740039],[135.4952882,34.7734169],[135.4953192,34.7731169],[135.4953815,34.7727449],[135.4954617,34.7723089],[135.4955469,34.7719841],[135.4956835,34.7715378],[135.4957911,34.7712476],[135.4959972,34.770758],[135.4963377,34.7700674],[135.4964878,34.7697518],[135.4967553,34.7691105],[135.4969172,34.7685691],[135.4973224,34.766566],[135.4974293,34.7660259],[135.4975222,34.7654894],[135.4975605,34.7650517],[135.4975605,34.7646982],[135.4972751,34.7608352],[135.4972306,34.7601101],[135.4972198,34.7598052],[135.4972127,34.7596934],[135.4971624,34.7588638],[135.4970723,34.7578022],[135.4969851,34.7571027],[135.496947,34.7565389],[135.496779,34.754334],[135.496779,34.75425],[135.496745,34.753782],[135.4967357,34.7535982],[135.4967315,34.753244],[135.4967505,34.7523996],[135.4968334,34.7514141],[135.4969546,34.7506487],[135.496964,34.7505266],[135.4970984,34.7498108],[135.4972011,34.7491898],[135.4973041,34.7485629],[135.4973566,34.7482829],[135.4974443,34.7478324],[135.4977436,34.7461421],[135.4978877,34.7453292],[135.4979816,34.7447943],[135.498024,34.7445612],[135.4981297,34.7439546],[135.498244,34.743328],[135.498351,34.7428324],[135.4984129,34.7425526],[135.4984686,34.7422696],[135.4985149,34.7419847],[135.498535,34.7418223],[135.4985469,34.7416613],[135.4985568,34.7413424],[135.4985642,34.7411464],[135.4985707,34.7401366],[135.4985339,34.7391219],[135.4985394,34.7372632],[135.4985746,34.7365992],[135.4986162,34.7338891],[135.4986187,34.7337665],[135.4986205,34.7334202],[135.4986181,34.7328996],[135.4986166,34.7325331],[135.4986188,34.7322093],[135.4986195,34.732006],[135.4986125,34.7319103],[135.4985821,34.7313474],[135.4985785,34.7309212],[135.4985811,34.7306014],[135.4985878,34.7300614],[135.4985881,34.7296421],[135.4986061,34.7274843],[135.4986182,34.7266367],[135.498625,34.725587],[135.4986243,34.725372],[135.4986349,34.725174],[135.4986525,34.7249795],[135.4987663,34.72429],[135.4988841,34.7235679],[135.499004,34.722882],[135.499025,34.722713],[135.499066,34.722504],[135.499079,34.722374],[135.499127,34.722132],[135.499571,34.719438],[135.499611,34.719188],[135.499823,34.717872],[135.499878,34.717579],[135.4999564,34.7171286],[135.4999813,34.7168893],[135.5000058,34.7166545],[135.5000196,34.7160343],[135.5000184,34.716015],[135.5000001,34.715713],[135.4999858,34.7155012],[135.4999664,34.7154187],[135.499923,34.7151151],[135.4998719,34.7149245],[135.4998116,34.7146995],[135.4996831,34.7143874],[135.4995225,34.7141289],[135.4994036,34.7139583],[135.4987726,34.7132812],[135.4981971,34.7126041],[135.4972424,34.7114801],[135.4968501,34.711026],[135.4964834,34.710471],[135.4962342,34.7100396],[135.4961876,34.7098466],[135.4961759,34.7095415],[135.4962335,34.7091158],[135.4964135,34.7082636],[135.4964403,34.7081446],[135.4969192,34.7058811],[135.4973703,34.7041352],[135.4976136,34.7034172],[135.4981071,34.7020141],[135.4981808,34.7018379],[135.4982866,34.7017354],[135.4983957,34.7016432],[135.4985702,34.7015348],[135.4986709,34.7014772],[135.498808,34.701425],[135.4990608,34.7012986],[135.4992698,34.70118],[135.4993953,34.7010423],[135.4995427,34.7007758],[135.5000269,34.699467],[135.501131,34.6967036],[135.5012284,34.6964225],[135.5012765,34.6961517],[135.5012865,34.6960465],[135.5010069,34.6928836],[135.5009975,34.6927198],[135.5009817,34.6916379],[135.5009553,34.6898368],[135.5007515,34.6848163],[135.5006949,34.6835415],[135.50065,34.6823419],[135.5006235,34.681813],[135.5005919,34.6800829],[135.5004772,34.6773039],[135.5004393,34.6759774],[135.5004087,34.6753982],[135.5003852,34.6745178],[135.5002833,34.6699159],[135.5002856,34.6687089],[135.5002903,34.6674811],[135.500292,34.6672163],[135.5002995,34.6661554],[135.5003044,34.6655719],[135.5002816,34.6653432],[135.5001805,34.6650974],[135.5000587,34.6648851],[135.499989,34.664792],[135.4991087,34.6637231],[135.4981425,34.6626786],[135.4980969,34.6625749],[135.4980686,34.662449],[135.4980253,34.661519],[135.4980027,34.6611461],[135.4979109,34.6594007],[135.4979177,34.6584522],[135.4979323,34.6573446],[135.4979568,34.6562418],[135.4979701,34.6552914],[135.497971,34.6552279],[135.497959,34.6549824],[135.4977926,34.6515705],[135.497818,34.6513514],[135.497949,34.6510475],[135.498187,34.6506269],[135.4983805,34.6504038],[135.4986389,34.6502464],[135.5000169,34.6498767],[135.5011202,34.6496206],[135.5039431,34.6489596],[135.5045554,34.6488146],[135.5066402,34.648275],[135.5078255,34.6479764],[135.5115224,34.6470009],[135.5125327,34.646754],[135.5129178,34.6466571],[135.515278,34.6460991],[135.5161253,34.6458915],[135.5183541,34.6453525],[135.5186553,34.6452548],[135.5187324,34.6452291],[135.5190848,34.6450004],[135.5192622,34.6447963],[135.519347,34.6445304],[135.519347,34.6442173],[135.5193026,34.64388],[135.5190863,34.6425635],[135.5189515,34.6420727],[135.5185917,34.6402435],[135.5181956,34.6384195],[135.5177677,34.6367548],[135.5177328,34.6366038],[135.5176457,34.636258],[135.5174771,34.6355449],[135.5172974,34.6347874],[135.5170807,34.6337258],[135.5169549,34.6331228],[135.5166636,34.6316802],[135.5165475,34.6309808],[135.516431,34.6300525],[135.5162707,34.6291085],[135.5162146,34.6286298],[135.5161488,34.6281421],[135.5160167,34.6271365],[135.5159521,34.6266748],[135.5158866,34.626216],[135.5157542,34.6252887],[135.5154546,34.623428],[135.5153132,34.6225349],[135.5152545,34.6220686],[135.5151872,34.6215517],[135.5150517,34.6205367],[135.5150106,34.6202271],[135.5148218,34.6183862],[135.5146607,34.6171529],[135.5145829,34.6165578],[135.5143922,34.614672],[135.5142949,34.6137682],[135.5141769,34.6128028],[135.513966,34.6109604],[135.5137176,34.6090138],[135.5136622,34.6083948],[135.5134846,34.6063874],[135.5133601,34.6051281],[135.5133128,34.6046499],[135.5131999,34.6027726],[135.5130338,34.600903],[135.5129468,34.6000879],[135.5128122,34.5990834],[135.5126798,34.5971212],[135.5125797,34.5961313],[135.5124568,34.5952745],[135.5123769,34.5942763],[135.5123632,34.5940088],[135.512418,34.5937782],[135.5126066,34.5934993],[135.5138698,34.5917898],[135.5140844,34.5915106],[135.5147917,34.590604],[135.5155178,34.5896998],[135.5156899,34.5894137],[135.5158032,34.5891438],[135.5159085,34.5886743],[135.5160782,34.5877594],[135.5161115,34.5872943],[135.5161405,34.5869778],[135.5161617,34.5863573],[135.5162749,34.58507],[135.5164364,34.5822821],[135.5164677,34.5815247],[135.5164932,34.5802941],[135.5163774,34.578288],[135.5163142,34.575661],[135.516267,34.574269],[135.516239,34.5716494],[135.5162219,34.5713378],[135.5161661,34.5710321],[135.5160024,34.5704343],[135.515823,34.5698377],[135.5153965,34.5684803],[135.5146937,34.5662496],[135.5145917,34.5659619],[135.5143645,34.5655275],[135.5135398,34.5643253],[135.5129943,34.563517],[135.5126013,34.5629531],[135.5121139,34.5623185],[135.5114562,34.5615674],[135.5109699,34.5611014],[135.5099062,34.5600134],[135.5097966,34.5599019],[135.5090915,34.5591781],[135.5087425,34.5588125],[135.5079368,34.5579651],[135.5074633,34.5574765],[135.5073506,34.5573621],[135.5072283,34.5572355],[135.5069925,34.5569982],[135.5067477,34.5567624],[135.5065023,34.5565275],[135.5062575,34.5562904]]}},{"type":"Feature","properties":{"name":"Osaka Metro千日前線 (南巽 => 野田阪神)","name:en":"Osaka Metro Sennichimae Line (Minami-Tatsumi => Nodahanshin)","colour":"#E44D93","operator":"大阪市高速電気軌道"},"geometry":{"type":"LineString","coordinates":[[135.5530849,34.6425052],[135.5531412,34.6427391],[135.5531789,34.6429087],[135.5533308,34.6438115],[135.5536298,34.6456499],[135.5539389,34.6473218],[135.5540771,34.6480915],[135.5544299,34.6500634],[135.5547747,34.651999],[135.5550118,34.653507],[135.5551722,34.6545404],[135.5553809,34.6555704],[135.5556245,34.6567881],[135.5557822,34.6575622],[135.5559862,34.6590932],[135.5560288,34.6593997],[135.5561198,34.6602132],[135.5562543,34.661432],[135.5563649,34.6624681],[135.5564452,34.6635396],[135.5564739,34.6640079],[135.5565173,34.6644615],[135.5566392,34.6656899],[135.556789,34.6667907],[135.5568126,34.667133],[135.5567609,34.6674981],[135.556578,34.6678089],[135.5564819,34.6679191],[135.5563207,34.6680569],[135.5560589,34.66814],[135.5558825,34.668164],[135.5557041,34.6681894],[135.5553852,34.6682114],[135.5543001,34.6681632],[135.553047,34.6681048],[135.5522939,34.6680371],[135.5508832,34.667832],[135.5494361,34.6676156],[135.5490738,34.667555],[135.5488471,34.6675166],[135.5485929,34.6675293],[135.5483917,34.6675737],[135.5472793,34.6678463],[135.5458137,34.6682204],[135.5446373,34.6685242],[135.5439907,34.6686947],[135.5432561,34.6688673],[135.5429824,34.668892],[135.5427128,34.66886],[135.5424292,34.668809],[135.5415632,34.6685213],[135.539759,34.6679269],[135.5359633,34.6667191],[135.5347892,34.6663332],[135.5343939,34.666247],[135.5341955,34.6662303],[135.5333944,34.6661949],[135.5315554,34.6660589],[135.5307993,34.6660053],[135.5300662,34.6659613],[135.5290573,34.6659535],[135.5277272,34.665953],[135.5259029,34.6659825],[135.5247613,34.6660067],[135.5240069,34.6660078],[135.5228789,34.6659796],[135.5225761,34.6659888],[135.5221747,34.6660097],[135.521647,34.6660582],[135.5207186,34.6661524],[135.5192328,34.6663107],[135.5187815,34.6663502],[135.5181867,34.6663859],[135.5175765,34.6664256],[135.5169829,34.6664922],[135.5162676,34.6666043],[135.5157807,34.6666893],[135.5153449,34.6667537],[135.514394,34.6668283],[135.5130971,34.6668673],[135.5112177,34.6669365],[135.5099067,34.6669871],[135.508756,34.6670213],[135.5077225,34.6670587],[135.5064058,34.6670786],[135.5050412,34.6671283],[135.5044605,34.6671647],[135.5041856,34.667179],[135.5038838,34.66719],[135.5027868,34.6672154],[135.5020304,34.6672209],[135.5015915,34.6672088],[135.5005431,34.66719],[135.5001114,34.6671824],[135.4997165,34.6671933],[135.4990129,34.6672242],[135.4982673,34.6672723],[135.4979347,34.6672992],[135.4977181,34.6673201],[135.4974438,34.6673544],[135.4971589,34.6674032],[135.4960731,34.6675951],[135.4955918,34.6676787],[135.4951495,34.6677429],[135.4934703,34.6679518],[135.4924814,34.6680607],[135.4916985,34.6681464],[135.4911154,34.6681989],[135.4902618,34.6682826],[135.4894803,34.6683614],[135.4889985,34.6683817],[135.4886227,34.6683887],[135.4882694,34.6684004],[135.487877,34.6684269],[135.4875677,34.668481],[135.4871893,34.6686524],[135.4869078,34.668851],[135.4867202,34.6690675],[135.4865772,34.6694774],[135.4865152,34.6698659],[135.4865041,34.670019],[135.4865082,34.670334],[135.4865742,34.6709391],[135.4868042,34.6725606],[135.4868852,34.6731422],[135.4869799,34.6738921],[135.4870895,34.6747314],[135.4872058,34.6755483],[135.4872353,34.6758703],[135.4872888,34.6761544],[135.4873073,34.6764641],[135.4873172,34.6767851],[135.4873188,34.6771917],[135.4872277,34.6777028],[135.4867542,34.6795061],[135.4864685,34.6808503],[135.4864594,34.6808801],[135.4863659,34.6811876],[135.4863247,34.6813229],[135.4862184,34.6816242],[135.4859371,34.6824489],[135.4856049,34.6834019],[135.4852322,34.6842819],[135.4850296,34.6846966],[135.4849239,34.6848813],[135.4848339,34.684961],[135.4847283,34.6850254],[135.4845263,34.6851166],[135.4843969,34.6851597],[135.4836216,34.6853607],[135.4827064,34.6856029],[135.4818418,34.6858419],[135.4811974,34.686035],[135.4808263,34.686201],[135.4800364,34.6866196],[135.4800202,34.6866291],[135.4799639,34.6866607],[135.4783303,34.6875973],[135.4773979,34.6881188],[135.4772023,34.6882403],[135.4769908,34.6884209],[135.4768662,34.6885501],[135.4761741,34.6895401],[135.475789,34.6900855],[135.4749208,34.6913387],[135.4748449,34.6915046],[135.4748295,34.6916557],[135.4748502,34.6919514],[135.4748365,34.6933249],[135.4748438,34.694371]]}},{"type":"Feature","properties":{"name":"Osaka Metro御堂筋線 (中百舌鳥 => 箕面萱野)","name:en":"Osaka Metro Midosuji Line (Nakamozu => Minoh-kayano)","colour":"#E5171F","operator":"大阪市高速電気軌道"},"geometry":{"type":"LineString","coordinates":[[135.5062171,34.5563183],[135.5064616,34.5565585],[135.5067042,34.5567894],[135.5069482,34.5570263],[135.5071854,34.5572648],[135.5073076,34.5573908],[135.5074231,34.5575069],[135.5078865,34.5579935],[135.5087005,34.5588417],[135.5090484,34.5591991],[135.5097493,34.5599256],[135.5098674,34.5600552],[135.511055,34.5612415],[135.5116429,34.5618532],[135.5120913,34.5623329],[135.512535,34.5629749],[135.513242,34.5639324],[135.5134314,34.5641937],[135.5143264,34.5655505],[135.5145525,34.5659721],[135.51469,34.5664158],[135.5149683,34.5673149],[135.5153348,34.5684912],[135.5159009,34.5703067],[135.5160783,34.5709092],[135.5161369,34.571206],[135.5161636,34.5713677],[135.5162164,34.5742957],[135.5162572,34.5756814],[135.5163157,34.578036],[135.5164286,34.5801456],[135.5164269,34.581545],[135.5163859,34.5822808],[135.516215,34.585067],[135.516095,34.5863793],[135.5160574,34.5869796],[135.5160038,34.5877732],[135.5158482,34.5886873],[135.5157262,34.5891427],[135.5156094,34.5894271],[135.5154354,34.5897072],[135.5147281,34.5906209],[135.5140152,34.59153],[135.5138138,34.5917901],[135.512555,34.593474],[135.512361,34.593761],[135.512303,34.594005],[135.512317,34.594279],[135.512397,34.595279],[135.51252,34.5961362],[135.51262,34.597125],[135.5127578,34.5990799],[135.512887,34.600092],[135.512974,34.600907],[135.51314,34.602776],[135.5132563,34.6046567],[135.5132998,34.6051299],[135.5134326,34.6064042],[135.5136069,34.6083993],[135.5136618,34.6090185],[135.5139063,34.610965],[135.5141172,34.6128076],[135.5142352,34.6137729],[135.5143325,34.6146766],[135.5145316,34.6165646],[135.5147621,34.6183944],[135.5149822,34.6203894],[135.5151276,34.6215571],[135.5152655,34.6224707],[135.515395,34.6234336],[135.5156787,34.6253034],[135.5158235,34.6262242],[135.5158914,34.6266824],[135.5159572,34.6271449],[135.5160892,34.628148],[135.5161549,34.6286349],[135.5162111,34.629114],[135.5163823,34.6300981],[135.516488,34.630987],[135.5166043,34.6316876],[135.5168954,34.6331295],[135.516997,34.6337265],[135.517269,34.6349443],[135.5174154,34.6355562],[135.5175899,34.6363084],[135.5176747,34.6365793],[135.5177262,34.6367607],[135.5181315,34.6384253],[135.5185385,34.6402457],[135.5189098,34.642077],[135.519027,34.642571],[135.519243,34.643886],[135.519287,34.64422],[135.519287,34.644524],[135.519207,34.644775],[135.519041,34.644966],[135.5187986,34.6451132],[135.5186437,34.6451891],[135.518271,34.6452939],[135.5167532,34.6456599],[135.5152402,34.6460113],[135.5140333,34.6463018],[135.5134003,34.6464507],[135.5129041,34.6466162],[135.5124542,34.6467218],[135.5114971,34.646961],[135.5078078,34.647934],[135.5066501,34.6482232],[135.5045366,34.6487647],[135.5039081,34.6489211],[135.501107,34.6495817],[135.5000053,34.6498336],[135.4986272,34.6502058],[135.4983214,34.6504025],[135.4981448,34.6506054],[135.4979502,34.6509281],[135.4978208,34.6512104],[135.4977141,34.651454],[135.4976679,34.6516378],[135.4978007,34.6552391],[135.4977793,34.6562413],[135.4977518,34.6573584],[135.4977526,34.6576665],[135.4977534,34.6579811],[135.4977572,34.659406],[135.4978249,34.661175],[135.4978448,34.6615541],[135.4979172,34.662405],[135.4979628,34.6625418],[135.4980398,34.6626518],[135.499069,34.663747],[135.4999312,34.6648072],[135.5000092,34.6649008],[135.5001263,34.6651036],[135.5002243,34.6653463],[135.5002467,34.6655719],[135.5002425,34.6661576],[135.5002355,34.6672188],[135.5002399,34.6674821],[135.500232,34.6687045],[135.5002265,34.669923],[135.500328,34.6745168],[135.5003522,34.6753972],[135.5003825,34.6760003],[135.5004229,34.6773158],[135.5005299,34.6800775],[135.5005722,34.681814],[135.5005942,34.6823411],[135.5006457,34.6835429],[135.5007002,34.684818],[135.5009039,34.6898411],[135.5009057,34.6899385],[135.5009259,34.6916363],[135.5009462,34.6927423],[135.5009579,34.6929996],[135.5012336,34.6960514],[135.5011699,34.6964296],[135.5010651,34.6967256],[135.4999783,34.6994564],[135.4994813,34.7007754],[135.4993426,34.701027],[135.4992066,34.7011656],[135.4989799,34.7012811],[135.4987903,34.7013733],[135.498637,34.7014337],[135.4985177,34.7015059],[135.4983428,34.7016156],[135.498246,34.701699],[135.498146,34.7017978],[135.4980448,34.7020255],[135.4975597,34.7034091],[135.4973266,34.7040901],[135.49686,34.7058635],[135.4963785,34.7081356],[135.4961822,34.7091142],[135.4961189,34.7095653],[135.496139,34.7098635],[135.4961894,34.7100478],[135.4964299,34.7104852],[135.4968116,34.7110541],[135.4970594,34.7113517],[135.4971847,34.7114972],[135.4981482,34.7126278],[135.4987257,34.7133067],[135.4993177,34.7140131],[135.4994265,34.7141624],[135.4995526,34.7143443],[135.4996358,34.7144799],[135.4996948,34.7145846],[135.4997699,34.7147743],[135.4998275,34.7149253],[135.4998798,34.7151226],[135.4999375,34.7154368],[135.4999603,34.7157201],[135.4999751,34.7160129],[135.4999764,34.7160387],[135.4999684,34.7166648],[135.4999425,34.7168795],[135.4999134,34.7171212],[135.4998396,34.7175787],[135.4988529,34.7235644],[135.4987335,34.7242884],[135.4986095,34.7249812],[135.4985893,34.7251696],[135.49858,34.7253724],[135.4985816,34.7256152],[135.4985747,34.7266373],[135.4985702,34.7274818],[135.4985612,34.7279142],[135.4985441,34.7300613],[135.4985424,34.7309232],[135.4985371,34.7313574],[135.4985076,34.7317652],[135.4984885,34.73194],[135.4984798,34.7320047],[135.4984777,34.7321637],[135.4984766,34.7325294],[135.498469,34.7328914],[135.4984607,34.7333814],[135.498455,34.7337651],[135.4984569,34.7338863],[135.498462,34.7361704],[135.4984628,34.7365986],[135.498496,34.7373521],[135.4984916,34.7391221],[135.4984544,34.7401351],[135.4984468,34.7411509],[135.4984447,34.7412941],[135.4984333,34.7416022],[135.4984024,34.7419769],[135.4983877,34.7421373],[135.4983683,34.7422981],[135.498334,34.7425775],[135.4982885,34.7428409],[135.4982144,34.7432762],[135.4981249,34.743767],[135.4980303,34.7442922],[135.4978298,34.7454276],[135.497407,34.7478278],[135.4973269,34.7482857],[135.4971673,34.749186],[135.49706,34.7498152],[135.4969339,34.7505248],[135.4968106,34.7512752],[135.4967502,34.7518669],[135.496714,34.7523959],[135.4966925,34.7528201],[135.4966914,34.7532437],[135.4966984,34.7535974],[135.4967024,34.753863],[135.4967346,34.7542938],[135.4967802,34.7549737],[135.4969212,34.7567504],[135.4969438,34.7571035],[135.4969599,34.7575277],[135.496968,34.7579398],[135.4970353,34.7588648],[135.4971081,34.7596928],[135.4971453,34.7599583],[135.4971909,34.7603681],[135.497252,34.7611536],[135.4975212,34.7647006],[135.4975183,34.7650531],[135.4974854,34.7654856],[135.4973862,34.7660243],[135.4972883,34.7665487],[135.4968812,34.7685637],[135.4967156,34.7691002],[135.4964514,34.769738],[135.4963025,34.7700575],[135.4959606,34.7707405],[135.4957467,34.7712363],[135.4956427,34.7715293],[135.4954965,34.771981],[135.4954208,34.772307],[135.4953316,34.7727455],[135.4952712,34.7731123],[135.4952458,34.773412],[135.4952176,34.7739991],[135.4952544,34.7746474],[135.495301,34.7750699],[135.4953576,34.7754251],[135.495508,34.7760458],[135.4955824,34.7763223],[135.4956856,34.776612],[135.4959042,34.7771683],[135.4960772,34.7776045],[135.4964125,34.7784682],[135.4965855,34.7789671],[135.4967451,34.7795135],[135.4969235,34.7802691],[135.4969919,34.7806943],[135.4970549,34.7811526],[135.4971139,34.7818179],[135.4971474,34.7827585],[135.4972413,34.7851145],[135.4973191,34.7871313],[135.4973435,34.7877772],[135.4974476,34.7905376],[135.4974619,34.7909316],[135.4974633,34.7913243],[135.4974599,34.7917494],[135.4974304,34.7920842],[135.4973897,34.792352],[135.4973752,34.7924477],[135.4973094,34.7928488],[135.4972611,34.7931051],[135.4972493,34.7931745],[135.4971569,34.7935814],[135.4970442,34.7939978],[135.4968926,34.7944851],[135.4967351,34.7949262],[135.4965879,34.7952869],[135.4964769,34.7955589],[135.4962717,34.7960049],[135.4958021,34.7969747],[135.4949093,34.7988203],[135.4946594,34.7993406],[135.4936512,34.8014298],[135.4933615,34.8020431],[135.4932059,34.8024175],[135.4930316,34.802934],[135.4929417,34.8032759],[135.4928884,34.8035419],[135.4928475,34.8038067],[135.4928132,34.8041097],[135.4927997,34.8042853],[135.4928043,34.8044366],[135.4928333,34.8045865],[135.4928729,34.8047142],[135.4929403,34.8048659],[135.4930115,34.8049973],[135.4931095,34.8051408],[135.4932133,34.8052597],[135.493331,34.8053792],[135.4934471,34.8054893],[135.4935959,34.8056085],[135.4942493,34.8061361],[135.4943877,34.806254],[135.4945029,34.8063576],[135.4946321,34.8064928],[135.49472,34.8066069],[135.4948043,34.8067491],[135.4948744,34.8068908],[135.4949414,34.8070675],[135.4949828,34.8072351],[135.4950056,34.8074252],[135.4950158,34.8079557],[135.495025,34.808413],[135.4950157,34.8085317],[135.4949991,34.8086618],[135.494989,34.8088284],[135.4949868,34.8093681],[135.4949855,34.8098982],[135.4949859,34.8106336],[135.4949623,34.810844],[135.4949226,34.8110118],[135.4948819,34.8111413],[135.4948045,34.8113109],[135.4947148,34.8114677],[135.4945861,34.8116393],[135.494391,34.8118693],[135.4941334,34.8121721],[135.4940059,34.8123374],[135.4938992,34.8124958],[135.4938175,34.8126248],[135.493726,34.8127817],[135.4936478,34.8129522],[135.4935445,34.8132098],[135.49344,34.8135022],[135.4933371,34.8138025],[135.493229,34.8141041],[135.4931243,34.8144009],[135.4922245,34.8169519],[135.4921181,34.8172526],[135.4920199,34.8175332],[135.491908,34.8178244],[135.4901777,34.821804],[135.4898562,34.8225493],[135.4897538,34.82281],[135.4896539,34.8230947],[135.4895503,34.823425],[135.4894762,34.8237027],[135.4894026,34.8240116],[135.4893541,34.8242638],[135.4893167,34.824483],[135.4891962,34.8253884],[135.4890907,34.8262623],[135.4890319,34.8267617],[135.4890058,34.8270348],[135.4889909,34.8272528],[135.4889528,34.8283035],[135.4889515,34.8285675],[135.4889565,34.8288422],[135.4889851,34.8292954],[135.4890093,34.8296182],[135.4890267,34.8298594],[135.4890355,34.8300522],[135.4890399,34.830245],[135.4890313,34.8304913],[135.4889956,34.8313732]]}},{"type":"Feature","properties":{"name":"Osaka Metro中央線 (長田 => 夢洲)","name:en":"Osaka Municipal Subway Chūō Line (Nagata => Yumeshima)","colour":"#019A66","operator":"大阪市高速電気軌道"},"geometry":{"type":"LineString","coordinates":[[135.5910595,34.6787381],[135.588638,34.6787349],[135.5869325,34.6787618],[135.5860738,34.6787849],[135.5846852,34.6788097],[135.5843912,34.6788097],[135.5824395,34.6788419],[135.5809146,34.6788617],[135.5800397,34.6788954],[135.5793405,34.6789131],[135.577486,34.6789736],[135.575993,34.6789974],[135.5752606,34.678951],[135.5748897,34.6789018],[135.5744471,34.6788255],[135.5734394,34.6786397],[135.5727481,34.6785096],[135.5722328,34.6784163],[135.5719276,34.6783601],[135.5715436,34.6783153],[135.57087,34.678291],[135.569239,34.678302],[135.567039,34.678332],[135.564078,34.678409],[135.563436,34.678414],[135.563271,34.678415],[135.562731,34.678444],[135.562183,34.678503],[135.557835,34.679059],[135.5574489,34.6790916],[135.555868,34.679319],[135.553206,34.679664],[135.548608,34.680236],[135.5472047,34.6804342],[135.545739,34.6806358],[135.543359,34.680936],[135.542185,34.681089],[135.540944,34.681239],[135.540254,34.681323],[135.539481,34.681385],[135.5385757,34.6813838],[135.536539,34.6814009],[135.5359332,34.6814017],[135.534246,34.681453],[135.533397,34.681466],[135.5320332,34.6814583],[135.528627,34.681516],[135.527549,34.681487],[135.527018,34.681465],[135.526134,34.681429],[135.523218,34.681357],[135.522917,34.68132],[135.520955,34.681276],[135.520124,34.681293],[135.519877,34.681298],[135.5197901,34.6813012],[135.5196795,34.6813053],[135.519284,34.68132],[135.517465,34.6814302],[135.517181,34.681466],[135.515462,34.6815568],[135.511365,34.68176],[135.509856,34.681816],[135.5069325,34.6818551],[135.5060093,34.6818825],[135.5005608,34.6819939],[135.4987211,34.681998],[135.4981968,34.6820011],[135.4975559,34.682005],[135.4971827,34.6819805],[135.4966208,34.6819462],[135.495908,34.681893],[135.495424,34.681854],[135.491212,34.681565],[135.4890652,34.681409],[135.4889996,34.6814042],[135.4885618,34.6813724],[135.4884977,34.6813678],[135.4880951,34.6813385],[135.4871887,34.6812824],[135.4867158,34.6812374],[135.4862825,34.6811679],[135.485693,34.6810596],[135.4848104,34.6808904],[135.4842546,34.6807798],[135.4838376,34.6806878],[135.4796783,34.6796779],[135.4795368,34.6796364],[135.4793288,34.6795734],[135.4791147,34.6794897],[135.4788917,34.6793891],[135.4786832,34.6792774],[135.4785661,34.6792025],[135.4784199,34.6791004],[135.4782788,34.6789972],[135.4777718,34.6785999],[135.4774606,34.6783495],[135.4762263,34.6773809],[135.4753112,34.6766557],[135.4743956,34.6759366],[135.4735453,34.6752934],[135.4727881,34.6747663],[135.4720846,34.6743101],[135.4713785,34.6738587],[135.4702714,34.6731629],[135.4694862,34.6726486],[135.4693126,34.6725305],[135.4691402,34.6724086],[135.4688936,34.6722143],[135.4686647,34.6720075],[135.4681149,34.6715214],[135.4671175,34.6706488],[135.466848,34.6704238],[135.4667004,34.670315],[135.4665546,34.670207],[135.4662715,34.6700308],[135.4660544,34.6699053],[135.4657473,34.6697554],[135.4654274,34.6696191],[135.463833,34.6690135],[135.4631407,34.6687567],[135.4621007,34.6684026],[135.4614665,34.6681879],[135.459693,34.6675827],[135.458643,34.6672335],[135.4522318,34.6650625],[135.4519684,34.6649668],[135.4517905,34.6648961],[135.4516877,34.6648497],[135.4515731,34.6647902],[135.4514736,34.664727],[135.4513893,34.6646693],[135.4513431,34.6646287],[135.4512977,34.6645899],[135.451243,34.6645397],[135.4511637,34.664461],[135.4511072,34.6643957],[135.4510533,34.6643247],[135.4510017,34.664249],[135.4509486,34.6641673],[135.4497539,34.6622874],[135.4494541,34.6618259],[135.4492065,34.6614336],[135.4488366,34.6608536],[135.4484594,34.6602657],[135.4482727,34.6599781],[135.4481634,34.6598195],[135.4480522,34.6596732],[135.4479528,34.6595541],[135.4478199,34.6594235],[135.447675,34.6592918],[135.4475134,34.6591642],[135.4473716,34.6590637],[135.4472416,34.6589831],[135.4470954,34.6589002],[135.4469631,34.6588352],[135.4468034,34.6587624],[135.4462924,34.6585608],[135.4453547,34.6581889],[135.444606,34.6578961],[135.4439602,34.657642],[135.4428304,34.6571994],[135.4419324,34.6568476],[135.4408311,34.6564246],[135.4401693,34.6561581],[135.4387388,34.6556102],[135.4374528,34.6550963],[135.4356512,34.6543877],[135.4355242,34.6543386],[135.4353517,34.6542699],[135.4350437,34.6541234],[135.4344367,34.6538844],[135.4338469,34.6536491],[135.4334244,34.6534816],[135.4331372,34.6533744],[135.432641,34.6531932],[135.4324329,34.6531164],[135.4322141,34.6530349],[135.4305991,34.6523974],[135.428646,34.6516356],[135.4283945,34.6515349],[135.4279901,34.6513501],[135.4278311,34.6512638],[135.4275323,34.6510846],[135.426064,34.6501413],[135.4172123,34.6445355],[135.4167948,34.6442965],[135.4161443,34.6439975],[135.4158041,34.6438684],[135.414756,34.643503],[135.41404,34.643227],[135.4129353,34.6428249],[135.4126242,34.6427072],[135.412233,34.6425613],[135.4118418,34.6424153],[135.4111496,34.6421842],[135.4108392,34.6420779],[135.4099906,34.6417726],[135.4082001,34.641141],[135.4079497,34.6410447],[135.4077107,34.640943],[135.4075269,34.640844],[135.4073399,34.6407303],[135.4071317,34.6405871],[135.4069025,34.6404052],[135.4060536,34.6397496],[135.4058601,34.6396198],[135.4056405,34.6394847],[135.405434,34.6393696],[135.405234,34.6392693],[135.4050079,34.6391689],[135.404751,34.6390739],[135.4044859,34.6389897],[135.404242,34.6389228],[135.4040111,34.6388706],[135.4037542,34.6388251],[135.4034533,34.6387863],[135.4031769,34.6387649],[135.4029248,34.6387569],[135.4026809,34.6387582],[135.4024223,34.6387729],[135.4021735,34.638797],[135.4019214,34.6388345],[135.4016401,34.6388853],[135.4013702,34.6389495],[135.4011148,34.6390244],[135.4009067,34.6390954],[135.4006449,34.639201],[135.4004205,34.6393027],[135.4001879,34.6394245],[135.3999554,34.6395623],[135.3997302,34.6397016],[135.3921163,34.6448316],[135.3917987,34.6450329],[135.3915372,34.6452035],[135.3912234,34.6454017],[135.3902501,34.6460533],[135.3900409,34.6462039],[135.3898205,34.6463776],[135.389643,34.6465328],[135.3894581,34.6467279],[135.3893105,34.6468893],[135.3891405,34.6471213],[135.3890247,34.6472965],[135.3889089,34.6475101],[135.3888155,34.6477145],[135.3887445,34.6478928],[135.388696,34.6480526],[135.3882663,34.649743],[135.3882308,34.6499182],[135.3882177,34.6500872],[135.3882271,34.6502578],[135.3882588,34.6504191],[135.3883074,34.6505728],[135.3883784,34.6507219],[135.3884746,34.6508689],[135.3886298,34.6510583],[135.3887587,34.6511911],[135.3889006,34.6513352],[135.3889892,34.6514228],[135.389216,34.6516533],[135.3896052,34.6520476],[135.3898897,34.6523908],[135.3901004,34.6526132],[135.3904761,34.6529931]]}},{"type":"Feature","properties":{"name":"Osaka Metro今里筋線","name:en":"Osaka Metro Imazatosuji Line (Imazato --> Itakano)","colour":"#EE7B1A","operator":"大阪市高速電気軌道"},"geometry":{"type":"LineString","coordinates":[[135.5472837,34.7600012],[135.5472248,34.7583384],[135.5471329,34.7565023],[135.5471056,34.7558917],[135.5470629,34.7556805],[135.5469953,34.7554989],[135.5468535,34.7553264],[135.5467391,34.7552055],[135.5465982,34.7550972],[135.546329,34.754893],[135.5459097,34.7546811],[135.5456803,34.754588],[135.545421,34.7544926],[135.545306,34.7544309],[135.545236,34.7543474],[135.5451828,34.7542127],[135.545159,34.7540411],[135.5451263,34.7538939],[135.5445776,34.7522052],[135.5436504,34.7490961],[135.542702,34.7459812],[135.5426418,34.7456819],[135.5426317,34.7455784],[135.5426452,34.74543],[135.5426887,34.745352],[135.5427534,34.7452799],[135.5428687,34.7451945],[135.5438218,34.7445946],[135.5440254,34.7444576],[135.5445589,34.7439496],[135.5456753,34.7428684],[135.5467,34.741883],[135.5472208,34.7413341],[135.5478929,34.7406144],[135.5488074,34.7396231],[135.5502656,34.7380167],[135.5525835,34.7354338],[135.5541407,34.7336761],[135.5549137,34.7327914],[135.5553707,34.7322456],[135.5557764,34.7317819],[135.5560351,34.731498],[135.5562505,34.7313068],[135.5581141,34.7295837],[135.5593618,34.7284236],[135.5602793,34.7275683],[135.5605289,34.727222],[135.5607035,34.7269686],[135.5608165,34.7267842],[135.5608792,34.7265875],[135.5609311,34.7263653],[135.5609848,34.7261231],[135.560973,34.7258467],[135.5609704,34.7254875],[135.5609171,34.7248885],[135.5609032,34.7240581],[135.5608359,34.7222675],[135.5607913,34.721088],[135.5607276,34.7193876],[135.5606141,34.7158503],[135.560589,34.7155452],[135.5605571,34.7154717],[135.5605319,34.7154419],[135.560494,34.7153971],[135.5603952,34.7153233],[135.5603038,34.7152909],[135.5601887,34.7152609],[135.5600312,34.7152241],[135.559932,34.715217],[135.5598121,34.7152173],[135.5583012,34.7152361],[135.554895,34.7153084],[135.5530759,34.7153574],[135.5510061,34.7154205],[135.5470586,34.7155386],[135.546972,34.7155345],[135.5468985,34.7155227],[135.5467914,34.7154862],[135.5467096,34.7154459],[135.5466303,34.7154019],[135.5465772,34.7153517],[135.5465096,34.715274],[135.5464626,34.715185],[135.5464623,34.7149958],[135.5464642,34.7149128],[135.546479,34.7130989],[135.5464657,34.7119856],[135.5464328,34.7108992],[135.5464099,34.7087376],[135.5463912,34.7071908],[135.5463694,34.705349],[135.5463441,34.7028827],[135.5463214,34.7009652],[135.5463136,34.7000985],[135.5462833,34.6980986],[135.5462639,34.6971725],[135.5462542,34.6962503],[135.5462172,34.6944134],[135.5462101,34.6934735],[135.5461967,34.6930234],[135.5461552,34.6925451],[135.5460609,34.691937],[135.5459312,34.6908527],[135.545794,34.6896306],[135.5456396,34.6884038],[135.5454355,34.6870225],[135.5452134,34.6854938],[135.5449965,34.6839687],[135.5447687,34.6822707],[135.5446355,34.6814409],[135.5445864,34.6810501],[135.5445087,34.68043],[135.5440528,34.6770581],[135.5437944,34.6752204],[135.5435942,34.673887],[135.5434412,34.6727718],[135.54329,34.6716935],[135.5430853,34.670162]]}},{"type":"Feature","properties":{"name":"Osaka Metro堺筋線","name:en":"Osaka Municipal Subway Sakaisuji Line (Tengachaya --> Tenjinbashisuji 6-chome)","colour":"#814721","operator":"大阪市高速電気軌道"},"geometry":{"type":"LineString","coordinates":[[135.4971083,34.637686],[135.4971638,34.6378773],[135.4978048,34.6405985],[135.4979401,34.6411097],[135.4981116,34.6416263],[135.498249,34.6419651],[135.498463,34.6423114],[135.4986472,34.6425703],[135.4991886,34.6431865],[135.499652,34.6436068],[135.5000305,34.6438716],[135.5004487,34.6441464],[135.5008349,34.6443773],[135.5012575,34.6446305],[135.5020004,34.6450428],[135.5020208,34.6450553],[135.5024388,34.6453473],[135.5025252,34.6454198],[135.5025978,34.6455093],[135.5029658,34.6469493],[135.5035212,34.6486679],[135.5035648,34.6488063],[135.5038168,34.6495813],[135.5046684,34.6521783],[135.5050298,34.6533033],[135.5053947,34.6543939],[135.5054771,34.6547295],[135.5055478,34.6550664],[135.5056325,34.6556032],[135.5056676,34.6563251],[135.5057054,34.6571805],[135.5057868,34.6587643],[135.505825,34.6596282],[135.5058619,34.6603949],[135.5058874,34.661058],[135.5059834,34.662975],[135.5060248,34.6644273],[135.5060578,34.6653494],[135.5061213,34.6667194],[135.5061478,34.6675053],[135.5061548,34.6681073],[135.5061618,34.6699263],[135.5062678,34.6735383],[135.506291,34.6748575],[135.5063088,34.6757573],[135.5064178,34.6812593],[135.5064158,34.6815883],[135.5064317,34.6826204],[135.5064498,34.6835343],[135.5064958,34.6876733],[135.5065218,34.6896003],[135.5065278,34.6906143],[135.5065498,34.6911743],[135.5065898,34.6914843],[135.5066958,34.6917713],[135.5068728,34.6920723],[135.5070068,34.6922313],[135.5071528,34.6924013],[135.5073237,34.6925701],[135.5073409,34.6925872],[135.5073488,34.6925953],[135.5075448,34.6927203],[135.5080038,34.6929143],[135.5090858,34.6933543],[135.5095898,34.6936183],[135.5099598,34.6939323],[135.5102958,34.6942843],[135.5105018,34.6945804],[135.5106218,34.6947533],[135.5108056,34.6950967],[135.5109468,34.6955393],[135.5109485,34.6955504],[135.5109918,34.6959703],[135.5109978,34.6963683],[135.5109818,34.6970993],[135.5109758,34.6975763],[135.5109598,34.6988023],[135.5109148,34.7007643],[135.5108348,34.7030473],[135.5108191,34.7042178],[135.5108165,34.704475],[135.5107924,34.7074813],[135.5107234,34.7087888],[135.5106908,34.7098048]]}},{"type":"Feature","properties":{"name":"Osaka Metro長堀鶴見緑地線","name:en":"Nagahori Tsurumi-Ryokuchi (Kadoma-Minami --> Taisho)","colour":"#A9CC51","operator":"大阪市高速電気軌道"},"geometry":{"type":"LineString","coordinates":[[135.5931108,34.7170398],[135.5918594,34.7164047],[135.591363,34.716214],[135.5910038,34.7160257],[135.5906715,34.7158765],[135.5903456,34.7157336],[135.5900091,34.7155906],[135.5896751,34.7154506],[135.5893427,34.7153121],[135.5890105,34.7151705],[135.5885131,34.7149621],[135.5880048,34.7147358],[135.587515,34.714525],[135.586886,34.71423],[135.585659,34.713654],[135.582153,34.711986],[135.581893,34.711811],[135.5813719,34.7112871],[135.5806954,34.7109324],[135.578228,34.709757],[135.577733,34.709502],[135.575331,34.708309],[135.574876,34.707954],[135.5748109,34.7078663],[135.574746,34.707779],[135.574665,34.707545],[135.574633,34.707384],[135.574631,34.707041],[135.574615,34.704809],[135.574583,34.704608],[135.57442,34.7043],[135.574217,34.704039],[135.573974,34.703817],[135.5734194,34.7036117],[135.571936,34.703438],[135.571498,34.703391],[135.5696161,34.7031696],[135.568211,34.7029988],[135.5671033,34.7029315],[135.5660573,34.7028775],[135.564229,34.702776],[135.5634151,34.7027455],[135.562646,34.702682],[135.562248,34.702575],[135.561014,34.702253],[135.5599007,34.7019495],[135.5597822,34.7019522],[135.5595354,34.7019131],[135.5547915,34.7013594],[135.5543096,34.7012939],[135.551977,34.700977],[135.548485,34.7005412],[135.547018,34.70042],[135.546023,34.700338],[135.541103,34.700112],[135.5405525,34.7001007],[135.5404255,34.7000712],[135.540056,34.700011],[135.539504,34.699898],[135.5383701,34.6996825],[135.5362,34.69927],[135.535267,34.699093],[135.533676,34.698764],[135.532686,34.698563],[135.531979,34.698369],[135.531387,34.698148],[135.53116,34.69802],[135.5307455,34.6977377],[135.5305398,34.6975502],[135.529579,34.696564],[135.528921,34.695841],[135.528467,34.695311],[135.528329,34.694983],[135.528313,34.694527],[135.528416,34.694243],[135.52844,34.694162],[135.528651,34.69382],[135.528894,34.693403],[135.5295012,34.6924236],[135.530058,34.691329],[135.5307754,34.6899893],[135.5307872,34.6899673],[135.531105,34.689358],[135.532621,34.68645],[135.532873,34.685887],[135.533157,34.684761],[135.53329,34.683694],[135.5333639,34.682698],[135.5334135,34.6821935],[135.5334375,34.6816576],[135.5334401,34.6813479],[135.5334444,34.68104],[135.5334348,34.680731],[135.5333932,34.680421],[135.5333687,34.6802818],[135.5333385,34.6801219],[135.5332821,34.6798164],[135.5332191,34.6795082],[135.5331615,34.6792021],[135.5330165,34.6784462],[135.5329207,34.6779862],[135.5328572,34.6776809],[135.5327652,34.6772341],[135.5326665,34.6767673],[135.5325975,34.6764681],[135.5325672,34.6763203],[135.5325251,34.6761587],[135.5324847,34.6760268],[135.5324205,34.6758637],[135.5323898,34.6757937],[135.5323514,34.6757336],[135.5321973,34.6754511],[135.5320276,34.6751788],[135.5319392,34.6750332],[135.5319048,34.6749897],[135.5318311,34.6749169],[135.5317453,34.6748286],[135.5316974,34.6747919],[135.5315533,34.6747198],[135.5313684,34.6746417],[135.5312899,34.6746089],[135.5312735,34.674602],[135.5312628,34.6745979],[135.5312504,34.6745965],[135.5312091,34.674593],[135.5310163,34.6745773],[135.5309272,34.6745741],[135.5308347,34.6745746],[135.5306392,34.6745813],[135.530474,34.6745896],[135.5300869,34.6746089],[135.5298546,34.6746207],[135.5297105,34.6746268],[135.5295147,34.6746376],[135.529336,34.6746475],[135.5292602,34.6746511],[135.5292257,34.6746541],[135.5291978,34.6746571],[135.5291432,34.6746632],[135.5289608,34.6746831],[135.5287705,34.6747051],[135.5284038,34.6747504],[135.5282195,34.6747738],[135.5280307,34.6748062],[135.5274898,34.6749007],[135.5267543,34.6750308],[135.5256546,34.6752243],[135.5245523,34.6754162],[135.5238193,34.67554],[135.5233877,34.6756145],[135.5225789,34.6757111],[135.5212515,34.6758094],[135.5206526,34.6758569],[135.518671,34.6759981],[135.518475,34.6760009],[135.518135,34.6759996],[135.5175674,34.6760278],[135.5172464,34.6760229],[135.5150644,34.6760009],[135.5147627,34.6759956],[135.5143557,34.6759631],[135.5139434,34.6758963],[135.5131983,34.6756801],[135.5124656,34.6754639],[135.5122307,34.6753937],[135.511996,34.6753525],[135.511811,34.6753413],[135.5115897,34.6753386],[135.5112903,34.6753309],[135.511105,34.675326],[135.510047,34.675312],[135.507214,34.675295],[135.506437,34.6752768],[135.505746,34.675301],[135.504144,34.675308],[135.5009213,34.6752691],[135.4998159,34.6753239],[135.4991998,34.6753372],[135.4981023,34.6753451],[135.4977028,34.6753305],[135.4973191,34.6753384],[135.4971856,34.6753339],[135.4944713,34.6754786],[135.4929663,34.6755429],[135.4904833,34.6756388],[135.488381,34.6756843],[135.4877193,34.6756852],[135.4869091,34.6756856],[135.486214,34.675711],[135.4855447,34.6757404],[135.4849745,34.6757906],[135.484284,34.675859],[135.483833,34.675883],[135.4834,34.675851],[135.482856,34.675761],[135.482377,34.675618],[135.481863,34.675384],[135.481423,34.675103],[135.4811,34.674797],[135.480846,34.674489],[135.4797108,34.6719855],[135.4795155,34.6714438],[135.4792322,34.6702457],[135.4792136,34.6700371],[135.479207,34.6698209],[135.4791854,34.6696877],[135.4791488,34.6693927],[135.4791455,34.6691842],[135.4792131,34.668856],[135.4794415,34.6679853],[135.4795015,34.6677012],[135.479491,34.667547],[135.479496,34.667242],[135.479456,34.667042],[135.479363,34.666775],[135.4793044,34.6666816],[135.4791289,34.6663113],[135.4786099,34.665509]]}},{"type":"Feature","properties":{"name":"Osaka Metro四つ橋線","name:en":"Osaka Municipal Subway Yotsubashi Line (Nishi-Umeda --> Suminoekoen)","colour":"#0078BE","operator":"大阪市高速電気軌道"},"geometry":{"type":"LineString","coordinates":[[135.4957286,34.7001621],[135.4956763,34.699483],[135.4956041,34.6985547],[135.4954398,34.6969401],[135.4954245,34.6966255],[135.4954652,34.6963486],[135.4958185,34.6944931],[135.4958756,34.6942242],[135.4961558,34.6927383],[135.4962221,34.6923769],[135.4962282,34.692344],[135.4962864,34.6920298],[135.4963138,34.6918744],[135.4963253,34.6918201],[135.4963627,34.6914998],[135.4964595,34.6906188],[135.4967581,34.6883549],[135.4968295,34.6878134],[135.4968449,34.6876366],[135.4968728,34.686967],[135.4969263,34.6849836],[135.4969318,34.6845072],[135.4969131,34.6835378],[135.4969235,34.6827698],[135.4969318,34.6819442],[135.4968918,34.6814125],[135.4968898,34.6813203],[135.4968688,34.6803748],[135.4968861,34.6794735],[135.4969495,34.6788224],[135.4969725,34.6781917],[135.4969778,34.6767841],[135.4969512,34.6758338],[135.496898,34.6752439],[135.4968578,34.6748104],[135.496782,34.6740351],[135.4966861,34.6730668],[135.4964528,34.6711956],[135.4963275,34.6699153],[135.4964366,34.6693964],[135.4965412,34.6689902],[135.4966175,34.6687119],[135.4970125,34.667624],[135.4976228,34.6663446],[135.4980028,34.6655646],[135.4980384,34.6654524],[135.4980321,34.6646728],[135.4980579,34.6629862],[135.4980141,34.6623984],[135.4979664,34.661527],[135.4978598,34.659398],[135.4978605,34.6590024],[135.4978631,34.6575868],[135.4978635,34.6573616],[135.4978945,34.6563461],[135.4978977,34.6562417],[135.497912,34.655304],[135.4979131,34.6552326],[135.4979013,34.6549911],[135.497727,34.6514309],[135.497677,34.650716],[135.497641,34.650146],[135.497453,34.648419],[135.497338,34.647813],[135.497192,34.647251],[135.4967453,34.6450922],[135.496715,34.644946],[135.496706,34.644906],[135.4966066,34.6442802],[135.496022,34.641961],[135.495389,34.639849],[135.49517,34.639018],[135.494747,34.637618],[135.494494,34.63664],[135.493995,34.634884],[135.493888,34.634409],[135.4936275,34.6335169],[135.492728,34.631087],[135.491825,34.628786],[135.491368,34.627435],[135.491208,34.626856],[135.491073,34.626374],[135.490938,34.625773],[135.4906845,34.6247153],[135.4904379,34.6237757],[135.4903494,34.6234328],[135.490118,34.623036],[135.489924,34.622819],[135.489611,34.622582],[135.48924,34.622344],[135.488944,34.622184],[135.488547,34.622121],[135.487305,34.622135],[135.484509,34.622166],[135.484154,34.622139],[135.4801777,34.6214197],[135.4794184,34.6212875],[135.4785459,34.621129],[135.476305,34.620744],[135.475941,34.620483],[135.475702,34.620273],[135.47541,34.619753],[135.475006,34.618968],[135.474371,34.617664],[135.473915,34.616802],[135.473735,34.616425],[135.473616,34.616042],[135.473496,34.61551],[135.473444,34.615081],[135.4734011,34.6142542],[135.473369,34.613634],[135.473306,34.612284],[135.473257,34.611246],[135.473153,34.609623],[135.473149,34.609571],[135.473121,34.6087382]]}},{"type":"Feature","properties":{"name":"Osaka Metor谷町線","name:en":"Osaka Metro Tanimachi Line (Dainichi --> Yao-Minami)","colour":"#522886","operator":"大阪市高速電気軌道"},"geometry":{"type":"LineString","coordinates":[[135.5835248,34.5971103],[135.5829025,34.5972446],[135.5825081,34.5972801],[135.5818397,34.5973544],[135.5816471,34.5973834],[135.581169,34.5974152],[135.5799472,34.5973653],[135.5797662,34.5973661],[135.5792926,34.5973679],[135.5788279,34.5974411],[135.5785209,34.597489],[135.5774538,34.5977046],[135.5763443,34.5979085],[135.5758031,34.5981351],[135.575374,34.5983488],[135.5748876,34.5987392],[135.5745849,34.5990892],[135.5744332,34.5994114],[135.5742369,34.5998956],[135.5741717,34.6002064],[135.5738397,34.6016713],[135.573644,34.6028996],[135.5733923,34.603919],[135.573288,34.6047908],[135.573227,34.605658],[135.573201,34.6061447],[135.5731703,34.6064965],[135.5731673,34.6065243],[135.5730987,34.6068111],[135.5729204,34.6072109],[135.5727396,34.6074365],[135.5725427,34.607551],[135.5724042,34.6076122],[135.5720198,34.607697],[135.5703477,34.6081307],[135.5692551,34.6083917],[135.5681597,34.6086259],[135.5670194,34.608867],[135.5665512,34.6089362],[135.5652295,34.6090051],[135.5616891,34.6091961],[135.5611804,34.6092018],[135.5601732,34.6092063],[135.5583976,34.6091834],[135.556956,34.6091614],[135.5537733,34.6091394],[135.5513607,34.6091716],[135.5505774,34.6091789],[135.5503885,34.6091883],[135.5502018,34.6092009],[135.5500159,34.6092205],[135.5498193,34.609243],[135.5496573,34.609314],[135.5495148,34.6094056],[135.54939,34.6095161],[135.5492711,34.6096425],[135.5491787,34.6097733],[135.5491238,34.609915],[135.549083,34.6100735],[135.5490706,34.6102219],[135.5489769,34.6155319],[135.5488189,34.6199319],[135.5487657,34.6204764],[135.5486643,34.620943],[135.5485471,34.6212646],[135.5483883,34.621655],[135.5482319,34.6218899],[135.5481355,34.6220167],[135.5480391,34.6221509],[135.5479386,34.6222791],[135.5477899,34.622372],[135.547424,34.6225265],[135.5470886,34.6226008],[135.5469113,34.6226126],[135.5466291,34.6226142],[135.5463456,34.6225873],[135.5448732,34.6223823],[135.5439388,34.622222],[135.539689,34.6216563],[135.5357822,34.6212522],[135.5353942,34.6212264],[135.5344427,34.6212069],[135.5339527,34.6212261],[135.533669,34.621256],[135.5332606,34.6213368],[135.5329374,34.6214486],[135.5324965,34.6216265],[135.5320218,34.6218578],[135.531836,34.6219584],[135.5315872,34.6221093],[135.5309218,34.6226152],[135.5306972,34.6228204],[135.5305777,34.6229316],[135.5301622,34.6233932],[135.5298341,34.6237578],[135.5288885,34.624722],[135.5271405,34.6265409],[135.5249873,34.6287747],[135.523092,34.6308004],[135.5207606,34.6332282],[135.5188842,34.6351532],[135.5179718,34.6361462],[135.5166431,34.6375243],[135.5151814,34.6390318],[135.5149167,34.6392729],[135.5145842,34.6395119],[135.5140948,34.6397755],[135.5136204,34.6399645],[135.5132578,34.6401143],[135.5128576,34.6402718],[135.5125186,34.6404635],[135.5122954,34.6406846],[135.5121444,34.6409042],[135.5119934,34.6412052],[135.5119043,34.6415836],[135.5118825,34.6418849],[135.5118663,34.6420772],[135.5118881,34.6422266],[135.5119649,34.6424929],[135.512239,34.6436144],[135.5123604,34.6441398],[135.5128909,34.6464028],[135.5131293,34.6477425],[135.5135119,34.6494344],[135.5136514,34.6502055],[135.5137831,34.6507498],[135.5137015,34.6510489],[135.5137105,34.6512163],[135.5136983,34.6514087],[135.5135928,34.6524622],[135.5135686,34.6532611],[135.5135911,34.6545861],[135.5136279,34.6557903],[135.5137021,34.6562693],[135.5138034,34.656764],[135.513956,34.6576592],[135.5142208,34.6588196],[135.5145395,34.6610489],[135.5149636,34.6632644],[135.5152382,34.6646369],[135.5156089,34.6661589],[135.5158133,34.6670886],[135.5160138,34.6679699],[135.5164096,34.6700101],[135.5165567,34.670995],[135.5166892,34.6719298],[135.5168509,34.6733886],[135.5169788,34.6742854],[135.5169983,34.6745403],[135.5170408,34.6751068],[135.5170852,34.6758466],[135.5172153,34.678807],[135.5172572,34.6810997],[135.5172881,34.6823578],[135.5172998,34.6832172],[135.5173494,34.684813],[135.5173454,34.6857187],[135.5173258,34.6875308],[135.5173376,34.6881979],[135.517245,34.68972],[135.5172465,34.6906257],[135.5173009,34.6912648],[135.5174452,34.6925384],[135.5174866,34.6928723],[135.5175842,34.6934382],[135.5177768,34.6943421],[135.5178736,34.6949581],[135.5179182,34.6952666],[135.5180243,34.6958522],[135.518064,34.6962689],[135.5179876,34.6965428],[135.5179038,34.6966941],[135.5178194,34.6967974],[135.5177131,34.6968912],[135.5176336,34.6969516],[135.5174735,34.6970538],[135.5173076,34.6971305],[135.517038,34.6972071],[135.5166015,34.6972507],[135.5154268,34.6972886],[135.514495,34.6973544],[135.514341,34.6973708],[135.5142546,34.6973749],[135.5123104,34.6974803],[135.5118433,34.6975103],[135.511164,34.697555],[135.5098456,34.6976514],[135.5084161,34.6977561],[135.5058559,34.6979373],[135.5046006,34.6980236],[135.5041131,34.6980572],[135.5035617,34.6980627],[135.5026798,34.698024],[135.5023368,34.6980164],[135.5017032,34.6980385],[135.5013096,34.6980881],[135.501099,34.698153],[135.5009508,34.6982304],[135.5008354,34.6983015],[135.5007058,34.698385],[135.5006441,34.6984436],[135.5005901,34.6985351],[135.5001137,34.6996663],[135.4997884,34.7005887],[135.4994622,34.7014273],[135.4993994,34.7018452],[135.4993994,34.7020784],[135.4994073,34.7021703],[135.4994238,34.7022659],[135.4994504,34.7023309],[135.4994929,34.7024056],[135.4995334,34.702453],[135.4999026,34.7027808],[135.5006237,34.7033793],[135.5010793,34.7037368],[135.5017883,34.7042932],[135.5033777,34.705513],[135.504902,34.7066915],[135.5056046,34.7072428],[135.5070754,34.7084077],[135.5090124,34.7099308],[135.5098227,34.7105407],[135.5101508,34.7107787],[135.5102833,34.7108365],[135.5104942,34.7108809],[135.5106819,34.7108966],[135.5109047,34.7109013],[135.5111499,34.7108834],[135.51141,34.7108389],[135.5118787,34.7106906],[135.5123476,34.7105462],[135.513466,34.7101599],[135.5142496,34.7099172],[135.5158855,34.7094287],[135.5162002,34.7093332],[135.5171925,34.70902],[135.5182884,34.7086719],[135.5185711,34.7085746],[135.5195984,34.7082219],[135.519684,34.7081914],[135.519834,34.708167],[135.520162,34.7081602],[135.5204089,34.7081799],[135.5212634,34.7083145],[135.5246474,34.7088117],[135.5248589,34.7088495],[135.5253403,34.7089191],[135.5256503,34.7089656],[135.5258559,34.708993],[135.5263305,34.7090337],[135.5267691,34.7090313],[135.5289438,34.708918],[135.5372115,34.7085137],[135.5373985,34.7085207],[135.5375855,34.7085763],[135.5377517,34.708681],[135.538144,34.7090179],[135.5385567,34.709411],[135.5392391,34.7100948],[135.5403294,34.7112982],[135.5406464,34.7116442],[135.5416892,34.7127831],[135.5424186,34.7135045],[135.5427651,34.7138238],[135.5432109,34.7141592],[135.5436559,34.7143857],[135.5444052,34.7147443],[135.5458083,34.7153528],[135.5463766,34.715639],[135.5465504,34.7157573],[135.5466645,34.7159629],[135.5467069,34.7161488],[135.547235,34.7179131],[135.5489602,34.7234967],[135.5492267,34.7242281],[135.549696,34.7255809],[135.5501842,34.7268304],[135.5507196,34.7281107],[135.5510032,34.7285709],[135.5510524,34.7285808],[135.5513993,34.7288969],[135.5517994,34.729211],[135.5526153,34.7298092],[135.5537282,34.7305911],[135.5546809,34.7312416],[135.5558705,34.7320508],[135.5579478,34.7334602],[135.5593353,34.7345364],[135.5607241,34.7356115],[135.5614324,34.7362086],[135.5630722,34.7374792],[135.5635696,34.7378655],[135.5643638,34.7384796],[135.5668066,34.7404266],[135.5692269,34.7423326],[135.5695633,34.7425975],[135.570127,34.7430647],[135.5726918,34.7450867],[135.5729528,34.7453044],[135.5730781,34.7454114],[135.5751429,34.7470112],[135.5753605,34.7471797],[135.5754405,34.7472417],[135.5758446,34.7475628],[135.5759278,34.747629],[135.577678,34.7490198],[135.578761,34.7498774]]}},{"type":"Feature","properties":{"name":"Osaka Metro中央線 (森ノ宮 => 夢洲)","name:en":"Osaka Municipal Subway Chūō Line (Morinomiya => Yumeshima)","colour":"#019A66","operator":"大阪市高速電気軌道"},"geometry":{"type":"LineString","coordinates":[[135.5910595,34.6787381],[135.588638,34.6787349],[135.5869325,34.6787618],[135.5860738,34.6787849],[135.5846852,34.6788097],[135.5843912,34.6788097],[135.5824395,34.6788419],[135.5809146,34.6788617],[135.5800397,34.6788954],[135.5793405,34.6789131],[135.577486,34.6789736],[135.575993,34.6789974],[135.5752606,34.678951],[135.5748897,34.6789018],[135.5744471,34.6788255],[135.5734394,34.6786397],[135.5727481,34.6785096],[135.5722328,34.6784163],[135.5719276,34.6783601],[135.5715436,34.6783153],[135.57087,34.678291],[135.569239,34.678302],[135.567039,34.678332],[135.564078,34.678409],[135.563436,34.678414],[135.563271,34.678415],[135.562731,34.678444],[135.562183,34.678503],[135.557835,34.679059],[135.5574489,34.6790916],[135.555868,34.679319],[135.553206,34.679664],[135.548608,34.680236],[135.5472047,34.6804342],[135.545739,34.6806358],[135.543359,34.680936],[135.542185,34.681089],[135.540944,34.681239],[135.540254,34.681323],[135.539481,34.681385],[135.5385757,34.6813838],[135.536539,34.6814009],[135.5359332,34.6814017],[135.534246,34.681453],[135.533397,34.681466],[135.5320332,34.6814583],[135.528627,34.681516],[135.527549,34.681487],[135.527018,34.681465],[135.526134,34.681429],[135.523218,34.681357],[135.522917,34.68132],[135.520955,34.681276],[135.520124,34.681293],[135.519877,34.681298],[135.5197901,34.6813012],[135.5196795,34.6813053],[135.519284,34.68132],[135.517465,34.6814302],[135.517181,34.681466],[135.515462,34.6815568],[135.511365,34.68176],[135.509856,34.681816],[135.5069325,34.6818551],[135.5060093,34.6818825],[135.5005608,34.6819939],[135.4987211,34.681998],[135.4981968,34.6820011],[135.4975559,34.682005],[135.4971827,34.6819805],[135.4966208,34.6819462],[135.495908,34.681893],[135.495424,34.681854],[135.491212,34.681565],[135.4890652,34.681409],[135.4889996,34.6814042],[135.4885618,34.6813724],[135.4884977,34.6813678],[135.4880951,34.6813385],[135.4871887,34.6812824],[135.4867158,34.6812374],[135.4862825,34.6811679],[135.485693,34.6810596],[135.4848104,34.6808904],[135.4842546,34.6807798],[135.4838376,34.6806878],[135.4796783,34.6796779],[135.4795368,34.6796364],[135.4793288,34.6795734],[135.4791147,34.6794897],[135.4788917,34.6793891],[135.4786832,34.6792774],[135.4785661,34.6792025],[135.4784199,34.6791004],[135.4782788,34.6789972],[135.4777718,34.6785999],[135.4774606,34.6783495],[135.4762263,34.6773809],[135.4753112,34.6766557],[135.4743956,34.6759366],[135.4735453,34.6752934],[135.4727881,34.6747663],[135.4720846,34.6743101],[135.4713785,34.6738587],[135.4702714,34.6731629],[135.4694862,34.6726486],[135.4693126,34.6725305],[135.4691402,34.6724086],[135.4688936,34.6722143],[135.4686647,34.6720075],[135.4681149,34.6715214],[135.4671175,34.6706488],[135.466848,34.6704238],[135.4667004,34.670315],[135.4665546,34.670207],[135.4662715,34.6700308],[135.4660544,34.6699053],[135.4657473,34.6697554],[135.4654274,34.6696191],[135.463833,34.6690135],[135.4631407,34.6687567],[135.4621007,34.6684026],[135.4614665,34.6681879],[135.459693,34.6675827],[135.458643,34.6672335],[135.4522318,34.6650625],[135.4519684,34.6649668],[135.4517905,34.6648961],[135.4516877,34.6648497],[135.4515731,34.6647902],[135.4514736,34.664727],[135.4513893,34.6646693],[135.4513431,34.6646287],[135.4512977,34.6645899],[135.451243,34.6645397],[135.4511637,34.664461],[135.4511072,34.6643957],[135.4510533,34.6643247],[135.4510017,34.664249],[135.4509486,34.6641673],[135.4497539,34.6622874],[135.4494541,34.6618259],[135.4492065,34.6614336],[135.4488366,34.6608536],[135.4484594,34.6602657],[135.4482727,34.6599781],[135.4481634,34.6598195],[135.4480522,34.6596732],[135.4479528,34.6595541],[135.4478199,34.6594235],[135.447675,34.6592918],[135.4475134,34.6591642],[135.4473716,34.6590637],[135.4472416,34.6589831],[135.4470954,34.6589002],[135.4469631,34.6588352],[135.4468034,34.6587624],[135.4462924,34.6585608],[135.4453547,34.6581889],[135.444606,34.6578961],[135.4439602,34.657642],[135.4428304,34.6571994],[135.4419324,34.6568476],[135.4408311,34.6564246],[135.4401693,34.6561581],[135.4387388,34.6556102],[135.4374528,34.6550963],[135.4356512,34.6543877],[135.4355242,34.6543386],[135.4353517,34.6542699],[135.4350437,34.6541234],[135.4344367,34.6538844],[135.4338469,34.6536491],[135.4334244,34.6534816],[135.4331372,34.6533744],[135.432641,34.6531932],[135.4324329,34.6531164],[135.4322141,34.6530349],[135.4305991,34.6523974],[135.428646,34.6516356],[135.4283945,34.6515349],[135.4279901,34.6513501],[135.4278311,34.6512638],[135.4275323,34.6510846],[135.426064,34.6501413],[135.4172123,34.6445355],[135.4167948,34.6442965],[135.4161443,34.6439975],[135.4158041,34.6438684],[135.414756,34.643503],[135.41404,34.643227],[135.4129353,34.6428249],[135.4126242,34.6427072],[135.412233,34.6425613],[135.4118418,34.6424153],[135.4111496,34.6421842],[135.4108392,34.6420779],[135.4099906,34.6417726],[135.4082001,34.641141],[135.4079497,34.6410447],[135.4077107,34.640943],[135.4075269,34.640844],[135.4073399,34.6407303],[135.4071317,34.6405871],[135.4069025,34.6404052],[135.4060536,34.6397496],[135.4058601,34.6396198],[135.4056405,34.6394847],[135.405434,34.6393696],[135.405234,34.6392693],[135.4050079,34.6391689],[135.404751,34.6390739],[135.4044859,34.6389897],[135.404242,34.6389228],[135.4040111,34.6388706],[135.4037542,34.6388251],[135.4034533,34.6387863],[135.4031769,34.6387649],[135.4029248,34.6387569],[135.4026809,34.6387582],[135.4024223,34.6387729],[135.4021735,34.638797],[135.4019214,34.6388345],[135.4016401,34.6388853],[135.4013702,34.6389495],[135.4011148,34.6390244],[135.4009067,34.6390954],[135.4006449,34.639201],[135.4004205,34.6393027],[135.4001879,34.6394245],[135.3999554,34.6395623],[135.3997302,34.6397016],[135.3921163,34.6448316],[135.3917987,34.6450329],[135.3915372,34.6452035],[135.3912234,34.6454017],[135.3902501,34.6460533],[135.3900409,34.6462039],[135.3898205,34.6463776],[135.389643,34.6465328],[135.3894581,34.6467279],[135.3893105,34.6468893],[135.3891405,34.6471213],[135.3890247,34.6472965],[135.3889089,34.6475101],[135.3888155,34.6477145],[135.3887445,34.6478928],[135.388696,34.6480526],[135.3882663,34.649743],[135.3882308,34.6499182],[135.3882177,34.6500872],[135.3882271,34.6502578],[135.3882588,34.6504191],[135.3883074,34.6505728],[135.3883784,34.6507219],[135.3884746,34.6508689],[135.3886298,34.6510583],[135.3887587,34.6511911],[135.3889006,34.6513352],[135.3889892,34.6514228],[135.389216,34.6516533],[135.3896052,34.6520476],[135.3898897,34.6523908],[135.3901004,34.6526132],[135.3904761,34.6529931]]}},{"type":"Feature","properties":{"name":"Osaka Metro中央線 (夢洲 => 森ノ宮)","name:en":"Osaka Municipal Subway Chūō Line (Yumeshima => Morinomiya)","colour":"#019A66","operator":"大阪市高速電気軌道"},"geometry":{"type":"LineString","coordinates":[[135.3905899,34.6529239],[135.3902098,34.6525407],[135.3899918,34.6523222],[135.3896383,34.6520205],[135.3893936,34.6517692],[135.3892626,34.651628],[135.3891233,34.6514698],[135.3887495,34.6510181],[135.3886173,34.650839],[135.3885214,34.6506812],[135.3884523,34.6505213],[135.3884056,34.6503692],[135.3883776,34.6502232],[135.3883645,34.6500803],[135.3883683,34.6499282],[135.3883888,34.6497638],[135.388428,34.6495855],[135.3887946,34.6481451],[135.3888513,34.6479484],[135.3889326,34.6477477],[135.38904,34.6475326],[135.3891452,34.647342],[135.3892482,34.6471813],[135.3893876,34.6469854],[135.3895228,34.6468283],[135.3896623,34.6466818],[135.3898554,34.6464964],[135.3900442,34.6463376],[135.3902631,34.6461734],[135.3913532,34.6454373],[135.391675,34.6452095],[135.3919647,34.6449977],[135.3924049,34.6446932],[135.3997753,34.6397263],[135.4000688,34.6395459],[135.4003079,34.6394121],[135.4005567,34.6392904],[135.400799,34.6391873],[135.4010494,34.6390937],[135.4013047,34.6390161],[135.401591,34.6389425],[135.4018463,34.638889],[135.4021211,34.6388462],[135.402391,34.6388194],[135.4026984,34.6388034],[135.4029553,34.6388007],[135.4032415,34.6388114],[135.4035245,34.6388381],[135.4038058,34.6388769],[135.4040709,34.6389264],[135.4043376,34.638992],[135.4046108,34.6390763],[135.4048775,34.6391686],[135.4051328,34.6392757],[135.4053605,34.639384],[135.4055963,34.6395125],[135.4058288,34.639657],[135.4060418,34.6398055],[135.406237,34.6399526],[135.4072046,34.6406965],[135.4074127,34.6408477],[135.407616,34.6409788],[135.4078388,34.6410988],[135.4080713,34.6412005],[135.408312,34.6412942],[135.4095568,34.6417359],[135.4099254,34.6418723],[135.4114766,34.6424294],[135.4121727,34.6426716],[135.4125611,34.6428112],[135.4134084,34.643109],[135.4136894,34.6432026],[135.4140025,34.6433002],[135.4147398,34.6435401],[135.4157758,34.6439067],[135.4161094,34.6440372],[135.4167694,34.6443376],[135.4171779,34.6445717],[135.4260309,34.6501754],[135.427501,34.651114],[135.4278043,34.6512911],[135.4279718,34.6513819],[135.428373,34.6515713],[135.4286283,34.6516739],[135.4305764,34.6524378],[135.432191,34.6530721],[135.4326102,34.6532477],[135.4330976,34.6534516],[135.4335608,34.6536346],[135.4338013,34.6537287],[135.4344007,34.6539654],[135.4350006,34.6541947],[135.435149,34.6542414],[135.4353755,34.6543164],[135.4356148,34.6544129],[135.435784,34.6544766],[135.437418,34.6551186],[135.4387217,34.655641],[135.4401548,34.6561895],[135.4408243,34.6564573],[135.4419181,34.6568763],[135.4428124,34.6572296],[135.4439444,34.6576741],[135.4445971,34.6579307],[135.4453365,34.6582192],[135.446275,34.6585878],[135.4467882,34.6587956],[135.4469397,34.6588664],[135.4470718,34.658931],[135.4472167,34.6590091],[135.4473473,34.6590922],[135.4474876,34.659191],[135.4476366,34.6593111],[135.4476476,34.659318],[135.4477853,34.6594471],[135.447928,34.6595774],[135.4480194,34.6596881],[135.4481295,34.6598366],[135.4482362,34.6599922],[135.4484234,34.6602813],[135.448799,34.66087],[135.44917,34.6614505],[135.4494044,34.6618211],[135.4497189,34.6623014],[135.4509138,34.6641828],[135.4509639,34.6642645],[135.4510178,34.6643422],[135.4510721,34.6644131],[135.4511295,34.664481],[135.4512094,34.6645626],[135.451264,34.6646147],[135.4513114,34.6646556],[135.4513618,34.6646948],[135.4514446,34.6647551],[135.4515486,34.6648194],[135.4516636,34.6648806],[135.4517709,34.6649289],[135.4519524,34.6649979],[135.4522208,34.6650907],[135.4586318,34.6672574],[135.4596739,34.6676163],[135.4614496,34.6682177],[135.4620861,34.6684336],[135.4631261,34.6687876],[135.4638189,34.6690418],[135.465412,34.6696436],[135.4657354,34.6697799],[135.4660349,34.6699313],[135.4662497,34.6700575],[135.4665293,34.6702348],[135.4666785,34.6703406],[135.4668208,34.6704494],[135.4670822,34.6706682],[135.4680878,34.6715455],[135.4686405,34.672023],[135.4688754,34.672229],[135.469121,34.672426],[135.4692931,34.6725488],[135.4694699,34.6726688],[135.4702593,34.6731756],[135.4713622,34.6738788],[135.4720634,34.6743387],[135.4727684,34.6747939],[135.473524,34.675318],[135.4743645,34.6759631],[135.4752827,34.6766852],[135.4762019,34.6774022],[135.4774314,34.6783761],[135.4777438,34.6786246],[135.4782549,34.679024],[135.4783951,34.679129],[135.4785429,34.6792294],[135.4786618,34.679305],[135.4788699,34.6794172],[135.4790969,34.6795219],[135.4793101,34.679602],[135.4795232,34.6796693],[135.4796675,34.6797092],[135.4838283,34.6807236],[135.4842424,34.680819],[135.4848029,34.680933],[135.485681,34.6810999],[135.4862742,34.6812113],[135.4867085,34.6812775],[135.4871848,34.6813227],[135.488091,34.6813788],[135.4886233,34.6814175],[135.4889046,34.6814379],[135.4898402,34.6815059],[135.4912079,34.6816053],[135.4923651,34.6816847],[135.4954196,34.6818943],[135.4959034,34.6819332],[135.4966168,34.6819865],[135.4971789,34.6820208],[135.4975527,34.6820453],[135.49872,34.6820385],[135.5005376,34.6820314],[135.5060053,34.6819293],[135.5069338,34.6818955],[135.5098579,34.6818564],[135.5113676,34.6818004],[135.5153379,34.6816037],[135.5171854,34.6815063],[135.5174698,34.6814704],[135.5192871,34.6813603],[135.5198787,34.6813384],[135.5201252,34.6813334],[135.5203767,34.6813282],[135.5209549,34.6813164],[135.5229127,34.6813603],[135.5232136,34.6813973],[135.526132,34.6814694],[135.5270155,34.6815054],[135.527547,34.6815274],[135.5286265,34.6815564],[135.5320338,34.6814987]]}}]}