{"type":"FeatureCollection","features":[{"type":"Feature","properties":{"name":"第六台場","name:en":"Daiba 6","kind":"coast"},"geometry":{"type":"Polygon","coordinates":[[[139.7661285,35.6343826],[139.7660655,35.6343488],[139.7659877,35.6342802],[139.7658704,35.6341744],[139.765856,35.6341537],[139.7656729,35.6336736],[139.7655562,35.6334008],[139.7655063,35.6332278],[139.7655063,35.6331896],[139.7655257,35.6331537],[139.7655847,35.6331297],[139.7664779,35.6329329],[139.7665222,35.6329193],[139.7665564,35.632916],[139.7665852,35.6329231],[139.7672189,35.6331847],[139.7672443,35.6331978],[139.7672624,35.6332142],[139.7672752,35.6332425],[139.7674556,35.633685],[139.767467,35.6337014],[139.7675454,35.6337755],[139.7675709,35.6338147],[139.7675984,35.6339434],[139.7676011,35.6340371],[139.7675716,35.634108],[139.7675072,35.6341472],[139.7674147,35.6341755],[139.7673027,35.6341875],[139.7670593,35.6342126],[139.7669845,35.6342216],[139.766372,35.6343761],[139.7662727,35.6343957],[139.7662191,35.6344023],[139.7661285,35.6343826]]]}},{"type":"Feature","properties":{"name":"","name:en":"","kind":"coast"},"geometry":{"type":"LineString","coordinates":[[139.91003,35.62445],[139.91925,35.629453]]}},{"type":"Feature","properties":{"name":"","name:en":"","kind":"coast"},"geometry":{"type":"LineString","coordinates":[[139.926164,35.6332735],[139.9367335,35.6390287],[139.9394508,35.6405154],[139.9395137,35.6410844],[139.9391077,35.6414053],[139.939126,35.641423],[139.9378189,35.6424638],[139.9368058,35.6432692],[139.9366108,35.6433959],[139.9337294,35.6452728],[139.926969,35.649588]]}},{"type":"Feature","properties":{"name":"","name:en":"","kind":"coast"},"geometry":{"type":"LineString","coordinates":[[139.9475883,35.6695236],[139.9476504,35.6695413],[139.9459122,35.6726488],[139.9450691,35.6729571],[139.9298474,35.6694398],[139.928939,35.6702778]]}},{"type":"Feature","properties":{"name":"","name:en":"","kind":"coast"},"geometry":{"type":"LineString","coordinates":[[139.933986,35.6668769],[139.9345483,35.6669402],[139.934563,35.6668524],[139.9355875,35.6669709],[139.9355758,35.6670612],[139.9359026,35.6670976],[139.9359305,35.666949],[139.9360102,35.666958],[139.9359832,35.6671361],[139.937185,35.6672639],[139.9372521,35.6668701],[139.938262,35.666979],[139.9382465,35.667112],[139.9382029,35.6671071],[139.9382137,35.6670095],[139.9379428,35.6669828],[139.9379434,35.666997],[139.9372829,35.6669235],[139.9372293,35.6672389],[139.937413,35.6672536],[139.9374539,35.667149],[139.937698,35.6671833],[139.9376846,35.667283],[139.9378911,35.6672999],[139.938158,35.6673369],[139.9381801,35.6672002],[139.9382257,35.6672035],[139.9381962,35.6673734],[139.9382708,35.6672927],[139.9409703,35.6676006],[139.9422202,35.6679623],[139.9448267,35.6686776],[139.9464353,35.6691198],[139.9464963,35.669169],[139.9476081,35.6694779],[139.9475883,35.6695236]]}},{"type":"Feature","properties":{"name":"","name:en":"","kind":"coast"},"geometry":{"type":"LineString","coordinates":[[139.924105,35.6625965],[139.9293937,35.6659266],[139.9294645,35.6658565],[139.9299331,35.6661542],[139.9299809,35.6661004],[139.9302974,35.6663052],[139.9302629,35.6663383],[139.9303985,35.6664379],[139.9303551,35.666481]]}},{"type":"Feature","properties":{"name":"","name:en":"","kind":"coast"},"geometry":{"type":"LineString","coordinates":[[139.91925,35.629453],[139.925435,35.6328754],[139.926164,35.6332735]]}},{"type":"Feature","properties":{"name":"","name:en":"","kind":"coast"},"geometry":{"type":"LineString","coordinates":[[139.9182931,35.6556298],[139.9195864,35.6581441],[139.9208036,35.6605284],[139.9225631,35.6616349],[139.924105,35.6625965]]}},{"type":"Feature","properties":{"name":"","name:en":"","kind":"coast"},"geometry":{"type":"LineString","coordinates":[[139.918329,35.6552571],[139.9181125,35.6554019],[139.9181621,35.6555229],[139.9182219,35.6556686],[139.9182931,35.6556298]]}},{"type":"Feature","properties":{"name":"","name:en":"","kind":"coast"},"geometry":{"type":"LineString","coordinates":[[139.9467682,35.6809288],[139.950012,35.676212],[139.95219,35.673063]]}},{"type":"Feature","properties":{"name":"","name:en":"","kind":"coast"},"geometry":{"type":"LineString","coordinates":[[139.8962082,35.6174071],[139.8975772,35.6166486],[139.8997724,35.6179259]]}},{"type":"Feature","properties":{"name":"","name:en":"","kind":"coast"},"geometry":{"type":"LineString","coordinates":[[139.926969,35.649588],[139.925365,35.65062],[139.923382,35.651953],[139.9190659,35.6547753],[139.918329,35.6552571]]}},{"type":"Feature","properties":{"name":"","name:en":"","kind":"coast"},"geometry":{"type":"LineString","coordinates":[[139.9403717,35.6760273],[139.9408044,35.6763473],[139.9407911,35.6763589],[139.9429261,35.6779131],[139.9448363,35.6794068],[139.9467407,35.6809111],[139.9467682,35.6809288]]}},{"type":"Feature","properties":{"name":"","name:en":"","kind":"coast"},"geometry":{"type":"LineString","coordinates":[[139.923769,35.6741544],[139.9237639,35.6741571],[139.9235894,35.6740324],[139.9235938,35.6740279],[139.9235738,35.6740109],[139.9236446,35.6739284],[139.9233948,35.6737362],[139.9227209,35.6732415],[139.9223028,35.6736309],[139.9224413,35.6737353],[139.9224113,35.6737607],[139.9224805,35.6738158],[139.922511,35.67379],[139.9227943,35.674006],[139.9227876,35.6740087],[139.9228828,35.6740814],[139.9228993,35.6740681],[139.9230998,35.6742201],[139.9230864,35.674232],[139.9231749,35.6742988],[139.9232014,35.6742813],[139.9232399,35.6743113],[139.9233271,35.6742457],[139.9233405,35.6742544],[139.9233509,35.6742451],[139.9235309,35.6743734],[139.92352,35.6743828],[139.9235413,35.6743995],[139.9234773,35.6744714],[139.9285832,35.6782397],[139.9287709,35.6780713],[139.9288051,35.6780972],[139.9288476,35.6780607],[139.9288916,35.678023],[139.9288497,35.6779894],[139.9290301,35.6778382],[139.9307218,35.6762873],[139.9307506,35.6759076],[139.9309109,35.6758158],[139.9319052,35.6750199]]}},{"type":"Feature","properties":{"name":"","name:en":"","kind":"coast"},"geometry":{"type":"LineString","coordinates":[[139.8997724,35.6179259],[139.9057662,35.6213905],[139.9057778,35.6213532],[139.9059021,35.6212468],[139.9059706,35.6212335],[139.9060456,35.6211742],[139.9061339,35.6212566],[139.906144,35.6212955],[139.9060176,35.621371],[139.9059847,35.6213332],[139.9058451,35.6214361],[139.9053238,35.6218508],[139.9068751,35.6231261],[139.9084596,35.6237915],[139.9099228,35.624405],[139.9100518,35.6242561],[139.9101266,35.6241796],[139.9102311,35.624189],[139.9102826,35.62423],[139.9102786,35.6242952],[139.9101766,35.6244087],[139.9101112,35.6243594],[139.91003,35.62445]]}},{"type":"Feature","properties":{"name":"","name:en":"","kind":"coast"},"geometry":{"type":"LineString","coordinates":[[139.9319052,35.6750199],[139.9321728,35.6750333],[139.9330911,35.6757323],[139.9338443,35.6750634],[139.9338174,35.675043],[139.9343247,35.6745922],[139.934349,35.6746103],[139.9352119,35.6738616],[139.9351772,35.6738357],[139.9357607,35.6733181],[139.9366567,35.6733008],[139.9382757,35.6744873],[139.9382479,35.6745139],[139.9383659,35.6746005],[139.9383853,35.6745831],[139.9403717,35.6760273]]}},{"type":"Feature","properties":{"name":"","name:en":"","kind":"coast"},"geometry":{"type":"LineString","coordinates":[[139.7708606,35.6330715],[139.7726627,35.6325696],[139.7732151,35.6339471],[139.7737209,35.6342303],[139.7747729,35.6348249],[139.7749201,35.6347636],[139.7751977,35.6346153],[139.775417,35.6344613],[139.7756757,35.6342348],[139.776333,35.6334725],[139.7767085,35.6329384],[139.7770452,35.6323839],[139.7772249,35.6319344],[139.7772452,35.6317192],[139.7772018,35.6316324],[139.7771344,35.6315015],[139.7770233,35.6313879],[139.7767715,35.6312812],[139.7764814,35.6311275],[139.7762833,35.6310405],[139.7759521,35.6308158],[139.7754558,35.6305789],[139.7744522,35.6298911],[139.774224,35.6297539],[139.7740443,35.6297439],[139.7740362,35.6298493],[139.7739745,35.6299218],[139.7739181,35.629894],[139.7739622,35.6298371],[139.7739873,35.6298499],[139.7739962,35.6298393],[139.774044,35.6293639],[139.7736269,35.6291403],[139.7736053,35.6291287],[139.7728539,35.6287198],[139.7721162,35.6282974],[139.7716947,35.6282617],[139.7714887,35.6282773],[139.7713234,35.6282908],[139.7713054,35.6281766],[139.7712329,35.6280319],[139.7708464,35.6276809],[139.7705175,35.6274291],[139.7702173,35.6273061],[139.7697896,35.6270313],[139.7695911,35.6269819],[139.7694446,35.6269214],[139.7693019,35.6267958],[139.7691305,35.6267119],[139.7690253,35.6266607],[139.7690305,35.6265975],[139.7687897,35.6264653]]}},{"type":"Feature","properties":{"name":"","name:en":"","kind":"coast"},"geometry":{"type":"LineString","coordinates":[[139.7852896,35.6251178],[139.7914827,35.6175015],[139.7944233,35.6138888],[139.7946482,35.6138271],[139.794758,35.6140366],[139.7947067,35.6144982],[139.7950549,35.6145129],[139.795229,35.6144443],[139.7957184,35.6153777],[139.7960474,35.6152674],[139.7961618,35.6154733],[139.79676,35.61664],[139.7970194,35.6171666],[139.7974323,35.6170424],[139.7979515,35.6177074],[139.796549,35.618969],[139.7967733,35.6191647],[139.7955382,35.6202521],[139.7957433,35.6204162],[139.793329,35.623309],[139.7898737,35.6276285]]}},{"type":"Feature","properties":{"name":"","name:en":"","kind":"coast"},"geometry":{"type":"LineString","coordinates":[[139.7948976,35.5321392],[139.8007308,35.5349184],[139.8007812,35.5348623],[139.8008635,35.534902],[139.8008918,35.5348633],[139.8009733,35.5349028],[139.8032246,35.5359688],[139.8031865,35.5360234],[139.8032342,35.5360443],[139.8032418,35.5361061],[139.8063773,35.5375874],[139.8071528,35.5375945],[139.8073092,35.5376054],[139.8074108,35.5376258],[139.8075374,35.5376757],[139.8076585,35.5377345],[139.8089959,35.5384684],[139.8091114,35.5385748],[139.8091448,35.5386292],[139.8091807,35.5387052],[139.8091908,35.5388127],[139.8091852,35.5389485],[139.8091574,35.5391252],[139.8086313,35.5400855],[139.8084198,35.5403709],[139.808275,35.5405023],[139.8081915,35.5405521],[139.808069,35.5405702],[139.8079076,35.54062],[139.807735,35.5406925],[139.8039572,35.5460285],[139.8021885,35.5474899],[139.8014787,35.5481576],[139.8012592,35.5483704],[139.8011825,35.5484637],[139.8011405,35.548553],[139.8011308,35.5486108],[139.801126,35.5486844],[139.8012801,35.5487908],[139.8012479,35.5488328],[139.8011768,35.5487986],[139.8011252,35.5488065],[139.8010251,35.5488354],[139.8008701,35.5489169],[139.8007732,35.5489983],[139.8006239,35.5491493],[139.7994192,35.5508327],[139.7993929,35.5509028],[139.7993962,35.5509462],[139.7994147,35.5509869],[139.7994567,35.5510263],[139.7996117,35.5511077],[139.7995729,35.5511734],[139.7995019,35.5511393],[139.7994309,35.5511445],[139.799334,35.5511629],[139.7992307,35.5512076],[139.7991403,35.5512811],[139.7989784,35.5514526],[139.798011,35.5528085],[139.7979198,35.5529741],[139.7978294,35.5531528],[139.7977523,35.5533346]]}},{"type":"Feature","properties":{"name":"","name:en":"","kind":"coast"},"geometry":{"type":"LineString","coordinates":[[139.8649472,35.6368089],[139.864466,35.6369767],[139.8639059,35.6371568],[139.8631466,35.6373017],[139.8622923,35.6373166],[139.8615641,35.6371934],[139.8612818,35.6371319],[139.8610101,35.6370365],[139.8608091,35.6369604],[139.8603879,35.6367642],[139.8599833,35.6364964],[139.8594634,35.6360293],[139.8579155,35.6342793],[139.8580517,35.6341772],[139.8596133,35.635916],[139.8600568,35.6363672],[139.8605408,35.6366447],[139.8607695,35.6367752],[139.861177,35.636938],[139.8615094,35.6367992],[139.8616872,35.6366688],[139.8616409,35.6365359],[139.8616098,35.6364022],[139.8616476,35.6362467],[139.8617218,35.6361645],[139.8618274,35.6360805],[139.8619837,35.6360062],[139.8621415,35.635983],[139.8623128,35.6360033],[139.8624097,35.6360489],[139.8625579,35.6359707],[139.8626712,35.6357738],[139.8625213,35.6356581],[139.8623487,35.6353691],[139.8624212,35.6352404],[139.8626759,35.6351271],[139.8631239,35.6350421],[139.8633788,35.6350617],[139.8635772,35.635223],[139.8634618,35.6353233],[139.863317,35.6353996],[139.8630354,35.6354431],[139.8631024,35.6355239],[139.8630514,35.6356089],[139.8632976,35.6356081],[139.8636211,35.6357444],[139.8638249,35.6359177],[139.8638911,35.6361207],[139.8640583,35.6362451],[139.8643487,35.6363476],[139.864406,35.6364655],[139.8644435,35.6367206],[139.8645053,35.6367402],[139.8645079,35.6365353],[139.8645428,35.6363652],[139.8647171,35.6362062],[139.8648513,35.6361015],[139.8649639,35.6360819],[139.8650739,35.6359729],[139.865182,35.6359293],[139.8652589,35.6358461],[139.8653367,35.6357963],[139.8654977,35.6357091],[139.8656076,35.6356917],[139.8657122,35.6355565],[139.8658571,35.6354802],[139.8660421,35.635417],[139.8661521,35.6353669],[139.8662272,35.6352557],[139.8662862,35.6351162],[139.866423,35.6350769],[139.8664874,35.6349461],[139.8665732,35.6348938],[139.8666986,35.6347879],[139.8668978,35.6346845],[139.8670909,35.6346365],[139.8673216,35.6346279]]}},{"type":"Feature","properties":{"name":"","name:en":"","kind":"coast"},"geometry":{"type":"LineString","coordinates":[[139.770237,35.6322792],[139.7701892,35.6323525],[139.770119,35.6323868],[139.7700876,35.6324083],[139.7700706,35.6324274],[139.7700193,35.6324589],[139.7699821,35.6324648],[139.7698981,35.6324469],[139.7698317,35.6324234],[139.7697892,35.6324001],[139.769752,35.6323653],[139.7697176,35.6323012],[139.7697031,35.6322741],[139.769665,35.6322347],[139.7691974,35.631637],[139.7680968,35.6302006],[139.7680824,35.630179],[139.7680784,35.6301359],[139.7680849,35.6301151],[139.7680955,35.6300979],[139.7684004,35.6299442],[139.7684474,35.6299363],[139.76849,35.6299321],[139.7685622,35.6299606],[139.7691448,35.6306954],[139.7691925,35.6307415],[139.7692534,35.6307774],[139.7692945,35.6308035],[139.769319,35.6308305],[139.7693363,35.6308761],[139.7693523,35.6309424],[139.7694001,35.6310224],[139.7694237,35.6310373],[139.7694901,35.6310634],[139.7695072,35.6310942],[139.7695371,35.6311453],[139.769575,35.631185],[139.7696276,35.6312129],[139.7696801,35.6312375],[139.769712,35.6312758],[139.7697232,35.6313658],[139.7697448,35.6314339],[139.7698218,35.6315247],[139.7699368,35.6316058],[139.7700671,35.6316807],[139.7701764,35.6317219],[139.7703509,35.6317698],[139.7704348,35.6316795],[139.7704614,35.6316869],[139.7702163,35.6319882],[139.7702511,35.6321357],[139.7702546,35.6322296],[139.770237,35.6322792]]}},{"type":"Feature","properties":{"name":"","name:en":"","kind":"coast"},"geometry":{"type":"LineString","coordinates":[[139.7534174,35.5622445],[139.7532383,35.5625061],[139.7531321,35.5626542],[139.7526821,35.5632146],[139.7527754,35.5632635],[139.7528825,35.5633125],[139.752964,35.563357],[139.752945,35.563396],[139.7529311,35.5634128],[139.7523877,35.5640359],[139.7514194,35.5651002],[139.7513165,35.565031],[139.7510819,35.5648734]]}},{"type":"Feature","properties":{"name":"","name:en":"","kind":"coast"},"geometry":{"type":"LineString","coordinates":[[139.7614759,35.614541],[139.760969,35.615084],[139.7605167,35.6147486],[139.7602723,35.6148577],[139.7605096,35.6150395],[139.7601435,35.6153553],[139.7598917,35.6151657],[139.7597929,35.6153879],[139.7603001,35.6157839]]}},{"type":"Feature","properties":{"name":"","name:en":"","kind":"coast"},"geometry":{"type":"LineString","coordinates":[[139.7843352,35.5824192],[139.7829792,35.5834069],[139.7833299,35.5837322],[139.7828982,35.584039],[139.7825506,35.5837231]]}},{"type":"Feature","properties":{"name":"","name:en":"","kind":"coast"},"geometry":{"type":"LineString","coordinates":[[139.8055919,35.5994055],[139.8063736,35.5984678],[139.8074349,35.5971438],[139.8056196,35.5961618],[139.8045225,35.5975253],[139.804295,35.597802],[139.8037799,35.5984205],[139.798596,35.5956139],[139.7985376,35.5955861],[139.7973736,35.5949547],[139.7970068,35.5947557],[139.7939208,35.5930718],[139.7938708,35.5931212],[139.793336,35.5928041],[139.793355,35.5927694],[139.794153,35.592296],[139.7940664,35.5922371],[139.7937449,35.5920204],[139.7941497,35.5916335],[139.7946427,35.5919767],[139.7964277,35.5909531],[139.7961394,35.5906392],[139.7982239,35.5894065],[139.8017734,35.5873016],[139.8020466,35.5876138],[139.8034577,35.5867706],[139.804102,35.586395],[139.8047928,35.5859802],[139.8047719,35.5859479],[139.805544,35.5854555],[139.8056425,35.5855472],[139.8058472,35.5854293],[139.8084756,35.5838607],[139.8134218,35.5787415],[139.8196478,35.5821315],[139.8197406,35.5821874],[139.832152,35.588921],[139.8320712,35.5890463],[139.8295771,35.5929102],[139.8269766,35.5969386],[139.826957,35.596969],[139.8269439,35.5969895],[139.822257,35.604357],[139.8203276,35.6073858],[139.8200979,35.6072753],[139.8055919,35.5994055]]}},{"type":"Feature","properties":{"name":"","name:en":"","kind":"coast"},"geometry":{"type":"LineString","coordinates":[[139.8499453,35.6384649],[139.8512371,35.6386031],[139.8522244,35.6385905],[139.8532231,35.6384648],[139.8540169,35.638354],[139.8547167,35.6382204],[139.8555743,35.6380587],[139.8561938,35.6379243],[139.8570761,35.6376258],[139.8577077,35.6372787],[139.8582161,35.6368782],[139.858615,35.6363667]]}},{"type":"Feature","properties":{"name":"","name:en":"","kind":"coast"},"geometry":{"type":"LineString","coordinates":[[139.7584115,35.5684178],[139.7644284,35.565475],[139.7651168,35.5651327],[139.7656125,35.5648861],[139.7658591,35.565183],[139.7736553,35.574588],[139.7735176,35.5748784]]}},{"type":"Feature","properties":{"name":"","name:en":"","kind":"coast"},"geometry":{"type":"LineString","coordinates":[[139.7977523,35.5533346],[139.7979779,35.5534654],[139.7979424,35.5535074],[139.7977971,35.5534286],[139.7977002,35.5534601],[139.7975485,35.5535652],[139.7973979,35.5537071],[139.7967521,35.5546497],[139.796401,35.555289],[139.7962501,35.5554893],[139.7962081,35.5556338],[139.7961982,35.5557254],[139.7963793,35.5558334],[139.7963405,35.5558886],[139.796121,35.555773],[139.7960532,35.5557861],[139.7959466,35.5558413],[139.7958562,35.555907],[139.7957561,35.5559936],[139.7956686,35.5560875],[139.7953995,35.5564833],[139.7950862,35.5569787],[139.7949376,35.5572203],[139.7948343,35.5574147],[139.7946699,35.5576713],[139.7945905,35.5578061],[139.7945292,35.55799],[139.7945195,35.5580924],[139.7946583,35.5581554],[139.7946261,35.5582106],[139.7943871,35.5580977],[139.7941966,35.558208],[139.7940239,35.558447],[139.7935254,35.5591364],[139.7930949,35.5600672],[139.793002,35.5602],[139.7928228,35.5604694],[139.7926121,35.5603674],[139.7921576,35.5610153]]}},{"type":"Feature","properties":{"name":"","name:en":"","kind":"coast"},"geometry":{"type":"LineString","coordinates":[[139.7921576,35.5610153],[139.7919639,35.5613153],[139.7918106,35.5616121],[139.7916671,35.5619232],[139.7915126,35.5622183],[139.7913295,35.5626469],[139.7913011,35.562783],[139.7913977,35.5628492],[139.7913428,35.5628991],[139.7911238,35.5627819],[139.7908229,35.5629558],[139.7901504,35.5639159],[139.7899573,35.564363],[139.7896441,35.5651882],[139.7894735,35.5651396],[139.7893868,35.5651422],[139.7892567,35.5651903],[139.7891275,35.5652577],[139.7890064,35.565326],[139.7877976,35.5670446],[139.7877633,35.5671041],[139.7877415,35.5671632],[139.7877189,35.5672367],[139.787683,35.5675601],[139.7879538,35.5676897],[139.7879199,35.5677396],[139.7876067,35.5675991],[139.7875567,35.5675991],[139.7875127,35.5676129],[139.7874816,35.567628],[139.787417,35.5676674],[139.7873202,35.5677383],[139.7872095,35.5678799],[139.7867694,35.5685237],[139.7866126,35.568894]]}},{"type":"Feature","properties":{"name":"","name:en":"","kind":"coast"},"geometry":{"type":"LineString","coordinates":[[139.8723965,35.6373182],[139.8740464,35.6357033],[139.872433,35.632961],[139.872483,35.630808],[139.872606,35.62546],[139.876942,35.624459],[139.8883308,35.6218872],[139.8926179,35.6254733],[139.8926811,35.6254806],[139.8927342,35.625486],[139.8928423,35.6254886],[139.8928718,35.6254833],[139.8929518,35.6254169],[139.8935509,35.6249203],[139.8962082,35.6174071]]}},{"type":"Feature","properties":{"name":"","name:en":"","kind":"coast"},"geometry":{"type":"LineString","coordinates":[[139.7687897,35.6264653],[139.76762,35.6258276],[139.7676018,35.6258038],[139.7675934,35.6257725],[139.7676595,35.6220729],[139.7681673,35.6214991],[139.7684684,35.6217151],[139.7687701,35.6214587],[139.7684367,35.6211957],[139.7706187,35.618728],[139.7720659,35.6195101]]}},{"type":"Feature","properties":{"name":"","name:en":"","kind":"coast"},"geometry":{"type":"LineString","coordinates":[[139.7866126,35.568894],[139.7864666,35.5694021],[139.7863745,35.5697567],[139.7863681,35.5698433],[139.7864488,35.5699037],[139.7863985,35.5699614],[139.7861175,35.5698006],[139.785881,35.5699083],[139.7854266,35.5705443]]}},{"type":"Feature","properties":{"name":"","name:en":"","kind":"coast"},"geometry":{"type":"LineString","coordinates":[[139.8555104,35.6387239],[139.8553482,35.638992],[139.8550987,35.6392231],[139.854797,35.6393855],[139.8526029,35.6402432],[139.8522677,35.6403762],[139.8518962,35.6404405],[139.8515823,35.6404481],[139.8511787,35.640386],[139.8508702,35.6403032],[139.8505698,35.6401561],[139.8504086,35.6400667],[139.8503029,35.6399969],[139.8501409,35.6398028],[139.8501163,35.6397804],[139.8499616,35.6395682],[139.8498514,35.6393932],[139.8497814,35.6392023],[139.8497251,35.638462]]}},{"type":"Feature","properties":{"name":"","name:en":"","kind":"coast"},"geometry":{"type":"LineString","coordinates":[[139.8673216,35.6346279],[139.8671633,35.6341875],[139.8664391,35.6331062],[139.8663184,35.632958],[139.8661643,35.6328739],[139.8661467,35.6328643],[139.8660046,35.6328119],[139.865871,35.6327433],[139.8658788,35.6326426],[139.8660609,35.6326789],[139.8661977,35.6327291],[139.8663747,35.6328337],[139.8664981,35.6329711],[139.8674074,35.6341657],[139.8675817,35.6346453],[139.8675737,35.6350333],[139.8674825,35.6352753],[139.8673971,35.6354042],[139.867323,35.635516],[139.866862,35.635818],[139.866182,35.6362],[139.8654957,35.6365739],[139.8649472,35.6368089]]}},{"type":"Feature","properties":{"name":"","name:en":"","kind":"coast"},"geometry":{"type":"LineString","coordinates":[[139.807034,35.611232],[139.798956,35.606846],[139.798868,35.606954],[139.798499,35.60678],[139.798107,35.606225],[139.79773,35.605692],[139.797882,35.605611],[139.7961997,35.6033839],[139.7949944,35.6017883],[139.7952136,35.6015016],[139.7944776,35.6010978],[139.7944099,35.600999],[139.7941303,35.6011362],[139.7926955,35.5992066],[139.7911491,35.5971261],[139.7914186,35.5969892],[139.7902697,35.5954508],[139.7915004,35.5939476],[139.7915629,35.5939129],[139.7915998,35.5939486],[139.7940751,35.5952902],[139.8015707,35.5993615],[139.8032264,35.6002596],[139.8033467,35.6003255],[139.8050772,35.6012615],[139.8053139,35.6013875],[139.8086684,35.6031674],[139.8124831,35.6051915],[139.812616,35.605262],[139.8190281,35.6088347],[139.8190152,35.6088412],[139.8152518,35.6107705],[139.810581,35.613158],[139.807034,35.611232]]}},{"type":"Feature","properties":{"name":"","name:en":"","kind":"coast"},"geometry":{"type":"LineString","coordinates":[[139.8401232,35.6321673],[139.8395164,35.6321122],[139.8393626,35.6319993],[139.8391224,35.6319774],[139.8391386,35.6318592],[139.8391405,35.6318464],[139.8391746,35.6315846],[139.8391768,35.6315697],[139.839216,35.6312691],[139.8392,35.6312676],[139.838956,35.6312452],[139.8389427,35.631244],[139.8388084,35.6312317],[139.8388285,35.6310617],[139.8385053,35.6310398],[139.8384659,35.6311696],[139.8371267,35.6310586],[139.8370275,35.6317782],[139.8363922,35.6317155],[139.8360346,35.6316812],[139.8358875,35.6316671],[139.8258515,35.6307042],[139.8274155,35.6197958],[139.829414,35.6199849],[139.8317072,35.6212375],[139.832929,35.6197383],[139.8307793,35.6185675],[139.8306335,35.6184881],[139.8312448,35.6177411],[139.8324164,35.6163009],[139.8324447,35.6162662],[139.8324861,35.6162154],[139.8355254,35.6124868],[139.8386171,35.6141472]]}},{"type":"Feature","properties":{"name":"","name:en":"","kind":"coast"},"geometry":{"type":"LineString","coordinates":[[139.8229543,35.6416775],[139.8223067,35.6410113],[139.8220325,35.6407292],[139.820434,35.6390846],[139.8201038,35.6390518],[139.8201105,35.6389975],[139.8201455,35.6390014],[139.8201408,35.6390271],[139.8204378,35.6390569],[139.8205869,35.638047],[139.8205937,35.6379959],[139.8211588,35.6340577],[139.8255564,35.6344795],[139.8251302,35.6374664],[139.8327789,35.6381922],[139.8329657,35.6403522],[139.8247875,35.6395822],[139.8261653,35.6426367],[139.826134,35.642859],[139.8260988,35.6428566],[139.8261288,35.6426351],[139.8242127,35.642452],[139.822865,35.6423232],[139.8229543,35.6416775]]}},{"type":"Feature","properties":{"name":"","name:en":"","kind":"coast"},"geometry":{"type":"LineString","coordinates":[[139.8070071,35.5310844],[139.8072411,35.5308825],[139.8071051,35.5307566],[139.806527,35.531191],[139.8064825,35.5312545],[139.8064532,35.5312413],[139.8063778,35.5312056],[139.806167,35.5311078],[139.805557,35.5308197],[139.8052022,35.5306522],[139.8046109,35.5303694],[139.8043893,35.5302631],[139.8043513,35.5302448],[139.8042898,35.5302153],[139.8044261,35.5300216],[139.8043891,35.5296715],[139.8006213,35.5263147],[139.8006622,35.5262802],[139.8006699,35.5258616],[139.8004535,35.5256647],[139.8018052,35.5246542],[139.7998552,35.5229181],[139.8024582,35.5209727],[139.8107005,35.5282989],[139.8109692,35.5280892],[139.8261436,35.541583],[139.8230612,35.543876],[139.8197508,35.54245],[139.8149812,35.5381769],[139.8118287,35.5353907],[139.8070071,35.5310844]]}},{"type":"Feature","properties":{"name":"","name:en":"","kind":"coast"},"geometry":{"type":"LineString","coordinates":[[139.8497251,35.638462],[139.8495199,35.6357644],[139.8496186,35.6356991],[139.8497567,35.6357787],[139.8499453,35.6384649]]}},{"type":"Feature","properties":{"name":"","name:en":"","kind":"coast"},"geometry":{"type":"LineString","coordinates":[[139.7854266,35.5705443],[139.7710199,35.5689717]]}},{"type":"Feature","properties":{"name":"","name:en":"","kind":"coast"},"geometry":{"type":"LineString","coordinates":[[139.7848868,35.577381],[139.7848036,35.5774479],[139.78476,35.5775655],[139.7848038,35.5777793],[139.7851856,35.5782779],[139.7855277,35.5786726],[139.7859442,35.5790703],[139.7863512,35.5794183],[139.7866014,35.5796189],[139.7867605,35.5796798],[139.7870291,35.5797204],[139.787218,35.5796968],[139.7872841,35.5796276]]}},{"type":"Feature","properties":{"name":"","name:en":"","kind":"coast"},"geometry":{"type":"LineString","coordinates":[[139.8589588,35.6365409],[139.8590382,35.6367141],[139.8590746,35.6368946],[139.8590322,35.6371681],[139.8589752,35.6374119],[139.858854,35.6376152],[139.8587197,35.6377567],[139.8585451,35.6378994],[139.8583287,35.6380205],[139.857978,35.638151],[139.8568851,35.6384397],[139.8564865,35.6385263],[139.8559856,35.638564],[139.8559558,35.6385687],[139.8558406,35.638587],[139.8557201,35.6386109],[139.8557147,35.6386119],[139.8556304,35.638636],[139.855563,35.6386682],[139.8555104,35.6387239]]}},{"type":"Feature","properties":{"name":"","name:en":"","kind":"coast"},"geometry":{"type":"LineString","coordinates":[[139.7710199,35.5689717],[139.7709699,35.5689128]]}},{"type":"Feature","properties":{"name":"","name:en":"","kind":"coast"},"geometry":{"type":"LineString","coordinates":[[139.7771436,35.6136186],[139.783031,35.606409],[139.7867391,35.6018351],[139.7869223,35.6019248],[139.7870276,35.6020651],[139.7897386,35.6057034],[139.79036,35.606507],[139.7901284,35.6068052],[139.7901991,35.606843],[139.790229,35.6068037],[139.7906044,35.6070097],[139.790576,35.6070443],[139.7906085,35.6070614],[139.7907702,35.6071481],[139.7908549,35.6071933],[139.7920733,35.6088176],[139.7926318,35.6095711],[139.790354,35.6123835],[139.7816276,35.6231037]]}},{"type":"Feature","properties":{"name":"","name:en":"","kind":"coast"},"geometry":{"type":"LineString","coordinates":[[139.8260727,35.6432614],[139.8316161,35.6437916],[139.8325724,35.6438831],[139.8328896,35.6439134],[139.833713,35.6439921],[139.8344868,35.6440661],[139.8336765,35.6346362],[139.82125,35.6334427]]}},{"type":"Feature","properties":{"name":"","name:en":"","kind":"coast"},"geometry":{"type":"LineString","coordinates":[[139.7526285,35.6344231],[139.7526508,35.6351585],[139.7527837,35.6354135],[139.752983,35.6353555],[139.7530199,35.6353635]]}},{"type":"Feature","properties":{"name":"","name:en":"","kind":"coast"},"geometry":{"type":"LineString","coordinates":[[139.8013598,35.6363529],[139.8069899,35.6368993],[139.8068315,35.6379754],[139.8068796,35.6379762],[139.8065359,35.6403377],[139.8073103,35.6403938]]}},{"type":"Feature","properties":{"name":"","name:en":"","kind":"coast"},"geometry":{"type":"LineString","coordinates":[[139.7597527,35.6193524],[139.7594974,35.6260545]]}},{"type":"Feature","properties":{"name":"","name:en":"","kind":"coast"},"geometry":{"type":"LineString","coordinates":[[139.8081222,35.6404524],[139.8204245,35.6416284],[139.821664,35.6429495]]}},{"type":"Feature","properties":{"name":"","name:en":"","kind":"coast"},"geometry":{"type":"LineString","coordinates":[[139.7774757,35.6137959],[139.7771436,35.6136186]]}},{"type":"Feature","properties":{"name":"","name:en":"","kind":"coast"},"geometry":{"type":"LineString","coordinates":[[139.7962889,35.6246267],[139.798588,35.621805],[139.798839,35.62177],[139.802207,35.626197]]}},{"type":"Feature","properties":{"name":"","name:en":"","kind":"coast"},"geometry":{"type":"LineString","coordinates":[[139.7637889,35.5604539],[139.763094,35.560704]]}},{"type":"Feature","properties":{"name":"","name:en":"","kind":"coast"},"geometry":{"type":"LineString","coordinates":[[139.7907803,35.6556549],[139.7908708,35.6555401],[139.7907898,35.6555009],[139.7907987,35.6554283],[139.7909545,35.6551901],[139.790839,35.655111],[139.7908537,35.6549581],[139.7908993,35.654903],[139.7910715,35.6549924],[139.7910655,35.6550009],[139.7916558,35.6552891],[139.791839,35.6552691],[139.7918888,35.6551938],[139.791816,35.6550475],[139.7916234,35.6549541],[139.7916185,35.6549611],[139.791253,35.6547867],[139.7912451,35.6547986],[139.7910464,35.6547089],[139.7910295,35.6547319],[139.7910153,35.6547268],[139.7909057,35.6546413],[139.7909375,35.6543852],[139.7924123,35.6529305],[139.7896821,35.6510787],[139.7893383,35.6511112],[139.7868918,35.6494538],[139.7866008,35.6494947],[139.7761234,35.6424117],[139.7760898,35.6420273],[139.7787551,35.6393922],[139.7787575,35.6393357],[139.7787365,35.6384977],[139.7787103,35.6374558],[139.7786608,35.6374054],[139.7786342,35.6373649],[139.7786179,35.6373137],[139.7765381,35.6362487]]}},{"type":"Feature","properties":{"name":"","name:en":"","kind":"coast"},"geometry":{"type":"LineString","coordinates":[[139.772867,35.59549],[139.7732009,35.5956762],[139.7634839,35.6087025],[139.763655,35.6087955],[139.7638834,35.6089104],[139.7636563,35.6095729],[139.7619536,35.614653],[139.7614759,35.614541]]}},{"type":"Feature","properties":{"name":"","name:en":"","kind":"coast"},"geometry":{"type":"LineString","coordinates":[[139.7898737,35.6276285],[139.7926093,35.6291218],[139.7962889,35.6246267]]}},{"type":"Feature","properties":{"name":"","name:en":"","kind":"coast"},"geometry":{"type":"LineString","coordinates":[[139.802207,35.626197],[139.8007081,35.6301136],[139.8006886,35.6301622],[139.8005436,35.6305375],[139.8005128,35.6306204],[139.8003396,35.6310771]]}},{"type":"Feature","properties":{"name":"","name:en":"","kind":"coast"},"geometry":{"type":"LineString","coordinates":[[139.7677828,35.629717],[139.76772,35.6297139],[139.7676713,35.6296777],[139.7659931,35.6275584],[139.765967,35.6273958],[139.7660731,35.6272785],[139.7662619,35.6272253],[139.7664599,35.6272636],[139.766705,35.6275495],[139.766963,35.6274129],[139.7670627,35.6275394],[139.7675705,35.6272589],[139.7676316,35.6273354],[139.7668402,35.6277517],[139.7680451,35.6292997],[139.7681504,35.6293288],[139.7681811,35.6293354],[139.7682243,35.6294051],[139.7682066,35.6294656],[139.7681846,35.6294907],[139.7681481,35.6295239],[139.7677828,35.629717]]}},{"type":"Feature","properties":{"name":"","name:en":"","kind":"coast"},"geometry":{"type":"LineString","coordinates":[[139.763094,35.560704],[139.7610193,35.5631556],[139.7594562,35.5639309],[139.7585902,35.5643572],[139.7556474,35.5627365],[139.7552637,35.5615803],[139.7549197,35.5615581],[139.7547476,35.5617779],[139.7541809,35.561632],[139.7534174,35.5622445]]}},{"type":"Feature","properties":{"name":"","name:en":"","kind":"coast"},"geometry":{"type":"LineString","coordinates":[[139.7945795,35.5166424],[139.7946403,35.5167164],[139.7946667,35.5167015],[139.7948343,35.5168834],[139.7948972,35.516939],[139.7957442,35.5166293],[139.7957589,35.5166224],[139.796145,35.517226],[139.7961862,35.5173687],[139.7955089,35.5176104],[139.7955401,35.5176453],[139.7956468,35.5177732],[139.7957066,35.517845],[139.7956584,35.5178694]]}},{"type":"Feature","properties":{"name":"","name:en":"","kind":"coast"},"geometry":{"type":"LineString","coordinates":[[139.7927575,35.5146358],[139.7940946,35.5161227],[139.7943044,35.516356],[139.794442,35.5164992],[139.7945795,35.5166424]]}},{"type":"Feature","properties":{"name":"","name:en":"","kind":"coast"},"geometry":{"type":"LineString","coordinates":[[139.7649641,35.5115916],[139.7649847,35.5116345],[139.7710329,35.5132218]]}},{"type":"Feature","properties":{"name":"","name:en":"","kind":"coast"},"geometry":{"type":"LineString","coordinates":[[139.7957737,35.5233559],[139.7948976,35.5321392]]}},{"type":"Feature","properties":{"name":"","name:en":"","kind":"coast"},"geometry":{"type":"LineString","coordinates":[[139.766466,35.505984],[139.7649641,35.5115916]]}},{"type":"Feature","properties":{"name":"","name:en":"","kind":"coast"},"geometry":{"type":"LineString","coordinates":[[139.781604,35.512558],[139.7869256,35.5096864],[139.7886661,35.5088408],[139.7907281,35.5077583],[139.7919121,35.5071301],[139.7964687,35.5066773],[139.7986691,35.5091756],[139.7967118,35.510321],[139.7966791,35.5102858],[139.7984331,35.5092564],[139.797783,35.5085739],[139.7976853,35.5084814],[139.797523,35.5082711],[139.7974463,35.5080534],[139.7972972,35.5078662],[139.7972619,35.5078509],[139.7972244,35.5078603],[139.7970464,35.507976],[139.7969106,35.5080248],[139.7967724,35.5080469],[139.7967309,35.5079983],[139.7967081,35.507908],[139.7966159,35.5077805],[139.7963963,35.5075596],[139.796341,35.5074958],[139.7962109,35.5074433],[139.7960506,35.5074383],[139.7959275,35.5074676],[139.7957748,35.5074501],[139.7956082,35.5075086],[139.795396,35.5074463],[139.7950252,35.5074219],[139.7938856,35.5076033],[139.792385,35.5080781],[139.7919207,35.5082755],[139.7916278,35.5085282],[139.7915442,35.5086766]]}},{"type":"Feature","properties":{"name":"","name:en":"","kind":"coast"},"geometry":{"type":"LineString","coordinates":[[139.7915442,35.5086766],[139.7938802,35.5114069],[139.7939584,35.5114271],[139.7940213,35.5114629],[139.7942828,35.5117145],[139.7960612,35.5106558],[139.7960909,35.5106924],[139.794225,35.5117978],[139.7942341,35.5118085],[139.7941025,35.5118864],[139.7921468,35.5130365],[139.7915665,35.5133778],[139.7927575,35.5146358]]}},{"type":"Feature","properties":{"name":"","name:en":"","kind":"coast"},"geometry":{"type":"LineString","coordinates":[[139.773705,35.511316],[139.7762306,35.5095522],[139.7762636,35.5095853],[139.776652,35.509975],[139.77794,35.5111707],[139.7779992,35.5111375],[139.7798896,35.512969],[139.7798641,35.5129891],[139.7800643,35.5131746],[139.7800938,35.5131572],[139.7801926,35.5132479],[139.781604,35.512558]]}},{"type":"Feature","properties":{"name":"","name:en":"","kind":"coast"},"geometry":{"type":"LineString","coordinates":[[139.7589022,35.4953113],[139.7611036,35.4919968],[139.7615604,35.4918838],[139.7787175,35.49949],[139.7821121,35.5009942],[139.7820738,35.5010488],[139.7786821,35.4995543],[139.7760888,35.5034521],[139.7783361,35.5044499],[139.7843947,35.5019714],[139.7844347,35.5020351],[139.7784454,35.5044898],[139.7783925,35.5045129],[139.7780749,35.5046444]]}},{"type":"Feature","properties":{"name":"","name:en":"","kind":"coast"},"geometry":{"type":"LineString","coordinates":[[139.7710329,35.5132218],[139.7735259,35.5156262],[139.7747097,35.5147873],[139.7724309,35.5124211],[139.7724187,35.5124305],[139.7723194,35.5123269],[139.7723077,35.5123075],[139.773705,35.511316]]}},{"type":"Feature","properties":{"name":"","name:en":"","kind":"coast"},"geometry":{"type":"LineString","coordinates":[[139.7780749,35.5046444],[139.7773385,35.5049437],[139.7772997,35.504883],[139.7774038,35.5048442],[139.7774353,35.5045264],[139.7764338,35.5040845],[139.7763754,35.5039849],[139.7759871,35.5038116],[139.7759042,35.5038879],[139.7758293,35.5039799],[139.7757242,35.5041106],[139.7756638,35.5042617],[139.7756246,35.5044748],[139.7756216,35.5046289],[139.7756191,35.5047481],[139.7756286,35.5049239],[139.7756935,35.5049455],[139.7757373,35.5049722],[139.7757697,35.5050033],[139.7757917,35.5050511],[139.7758056,35.5050998],[139.7757953,35.5051594]]}},{"type":"Feature","properties":{"name":"","name:en":"","kind":"coast"},"geometry":{"type":"LineString","coordinates":[[139.8337071,35.6394897],[139.8337399,35.6394901],[139.8337409,35.6395058],[139.8337311,35.6395194],[139.8337167,35.63952],[139.8337073,35.6395103],[139.8337071,35.6394897]]}},{"type":"Feature","properties":{"name":"","name:en":"","kind":"coast"},"geometry":{"type":"LineString","coordinates":[[139.833234,35.6394505],[139.8332673,35.6394505],[139.8332675,35.6394684],[139.8332578,35.6394771],[139.8332447,35.6394773],[139.833234,35.6394665],[139.833234,35.6394505]]}},{"type":"Feature","properties":{"name":"","name:en":"","kind":"coast"},"geometry":{"type":"LineString","coordinates":[[139.8336853,35.6392257],[139.8336848,35.6392112],[139.8336934,35.6391969],[139.8337042,35.6391964],[139.8337159,35.6392092],[139.8337159,35.6392248],[139.8336853,35.6392257]]}},{"type":"Feature","properties":{"name":"","name:en":"","kind":"coast"},"geometry":{"type":"LineString","coordinates":[[139.8332093,35.6391648],[139.8332095,35.639152],[139.8332192,35.6391358],[139.8332284,35.6391354],[139.8332402,35.639148],[139.8332402,35.639164],[139.8332093,35.6391648]]}},{"type":"Feature","properties":{"name":"","name:en":"","kind":"coast"},"geometry":{"type":"LineString","coordinates":[[139.7529384,35.6352991],[139.7528836,35.6351967],[139.7529464,35.6351754],[139.752997,35.6352784],[139.7529384,35.6352991]]}},{"type":"Feature","properties":{"name":"","name:en":"","kind":"coast"},"geometry":{"type":"LineString","coordinates":[[139.7772848,35.5092034],[139.7772777,35.5091999],[139.7772769,35.5091937],[139.7772732,35.5091931],[139.7772722,35.50919],[139.7772734,35.5091875],[139.7772761,35.5091865],[139.7772796,35.5091874],[139.7772806,35.5091894],[139.7772836,35.509188],[139.7772894,35.5091898],[139.7772937,35.5091943],[139.7772914,35.5092012],[139.7772848,35.5092034]]}},{"type":"Feature","properties":{"name":"","name:en":"","kind":"coast"},"geometry":{"type":"LineString","coordinates":[[139.7787801,35.5086838],[139.7787669,35.5086533],[139.7787994,35.5086416],[139.7788121,35.5086721],[139.7787801,35.5086838]]}},{"type":"Feature","properties":{"name":"","name:en":"","kind":"coast"},"geometry":{"type":"LineString","coordinates":[[139.7785628,35.5087425],[139.7785569,35.5087386],[139.7785562,35.5087344],[139.7785572,35.5087298],[139.7785628,35.5087267],[139.7785686,35.5087285],[139.7785712,35.5087339],[139.7785689,35.5087398],[139.7785628,35.5087425]]}},{"type":"Feature","properties":{"name":"","name:en":"","kind":"coast"},"geometry":{"type":"LineString","coordinates":[[139.7768698,35.5093537],[139.776863,35.5093507],[139.7768623,35.5093464],[139.7768633,35.5093418],[139.7768689,35.5093388],[139.7768747,35.5093391],[139.7768791,35.5093452],[139.776877,35.5093508],[139.7768698,35.5093537]]}},{"type":"Feature","properties":{"name":"","name:en":"","kind":"coast"},"geometry":{"type":"LineString","coordinates":[[139.7781287,35.5088963],[139.7781232,35.5088931],[139.7781225,35.5088889],[139.7781235,35.5088843],[139.77813,35.5088812],[139.778135,35.508883],[139.7781375,35.5088884],[139.7781352,35.5088944],[139.7781287,35.5088963]]}},{"type":"Feature","properties":{"name":"","name:en":"","kind":"coast"},"geometry":{"type":"LineString","coordinates":[[139.7777099,35.5090495],[139.777703,35.5090467],[139.7777023,35.5090419],[139.7777033,35.5090373],[139.7777092,35.5090353],[139.7777148,35.5090361],[139.7777173,35.5090414],[139.7777162,35.5090466],[139.7777099,35.5090495]]}},{"type":"Feature","properties":{"name":"","name:en":"","kind":"coast"},"geometry":{"type":"LineString","coordinates":[[139.7764513,35.5095038],[139.7764438,35.5095013],[139.7764431,35.5094971],[139.7764441,35.5094925],[139.7764504,35.5094893],[139.7764562,35.5094905],[139.7764597,35.5094962],[139.7764575,35.5095025],[139.7764513,35.5095038]]}},{"type":"Feature","properties":{"name":"","name:en":"","kind":"coast"},"geometry":{"type":"LineString","coordinates":[[139.7660641,35.6358563],[139.7658935,35.6354747],[139.7659414,35.6353803],[139.7659723,35.6353659],[139.7660021,35.6353659],[139.7661116,35.6354081],[139.7662902,35.6357945],[139.7662426,35.635881],[139.7662139,35.6359026],[139.7661758,35.6359036],[139.7660641,35.6358563]]}},{"type":"Feature","properties":{"name":"","name:en":"","kind":"coast"},"geometry":{"type":"LineString","coordinates":[[139.8216787,35.627011],[139.8216736,35.6270043],[139.8216839,35.6269395],[139.8216921,35.6269354],[139.8217928,35.6269439],[139.8217968,35.6269639],[139.8218062,35.6269773],[139.8218048,35.6269919],[139.8217946,35.6270009],[139.8217808,35.6270213],[139.8216787,35.627011]]}},{"type":"Feature","properties":{"name":"","name:en":"","kind":"coast"},"geometry":{"type":"LineString","coordinates":[[139.7709775,35.6352463],[139.770963,35.6352558],[139.7709361,35.6352616],[139.7708648,35.6352332],[139.7708576,35.6352165],[139.7708539,35.635202],[139.7709811,35.6349228],[139.771008,35.6349105],[139.7710415,35.6349076],[139.7710931,35.634925],[139.7711054,35.6349323],[139.7711185,35.6349643],[139.7709775,35.6352463]]}},{"type":"Feature","properties":{"name":"","name:en":"","kind":"coast"},"geometry":{"type":"LineString","coordinates":[[139.7688401,35.6350482],[139.7688147,35.6350475],[139.7687936,35.6350322],[139.7686441,35.6347323],[139.7686451,35.6347189],[139.7686564,35.634704],[139.7687243,35.6346804],[139.7687356,35.6346809],[139.7687551,35.634685],[139.7689109,35.6350062],[139.7689078,35.6350237],[139.768898,35.6350314],[139.7688401,35.6350482]]}},{"type":"Feature","properties":{"name":"","name:en":"","kind":"coast"},"geometry":{"type":"LineString","coordinates":[[139.812065,35.6223871],[139.8120542,35.6223776],[139.8120508,35.6223658],[139.812057,35.6223513],[139.8120702,35.6223424],[139.8120839,35.6223404],[139.8120996,35.6223446],[139.8121107,35.6223526],[139.8121145,35.6223671],[139.8121099,35.6223804],[139.8120981,35.62239],[139.8120834,35.6223918],[139.812065,35.6223871]]}},{"type":"Feature","properties":{"name":"","name:en":"","kind":"coast"},"geometry":{"type":"LineString","coordinates":[[139.8083141,35.6251309],[139.8083105,35.6251226],[139.8083126,35.6251163],[139.8083075,35.6251061],[139.8083164,35.6250758],[139.8083281,35.6250701],[139.8083308,35.6250619],[139.8083406,35.6250575],[139.8084399,35.6250793],[139.8084446,35.6250859],[139.8084253,35.6251484],[139.8084155,35.6251524],[139.8083141,35.6251309]]}},{"type":"Feature","properties":{"name":"","name:en":"","kind":"coast"},"geometry":{"type":"LineString","coordinates":[[139.8084829,35.6246079],[139.8084797,35.6246004],[139.8084821,35.6245912],[139.808477,35.6245845],[139.8084844,35.6245532],[139.8084955,35.6245479],[139.8084965,35.6245386],[139.808506,35.6245345],[139.8086065,35.6245548],[139.808612,35.6245628],[139.8085934,35.6246234],[139.8085841,35.6246287],[139.8084829,35.6246079]]}},{"type":"Feature","properties":{"name":"","name:en":"","kind":"coast"},"geometry":{"type":"LineString","coordinates":[[139.8106822,35.6236115],[139.8106722,35.6236026],[139.8106699,35.6235938],[139.8106735,35.6235815],[139.8106831,35.6235744],[139.8106972,35.623572],[139.8107105,35.6235752],[139.8107198,35.6235833],[139.8107228,35.6235936],[139.8107199,35.6236048],[139.8107101,35.6236118],[139.8106967,35.6236143],[139.8106822,35.6236115]]}},{"type":"Feature","properties":{"name":"","name:en":"","kind":"coast"},"geometry":{"type":"LineString","coordinates":[[139.7700563,35.6350042],[139.770053,35.6350225],[139.7700422,35.6350326],[139.7699736,35.6350534],[139.7699556,35.6350472],[139.7699417,35.6350387],[139.7697619,35.6347033],[139.7697619,35.6346873],[139.7697771,35.6346735],[139.7698542,35.6346473],[139.769876,35.6346546],[139.7698905,35.6346742],[139.7700563,35.6350042]]}},{"type":"Feature","properties":{"name":"","name:en":"","kind":"coast"},"geometry":{"type":"LineString","coordinates":[[139.8220556,35.6238637],[139.822052,35.6238586],[139.8220592,35.623793],[139.8220656,35.6237892],[139.8221677,35.6237974],[139.8221733,35.6238159],[139.8221736,35.6238218],[139.8221823,35.6238221],[139.8221803,35.6238488],[139.8221705,35.6238475],[139.82217,35.6238557],[139.8221592,35.6238704],[139.8220556,35.6238637]]}},{"type":"Feature","properties":{"name":"","name:en":"","kind":"coast"},"geometry":{"type":"LineString","coordinates":[[139.8112817,35.6201484],[139.8112722,35.6201444],[139.8112444,35.620059],[139.8112473,35.6200528],[139.8112676,35.6200482],[139.8112657,35.6200408],[139.8113006,35.6200336],[139.8113025,35.6200404],[139.8113229,35.6200354],[139.8113313,35.6200412],[139.811361,35.6201247],[139.8113563,35.6201313],[139.8112817,35.6201484]]}},{"type":"Feature","properties":{"name":"","name:en":"","kind":"coast"},"geometry":{"type":"LineString","coordinates":[[139.8106471,35.6202983],[139.8106388,35.6202947],[139.810609,35.6202093],[139.8106119,35.6202031],[139.8106272,35.6201999],[139.8106252,35.6201942],[139.810666,35.6201849],[139.8106685,35.6201905],[139.8106875,35.6201857],[139.8106959,35.6201915],[139.8107235,35.6202765],[139.8107187,35.6202816],[139.8106471,35.6202983]]}},{"type":"Feature","properties":{"name":"","name:en":"","kind":"coast"},"geometry":{"type":"LineString","coordinates":[[139.8133977,35.6196437],[139.8133893,35.6196401],[139.81336,35.6195571],[139.813365,35.6195486],[139.8133803,35.6195429],[139.8133801,35.6195374],[139.8134193,35.6195285],[139.8134209,35.6195347],[139.8134395,35.6195305],[139.8134485,35.6195339],[139.8134771,35.619619],[139.8134717,35.6196262],[139.8133977,35.6196437]]}},{"type":"Feature","properties":{"name":"","name:en":"","kind":"coast"},"geometry":{"type":"LineString","coordinates":[[139.8217569,35.6264714],[139.8217508,35.6264668],[139.8217605,35.6264007],[139.8217685,35.6263959],[139.821869,35.6264051],[139.8218746,35.6264236],[139.8218746,35.6264306],[139.8218867,35.6264326],[139.8218831,35.6264617],[139.8218703,35.6264606],[139.8218687,35.6264658],[139.8218592,35.6264807],[139.8217569,35.6264714]]}},{"type":"Feature","properties":{"name":"","name:en":"","kind":"coast"},"geometry":{"type":"LineString","coordinates":[[139.8221143,35.6233262],[139.8221094,35.6233195],[139.8221157,35.6232566],[139.8221224,35.6232508],[139.8222252,35.623258],[139.8222307,35.6232745],[139.8222303,35.6232797],[139.8222399,35.6232799],[139.8222361,35.6233082],[139.8222271,35.6233094],[139.8222272,35.623317],[139.8222173,35.6233323],[139.8221143,35.6233262]]}},{"type":"Feature","properties":{"name":"","name:en":"","kind":"coast"},"geometry":{"type":"LineString","coordinates":[[139.8127689,35.619794],[139.8127605,35.6197903],[139.8127302,35.6197058],[139.8127336,35.6196987],[139.8127486,35.6196959],[139.8127513,35.6196876],[139.8127887,35.6196804],[139.812794,35.6196849],[139.8128103,35.6196813],[139.8128176,35.6196856],[139.812848,35.6197707],[139.8128436,35.6197765],[139.8127689,35.619794]]}},{"type":"Feature","properties":{"name":"","name:en":"","kind":"coast"},"geometry":{"type":"LineString","coordinates":[[139.8136983,35.6210898],[139.8136882,35.6210809],[139.8136862,35.6210711],[139.8136908,35.6210596],[139.813699,35.6210528],[139.8137132,35.6210504],[139.8137264,35.6210535],[139.8137316,35.6210576],[139.8137357,35.6210617],[139.8137388,35.621072],[139.8137358,35.6210831],[139.8137264,35.6210907],[139.8137126,35.6210927],[139.8136983,35.6210898]]}},{"type":"Feature","properties":{"name":"","name:en":"","kind":"coast"},"geometry":{"type":"LineString","coordinates":[[139.7672815,35.6354781],[139.7671016,35.6350978],[139.7671068,35.6350669],[139.7671356,35.6350402],[139.7677976,35.6348315],[139.7678562,35.6348367],[139.7678943,35.6348521],[139.76792,35.6348788],[139.768067,35.6351985],[139.7680587,35.6352417],[139.768031,35.6352736],[139.7680053,35.635288],[139.7673576,35.6354946],[139.7673288,35.6354972],[139.7673093,35.6354925],[139.7672815,35.6354781]]}},{"type":"Feature","properties":{"name":"","name:en":"","kind":"coast"},"geometry":{"type":"LineString","coordinates":[[139.8219592,35.6241534],[139.8219541,35.6241477],[139.8219545,35.624127],[139.8219628,35.6241218],[139.8219844,35.624123],[139.8219909,35.6241285],[139.8219904,35.6241495],[139.8219813,35.6241547],[139.8219592,35.6241534]]}},{"type":"Feature","properties":{"name":"","name:en":"","kind":"coast"},"geometry":{"type":"LineString","coordinates":[[139.8217386,35.6261303],[139.8217332,35.6261247],[139.821734,35.6261035],[139.8217421,35.6260983],[139.821764,35.6260992],[139.8217721,35.6261044],[139.8217694,35.6261273],[139.8217615,35.6261318],[139.8217386,35.6261303]]}},{"type":"Feature","properties":{"name":"","name:en":"","kind":"coast"},"geometry":{"type":"LineString","coordinates":[[139.8083677,35.6254438],[139.8083652,35.6254372],[139.8083699,35.6254168],[139.8083798,35.6254125],[139.8083981,35.6254167],[139.8084062,35.6254242],[139.8083999,35.6254454],[139.8083912,35.6254491],[139.8083677,35.6254438]]}},{"type":"Feature","properties":{"name":"","name:en":"","kind":"coast"},"geometry":{"type":"LineString","coordinates":[[139.8221157,35.6226702],[139.8221116,35.6226653],[139.8221127,35.6226451],[139.8221192,35.6226406],[139.8221402,35.62264],[139.822149,35.6226449],[139.8221476,35.6226653],[139.8221393,35.6226709],[139.8221157,35.6226702]]}},{"type":"Feature","properties":{"name":"","name:en":"","kind":"coast"},"geometry":{"type":"LineString","coordinates":[[139.8093891,35.6222546],[139.8093841,35.6222471],[139.8093901,35.6222282],[139.8093971,35.6222251],[139.8094213,35.6222302],[139.8094255,35.6222371],[139.8094201,35.6222545],[139.8094114,35.622259],[139.8093891,35.6222546]]}},{"type":"Feature","properties":{"name":"","name:en":"","kind":"coast"},"geometry":{"type":"LineString","coordinates":[[139.8215721,35.6272966],[139.8215662,35.6272898],[139.8215684,35.6272663],[139.8215761,35.6272617],[139.8215974,35.627263],[139.8216051,35.6272684],[139.8216022,35.6272931],[139.8215944,35.627298],[139.8215721,35.6272966]]}},{"type":"Feature","properties":{"name":"","name:en":"","kind":"coast"},"geometry":{"type":"LineString","coordinates":[[139.8087325,35.624311],[139.808728,35.6243043],[139.8087331,35.624285],[139.8087394,35.6242803],[139.8087599,35.6242839],[139.8087678,35.6242906],[139.808763,35.6243098],[139.8087553,35.6243147],[139.8087325,35.624311]]}},{"type":"Feature","properties":{"name":"","name:en":"","kind":"coast"},"geometry":{"type":"LineString","coordinates":[[139.8217845,35.6258185],[139.8217787,35.6258122],[139.8217797,35.625791],[139.8217876,35.6257857],[139.8218096,35.6257866],[139.8218168,35.6257921],[139.821815,35.6258148],[139.821807,35.6258193],[139.8217845,35.6258185]]}},{"type":"Feature","properties":{"name":"","name:en":"","kind":"coast"},"geometry":{"type":"LineString","coordinates":[[139.8116928,35.6201002],[139.8116871,35.6200952],[139.8116891,35.6200742],[139.8116963,35.6200705],[139.8117174,35.6200711],[139.8117256,35.6200772],[139.8117244,35.6200972],[139.8117159,35.6201017],[139.8116928,35.6201002]]}},{"type":"Feature","properties":{"name":"","name:en":"","kind":"coast"},"geometry":{"type":"LineString","coordinates":[[139.8124286,35.6199246],[139.8124228,35.6199196],[139.8124248,35.6198986],[139.812432,35.6198949],[139.8124531,35.6198955],[139.8124613,35.6199016],[139.8124601,35.6199216],[139.8124516,35.6199261],[139.8124286,35.6199246]]}},{"type":"Feature","properties":{"name":"","name:en":"","kind":"coast"},"geometry":{"type":"LineString","coordinates":[[139.809485,35.6219525],[139.8094807,35.6219462],[139.809486,35.6219276],[139.8094936,35.6219245],[139.8095199,35.621931],[139.8095226,35.6219385],[139.809517,35.6219537],[139.8095077,35.6219579],[139.809485,35.6219525]]}},{"type":"Feature","properties":{"name":"","name:en":"","kind":"coast"},"geometry":{"type":"LineString","coordinates":[[139.8090411,35.6228601],[139.8090371,35.6228529],[139.8090556,35.6227929],[139.8090654,35.6227885],[139.8091647,35.6228103],[139.8091707,35.6228174],[139.80915,35.6228777],[139.8091415,35.6228822],[139.8090411,35.6228601]]}},{"type":"Feature","properties":{"name":"","name:en":"","kind":"coast"},"geometry":{"type":"LineString","coordinates":[[139.8103209,35.620434],[139.8103111,35.6204301],[139.8103049,35.620407],[139.8103082,35.6203995],[139.8103311,35.6203957],[139.81034,35.620398],[139.8103484,35.6204208],[139.8103435,35.6204284],[139.8103209,35.620434]]}},{"type":"Feature","properties":{"name":"","name:en":"","kind":"coast"},"geometry":{"type":"LineString","coordinates":[[139.8095989,35.6211134],[139.8095956,35.6211051],[139.8096149,35.6210459],[139.8096235,35.6210415],[139.8097232,35.6210625],[139.8097292,35.6210696],[139.8097093,35.6211309],[139.8097,35.6211344],[139.8095989,35.6211134]]}},{"type":"Feature","properties":{"name":"","name:en":"","kind":"coast"},"geometry":{"type":"LineString","coordinates":[[139.8088294,35.6240062],[139.8088253,35.6239987],[139.8088306,35.6239795],[139.80884,35.6239773],[139.8088619,35.6239813],[139.8088656,35.6239876],[139.8088604,35.6240067],[139.8088508,35.6240101],[139.8088294,35.6240062]]}},{"type":"Feature","properties":{"name":"","name:en":"","kind":"coast"},"geometry":{"type":"LineString","coordinates":[[139.8092893,35.6225646],[139.8092835,35.6225578],[139.8092905,35.6225386],[139.8092986,35.6225359],[139.8093184,35.6225404],[139.8093251,35.6225464],[139.8093214,35.6225642],[139.8093114,35.62257],[139.8092893,35.6225646]]}},{"type":"Feature","properties":{"name":"","name:en":"","kind":"coast"},"geometry":{"type":"LineString","coordinates":[[139.8082699,35.6257509],[139.8082656,35.6257437],[139.808272,35.6257214],[139.8082797,35.6257191],[139.8083031,35.6257231],[139.8083071,35.6257309],[139.8083016,35.6257496],[139.8082924,35.6257548],[139.8082699,35.6257509]]}},{"type":"Feature","properties":{"name":"","name:en":"","kind":"coast"},"geometry":{"type":"LineString","coordinates":[[139.8219255,35.6244664],[139.8219203,35.6244607],[139.8219209,35.6244416],[139.8219298,35.6244353],[139.8219497,35.6244351],[139.8219573,35.6244422],[139.8219569,35.6244625],[139.8219486,35.6244676],[139.8219255,35.6244664]]}},{"type":"Feature","properties":{"name":"","name:en":"","kind":"coast"},"geometry":{"type":"LineString","coordinates":[[139.8215256,35.6276016],[139.8215198,35.6275967],[139.8215219,35.6275756],[139.8215291,35.627572],[139.8215501,35.6275725],[139.8215583,35.6275787],[139.8215572,35.6275987],[139.8215486,35.6276032],[139.8215256,35.6276016]]}},{"type":"Feature","properties":{"name":"","name:en":"","kind":"coast"},"geometry":{"type":"LineString","coordinates":[[139.8088738,35.6233838],[139.8088698,35.6233765],[139.8088883,35.6233166],[139.8088981,35.6233122],[139.8089974,35.623334],[139.8090021,35.6233405],[139.8089825,35.6234009],[139.8089726,35.6234049],[139.8088738,35.6233838]]}},{"type":"Feature","properties":{"name":"","name:en":"","kind":"coast"},"geometry":{"type":"LineString","coordinates":[[139.8098469,35.6208152],[139.8098424,35.6208093],[139.8098479,35.6207905],[139.8098572,35.6207867],[139.8098763,35.6207927],[139.8098806,35.6208003],[139.8098755,35.6208184],[139.8098675,35.6208208],[139.8098469,35.6208152]]}},{"type":"Feature","properties":{"name":"","name:en":"","kind":"coast"},"geometry":{"type":"LineString","coordinates":[[139.8094313,35.6216388],[139.8094273,35.6216307],[139.8094459,35.6215707],[139.8094557,35.6215664],[139.8095539,35.6215874],[139.8095604,35.6215955],[139.8095403,35.6216556],[139.8095317,35.6216601],[139.8094313,35.6216388]]}},{"type":"Feature","properties":{"name":"","name:en":"","kind":"coast"},"geometry":{"type":"LineString","coordinates":[[139.8089268,35.6236999],[139.8089214,35.6236937],[139.8089261,35.6236749],[139.8089345,35.6236714],[139.8089571,35.6236747],[139.8089627,35.6236819],[139.8089573,35.6236997],[139.8089495,35.6237033],[139.8089268,35.6236999]]}},{"type":"Feature","properties":{"name":"","name:en":"","kind":"coast"},"geometry":{"type":"LineString","coordinates":[[139.8120586,35.6200176],[139.8120528,35.6200126],[139.8120548,35.6199916],[139.812062,35.619988],[139.8120831,35.6199885],[139.8120913,35.6199947],[139.8120901,35.6200147],[139.8120816,35.6200192],[139.8120586,35.6200176]]}},{"type":"Feature","properties":{"name":"","name:en":"","kind":"coast"},"geometry":{"type":"LineString","coordinates":[[139.8138158,35.6196014],[139.8138084,35.6195981],[139.8138017,35.6195774],[139.8138053,35.6195696],[139.8138278,35.6195644],[139.8138367,35.6195678],[139.8138419,35.619592],[139.8138388,35.6195954],[139.8138158,35.6196014]]}},{"type":"Feature","properties":{"name":"","name:en":"","kind":"coast"},"geometry":{"type":"LineString","coordinates":[[139.8220852,35.6229828],[139.8220798,35.6229766],[139.8220802,35.622957],[139.8220875,35.6229519],[139.8221081,35.6229523],[139.8221165,35.6229575],[139.8221142,35.6229795],[139.8221062,35.622984],[139.8220852,35.6229828]]}},{"type":"Feature","properties":{"name":"","name:en":"","kind":"coast"},"geometry":{"type":"LineString","coordinates":[[139.7987863,35.5962524],[139.7987627,35.5962135],[139.7987654,35.5962073],[139.798821,35.59621],[139.7988237,35.5962162],[139.7987937,35.5962532],[139.7987863,35.5962524]]}},{"type":"Feature","properties":{"name":"","name:en":"","kind":"coast"},"geometry":{"type":"LineString","coordinates":[[139.79869,35.5972067],[139.7986346,35.5972024],[139.7986307,35.597197],[139.7986603,35.5971585],[139.7986691,35.5971584],[139.7986941,35.5972014],[139.79869,35.5972067]]}},{"type":"Feature","properties":{"name":"","name:en":"","kind":"coast"},"geometry":{"type":"LineString","coordinates":[[139.7982044,35.5969657],[139.7981808,35.5969268],[139.7981835,35.5969206],[139.7982391,35.5969233],[139.7982418,35.5969295],[139.7982118,35.5969664],[139.7982044,35.5969657]]}},{"type":"Feature","properties":{"name":"","name:en":"","kind":"coast"},"geometry":{"type":"LineString","coordinates":[[139.7992715,35.5964931],[139.799216,35.5964889],[139.7992122,35.5964835],[139.7992418,35.596445],[139.7992506,35.5964449],[139.7992756,35.5964879],[139.7992715,35.5964931]]}},{"type":"Feature","properties":{"name":"","name:en":"","kind":"coast"},"geometry":{"type":"LineString","coordinates":[[139.7825506,35.5837231],[139.7809022,35.5849047]]}},{"type":"Feature","properties":{"name":"","name:en":"","kind":"coast"},"geometry":{"type":"LineString","coordinates":[[139.7885157,35.6561512],[139.7896572,35.655901],[139.7907803,35.6556549]]}},{"type":"Feature","properties":{"name":"","name:en":"","kind":"coast"},"geometry":{"type":"LineString","coordinates":[[139.7594328,35.6277732],[139.7592038,35.6335988],[139.7592014,35.6336142],[139.7591909,35.6336268],[139.7591712,35.6336314],[139.7580527,35.6336234],[139.7580575,35.6336853],[139.7580158,35.63368],[139.7580185,35.6337925],[139.757882,35.633795],[139.7578753,35.6336834],[139.7572384,35.633688],[139.7572396,35.6337259],[139.75692,35.633721],[139.7569226,35.6336751],[139.7565988,35.6335823],[139.7565916,35.633718],[139.7556773,35.6337146],[139.755677,35.6336097],[139.7552396,35.6336118]]}},{"type":"Feature","properties":{"name":"","name:en":"","kind":"coast"},"geometry":{"type":"LineString","coordinates":[[139.7552396,35.6336118],[139.7526285,35.6344231]]}},{"type":"Feature","properties":{"name":"","name:en":"","kind":"coast"},"geometry":{"type":"LineString","coordinates":[[139.8003396,35.6310771],[139.8014855,35.632805],[139.8013598,35.6363529]]}},{"type":"Feature","properties":{"name":"","name:en":"","kind":"coast"},"geometry":{"type":"LineString","coordinates":[[139.8227762,35.6429445],[139.8260419,35.6432597],[139.8260726,35.6430364],[139.8261055,35.6430399],[139.8260727,35.6432614]]}},{"type":"Feature","properties":{"name":"","name:en":"","kind":"coast"},"geometry":{"type":"LineString","coordinates":[[139.821664,35.6429495],[139.8227762,35.6429445]]}},{"type":"Feature","properties":{"name":"","name:en":"","kind":"coast"},"geometry":{"type":"LineString","coordinates":[[139.769488,35.6492603],[139.7695663,35.649183],[139.7700854,35.6486701],[139.7701177,35.6486382],[139.7701968,35.64856],[139.7710221,35.6477447],[139.7719233,35.6468554],[139.7726609,35.6461255],[139.7727506,35.6460368],[139.7727824,35.646035],[139.7795109,35.650576],[139.7801966,35.6505387],[139.7844377,35.6534078],[139.7844461,35.6534004],[139.7877527,35.655619],[139.7877416,35.6556302],[139.7885157,35.6561512]]}},{"type":"Feature","properties":{"name":"","name:en":"","kind":"coast"},"geometry":{"type":"LineString","coordinates":[[139.7683683,35.6503576],[139.769488,35.6492603]]}},{"type":"Feature","properties":{"name":"","name:en":"","kind":"coast"},"geometry":{"type":"LineString","coordinates":[[139.7676434,35.6510712],[139.7683683,35.6503576]]}},{"type":"Feature","properties":{"name":"","name:en":"","kind":"coast"},"geometry":{"type":"LineString","coordinates":[[139.7625054,35.6518709],[139.7648768,35.6515046],[139.7673219,35.6510528],[139.7676434,35.6510712]]}},{"type":"Feature","properties":{"name":"","name:en":"","kind":"coast"},"geometry":{"type":"LineString","coordinates":[[139.7733319,35.5867489],[139.7733336,35.5867628],[139.7732377,35.5868452],[139.7731666,35.5869155],[139.7731425,35.5869739],[139.7731197,35.5870611],[139.773109,35.5871265],[139.7731358,35.5871353],[139.7731827,35.5871625],[139.7732337,35.5872293],[139.7732766,35.5871985],[139.7732816,35.5872047],[139.7731977,35.5872609],[139.7735807,35.5876079],[139.7736219,35.5875862],[139.7736367,35.5875982],[139.7737655,35.5875153],[139.77678,35.5902829],[139.7729492,35.5953869],[139.772867,35.59549]]}},{"type":"Feature","properties":{"name":"","name:en":"","kind":"coast"},"geometry":{"type":"LineString","coordinates":[[139.7816342,35.5855812],[139.7814277,35.5857326],[139.7809875,35.5853267],[139.7810208,35.585303],[139.7807358,35.5850293],[139.7802422,35.5853879],[139.7786253,35.5865627],[139.7778058,35.5871619],[139.7777125,35.5870712],[139.7781251,35.5867701],[139.7785376,35.5864689],[139.777169,35.5852134],[139.7763283,35.5858292],[139.7762195,35.5857278]]}},{"type":"Feature","properties":{"name":"","name:en":"","kind":"coast"},"geometry":{"type":"LineString","coordinates":[[139.858615,35.6363667],[139.857564,35.6352174],[139.8570883,35.6351488],[139.8570234,35.6351014],[139.8570235,35.6350184],[139.8571057,35.6349576],[139.8571972,35.6349448],[139.8574736,35.6349838],[139.8576674,35.6350707],[139.8578916,35.6352607],[139.8589588,35.6365409]]}},{"type":"Feature","properties":{"name":"","name:en":"","kind":"coast"},"geometry":{"type":"LineString","coordinates":[[139.7711935,35.5062209],[139.7671783,35.5060189],[139.766466,35.505984]]}},{"type":"Feature","properties":{"name":"","name:en":"","kind":"coast"},"geometry":{"type":"LineString","coordinates":[[139.8073103,35.6403938],[139.8081222,35.6404524]]}},{"type":"Feature","properties":{"name":"","name:en":"","kind":"coast"},"geometry":{"type":"LineString","coordinates":[[139.928939,35.6702778],[139.9301766,35.6710918],[139.9314765,35.6719577],[139.9314686,35.6719657],[139.9331881,35.673101],[139.9302647,35.6756778],[139.9291489,35.6766605],[139.9289688,35.6766618],[139.9265066,35.6748731],[139.9257666,35.6755252],[139.9238518,35.6741212],[139.9237851,35.6741659],[139.923769,35.6741544]]}},{"type":"Feature","properties":{"name":"","name:en":"","kind":"coast"},"geometry":{"type":"LineString","coordinates":[[139.9303551,35.666481],[139.9325784,35.6667436],[139.9326114,35.6665639],[139.9326727,35.6665682],[139.9326451,35.6667265],[139.9329638,35.6667592],[139.9329838,35.6666689],[139.9340003,35.6667922],[139.933986,35.6668769]]}},{"type":"Feature","properties":{"name":"","name:en":"","kind":"coast"},"geometry":{"type":"LineString","coordinates":[[139.8386171,35.6141472],[139.8488921,35.6356222],[139.8489248,35.6356906],[139.8494218,35.642919]]}},{"type":"Feature","properties":{"name":"","name:en":"","kind":"coast"},"geometry":{"type":"LineString","coordinates":[[139.8494218,35.642919],[139.8494243,35.6428457],[139.8494466,35.6427441],[139.8495368,35.6426428],[139.8497112,35.6424802],[139.849832,35.6424293],[139.8499573,35.6423976],[139.8519283,35.6421466],[139.8519291,35.6420982],[139.8524764,35.6416892],[139.8525175,35.6416354],[139.8525392,35.6416151],[139.8534113,35.6410817],[139.854333,35.6405626],[139.8550036,35.6402509],[139.8551014,35.6402541],[139.8551744,35.6403037],[139.8553224,35.6402321],[139.8553569,35.6402171],[139.8553926,35.6402016],[139.8556667,35.6400822],[139.8562975,35.6398332],[139.8562877,35.6397662],[139.8563569,35.6396829],[139.8581457,35.6391188],[139.8594479,35.638818],[139.8594852,35.6389165],[139.8606236,35.6387231],[139.8611262,35.6386558],[139.8611106,35.6385629],[139.8622671,35.6384616],[139.862437,35.6384951],[139.8632918,35.6384492],[139.8644196,35.6384805],[139.8658917,35.6385792],[139.8664647,35.6386374],[139.86762,35.638831],[139.869145,35.639166],[139.8706833,35.6388786],[139.8707983,35.6388571]]}},{"type":"Feature","properties":{"name":"","name:en":"","kind":"coast"},"geometry":{"type":"LineString","coordinates":[[139.82125,35.6334427],[139.8215277,35.631518],[139.8215483,35.6315216],[139.8216179,35.6315335],[139.8216365,35.6315728],[139.8215906,35.6318588],[139.82159,35.6319043],[139.8216018,35.6319347],[139.8216289,35.6319653],[139.8216708,35.6319724],[139.8393113,35.6336009],[139.839325,35.6335231],[139.8399816,35.6335799],[139.8402351,35.6336018],[139.8401232,35.6321673]]}},{"type":"Feature","properties":{"name":"","name:en":"","kind":"coast"},"geometry":{"type":"LineString","coordinates":[[139.7510819,35.5648734],[139.750224,35.5658432],[139.7496915,35.566479],[139.7494153,35.5667867],[139.750231,35.567364]]}},{"type":"Feature","properties":{"name":"","name:en":"","kind":"coast"},"geometry":{"type":"LineString","coordinates":[[139.7956584,35.5178694],[139.7962559,35.5185824]]}},{"type":"Feature","properties":{"name":"","name:en":"","kind":"coast"},"geometry":{"type":"LineString","coordinates":[[139.750231,35.567364],[139.7560164,35.5685324],[139.7584115,35.5684178]]}},{"type":"Feature","properties":{"name":"","name:en":"","kind":"coast"},"geometry":{"type":"LineString","coordinates":[[139.7735176,35.5748784],[139.7833789,35.5771013]]}},{"type":"Feature","properties":{"name":"","name:en":"","kind":"coast"},"geometry":{"type":"LineString","coordinates":[[139.7746265,35.616703],[139.7770239,35.6137756],[139.7771537,35.6138461],[139.7774757,35.6137959]]}},{"type":"Feature","properties":{"name":"","name:en":"","kind":"coast"},"geometry":{"type":"LineString","coordinates":[[139.7720659,35.6195101],[139.7728865,35.6185312]]}},{"type":"Feature","properties":{"name":"","name:en":"","kind":"coast"},"geometry":{"type":"LineString","coordinates":[[139.7765381,35.6362487],[139.7757422,35.6358168],[139.7752602,35.6355681],[139.7751657,35.6355194],[139.7731416,35.6344127],[139.7730381,35.6343928],[139.7725318,35.6345078],[139.7724511,35.6342681],[139.7717043,35.6344606],[139.7715475,35.6343982],[139.7713586,35.634711],[139.7713459,35.6347132],[139.7713291,35.6347344],[139.7713159,35.6347257],[139.7715186,35.6343828],[139.7713704,35.6343255],[139.7713369,35.6342519],[139.7712557,35.6340593],[139.7711946,35.6339755],[139.7710784,35.6338181],[139.7710469,35.633763],[139.7710239,35.6337098],[139.7709746,35.6336052],[139.7709016,35.6334625],[139.7708753,35.6333857],[139.7708638,35.6333051],[139.770865,35.6331876],[139.770886,35.633132],[139.7708606,35.6330715]]}},{"type":"Feature","properties":{"name":"","name:en":"","kind":"coast"},"geometry":{"type":"LineString","coordinates":[[139.7816276,35.6231037],[139.7852896,35.6251178]]}},{"type":"Feature","properties":{"name":"","name:en":"","kind":"coast"},"geometry":{"type":"LineString","coordinates":[[139.7728865,35.6185312],[139.7729824,35.618408],[139.7731621,35.6185071],[139.773671,35.6178755],[139.7736882,35.6178543],[139.7745954,35.6167425],[139.7746265,35.616703]]}},{"type":"Feature","properties":{"name":"","name:en":"","kind":"coast"},"geometry":{"type":"LineString","coordinates":[[139.7757953,35.5051594],[139.7759549,35.5051886],[139.7770113,35.5050145],[139.7770155,35.5050306],[139.7770994,35.5050175],[139.7770944,35.5049982],[139.7771164,35.5049966],[139.7771223,35.5050298],[139.7713027,35.5060079],[139.7712054,35.5060204],[139.7711935,35.5062209]]}},{"type":"Feature","properties":{"name":"","name:en":"","kind":"coast"},"geometry":{"type":"LineString","coordinates":[[139.7603001,35.6157839],[139.7597527,35.6193524]]}},{"type":"Feature","properties":{"name":"","name:en":"","kind":"coast"},"geometry":{"type":"LineString","coordinates":[[139.7762195,35.5857278],[139.7760976,35.5856142],[139.7761614,35.5855676],[139.7761271,35.5855353],[139.77607,35.5855759],[139.7755612,35.5851264],[139.7733319,35.5867489]]}},{"type":"Feature","properties":{"name":"","name:en":"","kind":"coast"},"geometry":{"type":"LineString","coordinates":[[139.7833789,35.5771013],[139.7836968,35.5773931]]}},{"type":"Feature","properties":{"name":"","name:en":"","kind":"coast"},"geometry":{"type":"LineString","coordinates":[[139.7870313,35.5804554],[139.7843352,35.5824192]]}},{"type":"Feature","properties":{"name":"","name:en":"","kind":"coast"},"geometry":{"type":"LineString","coordinates":[[139.7869528,35.5803827],[139.7870313,35.5804554]]}},{"type":"Feature","properties":{"name":"","name:en":"","kind":"coast"},"geometry":{"type":"LineString","coordinates":[[139.7836968,35.5773931],[139.7838092,35.5773109],[139.7852645,35.5773387],[139.7852638,35.5773664],[139.7850276,35.5773611],[139.7850158,35.5773834],[139.7848868,35.577381]]}},{"type":"Feature","properties":{"name":"","name:en":"","kind":"coast"},"geometry":{"type":"LineString","coordinates":[[139.7872841,35.5796276],[139.7872585,35.5794655],[139.7872796,35.5794551],[139.7872171,35.5792449],[139.7872094,35.5790181],[139.7872516,35.5790175],[139.7872607,35.5792441],[139.7873168,35.5794504],[139.7873951,35.5800615],[139.7869528,35.5803827]]}},{"type":"Feature","properties":{"name":"","name:en":"","kind":"coast"},"geometry":{"type":"LineString","coordinates":[[139.7809022,35.5849047],[139.7816342,35.5855812]]}},{"type":"Feature","properties":{"name":"","name:en":"","kind":"coast"},"geometry":{"type":"LineString","coordinates":[[139.7709699,35.5689128],[139.7637889,35.5604539]]}},{"type":"Feature","properties":{"name":"","name:en":"","kind":"coast"},"geometry":{"type":"LineString","coordinates":[[139.8707983,35.6388571],[139.8723177,35.6373953],[139.8723965,35.6373182]]}},{"type":"Feature","properties":{"name":"","name:en":"","kind":"coast"},"geometry":{"type":"LineString","coordinates":[[139.7962559,35.5185824],[139.7957737,35.5233559]]}},{"type":"Feature","properties":{"name":"","name:en":"","kind":"coast"},"geometry":{"type":"LineString","coordinates":[[139.7594974,35.6260545],[139.7594328,35.6277732]]}},{"type":"Feature","properties":{"name":"","name:en":"","kind":"coast"},"geometry":{"type":"LineString","coordinates":[[139.7530199,35.6353635],[139.7530309,35.6353852],[139.753427,35.635252],[139.7534392,35.6352534],[139.753448,35.635262],[139.7534486,35.6352755],[139.7534404,35.6352845],[139.7530472,35.6354175],[139.753441,35.6361878],[139.7537362,35.6367653],[139.7537661,35.6368239],[139.7548147,35.6388751],[139.7555435,35.6390446],[139.7567059,35.6384116],[139.7567538,35.6383854],[139.759146,35.6370729],[139.7596102,35.6367979],[139.7596625,35.6367668],[139.7604396,35.6367712],[139.7604364,35.6374248],[139.760435,35.6375842],[139.7604335,35.6377499],[139.7603677,35.644984],[139.7590938,35.6449699],[139.7590909,35.6454111],[139.7593206,35.6460091],[139.7594324,35.6466066],[139.7595876,35.647254],[139.7597538,35.6478208],[139.7599497,35.6484072],[139.7608261,35.6509204],[139.7606802,35.6509544],[139.7609863,35.6518679],[139.7625054,35.6518709]]}}]}