{"type":"Feature","properties":{"name":"山手線","name:en":"Yamanote Line","colour":"#B1CB39","operator":"東日本旅客鉄道","source":"OpenStreetMap · ODbL · relation/5376382"},"geometry":{"type":"LineString","coordinates":[[139.7120886,35.7322691],[139.7120303,35.7321631],[139.7119799,35.7320636],[139.7118995,35.7318859],[139.7118073,35.7316707],[139.711718,35.7314249],[139.711612,35.7311341],[139.7115638,35.7310217],[139.7114881,35.7308686],[139.7111309,35.7301922],[139.7107142,35.7294428],[139.7104593,35.7289476],[139.71038,35.7287786],[139.7101335,35.7283168],[139.7103155,35.7288011],[139.7103829,35.728974],[139.7105651,35.7294114],[139.7106038,35.7294962],[139.7109865,35.7302436],[139.711629,35.7314434],[139.711797,35.7317597],[139.7119048,35.7319632],[139.7119736,35.7320828],[139.7120886,35.7322691],[139.7122327,35.7324835],[139.7124301,35.7327608],[139.7125961,35.7329727],[139.7127701,35.7331729],[139.7129031,35.733305],[139.7130537,35.7334384],[139.7132125,35.7335673],[139.7135356,35.7337837],[139.7138059,35.7339436],[139.714024,35.7340617],[139.7142303,35.7341433],[139.7144458,35.73422],[139.7147044,35.7343066],[139.7150123,35.7343932],[139.7152729,35.7344582],[139.7155553,35.7345118],[139.7158078,35.7345534],[139.7160816,35.7345789],[139.7163719,35.7346013],[139.7166491,35.7346025],[139.7168581,35.734599],[139.7170917,35.734586],[139.7173007,35.7345624],[139.717517,35.734533],[139.7182147,35.7343803],[139.7185302,35.7342995],[139.7188494,35.7342179],[139.7192656,35.7341114],[139.7197952,35.7339697],[139.7203227,35.7338323],[139.721272,35.7335782],[139.721741,35.7334532],[139.72225,35.7333175],[139.7227775,35.7331742],[139.7232629,35.7330425],[139.7241496,35.7328059],[139.724672,35.7326652],[139.7255515,35.7324386],[139.7265535,35.7321692],[139.7269164,35.7320676],[139.7283291,35.7317012],[139.7285847,35.7316349],[139.7295639,35.731381],[139.7300577,35.7312684],[139.7303174,35.7312032],[139.7307813,35.7310851],[139.7311526,35.7310008],[139.7314354,35.7309496],[139.7317283,35.7309166],[139.7320202,35.7308984],[139.7323325,35.730896],[139.7326214,35.7309059],[139.7329184,35.7309273],[139.73319,35.7309562],[139.7335002,35.7310041],[139.7337464,35.7310578],[139.7340322,35.7311288],[139.734314,35.7312147],[139.7345821,35.7313096],[139.7349259,35.7314451],[139.735275,35.7315953],[139.7355517,35.7317126],[139.7361396,35.7319516],[139.736531,35.7321132],[139.7369265,35.7322796],[139.7374187,35.7324909],[139.7378675,35.7326865],[139.7381699,35.7328128],[139.7388487,35.7331194],[139.7394571,35.7333581],[139.7399824,35.7335642],[139.7404041,35.7337488],[139.7419362,35.7343817],[139.7435532,35.7350448],[139.7439956,35.7352219],[139.7444512,35.7354078],[139.7448995,35.7355907],[139.7456615,35.7359034],[139.7463757,35.7361948],[139.7472559,35.7365575],[139.7477459,35.7367446],[139.7483874,35.7370137],[139.7487845,35.7371918],[139.7495474,35.7375589],[139.7499595,35.7377615],[139.7501714,35.7378655],[139.7502429,35.7379033],[139.7507664,35.7381588],[139.7516322,35.7385944],[139.7524669,35.7390242],[139.7526302,35.7391076],[139.752932,35.7392652],[139.7533553,35.7394868],[139.753694,35.7396611],[139.7541197,35.7398808],[139.7544111,35.7400321],[139.7546144,35.7401324],[139.7547766,35.7402034],[139.7549313,35.7402611],[139.7550917,35.7403099],[139.7552978,35.7403747],[139.7556271,35.7404435],[139.755809,35.7404614],[139.756053,35.7404765],[139.7563064,35.7404808],[139.7565496,35.7404774],[139.7568406,35.7404397],[139.7571051,35.7403938],[139.7573995,35.7403221],[139.7576717,35.7402348],[139.7578597,35.7401678],[139.7580283,35.7401093],[139.7581459,35.7400587],[139.7583575,35.7399617],[139.7585666,35.739856],[139.758812,35.7397179],[139.7590437,35.7395672],[139.7592677,35.7394034],[139.7598796,35.7388962],[139.7600426,35.7387559],[139.7602148,35.7386151],[139.7607095,35.7381851],[139.7616902,35.7373601],[139.7618613,35.7372159],[139.762105,35.7370104],[139.7624034,35.7367541],[139.7627302,35.7364285],[139.7630144,35.736162],[139.7633333,35.7358839],[139.7639317,35.735352],[139.7642124,35.7350888],[139.7644636,35.734838],[139.7647058,35.7345925],[139.7648904,35.7344125],[139.7650775,35.7342232],[139.7653255,35.7339615],[139.7655512,35.7337003],[139.7658312,35.7333538],[139.7659889,35.733139],[139.7661785,35.7328627],[139.7666408,35.7321892],[139.7667333,35.7320549],[139.7673447,35.7312189],[139.767999,35.7304423],[139.7687374,35.7295924],[139.7689681,35.729326],[139.7692514,35.729016],[139.7695103,35.7287611],[139.7696258,35.728652],[139.7697704,35.7285136],[139.769891,35.7284095],[139.7700142,35.7282992],[139.7700389,35.7282783],[139.7701253,35.7282052],[139.7701527,35.7281821],[139.7702192,35.7281257],[139.7704038,35.7279696],[139.7706447,35.7277613],[139.7711282,35.7273317],[139.7714406,35.7270633],[139.7716078,35.7269324],[139.7717559,35.7268287],[139.7719771,35.7266815],[139.7725998,35.7262715],[139.7728064,35.7261495],[139.7729846,35.7260392],[139.7732729,35.7258363],[139.7735729,35.7256116],[139.7738523,35.7253722],[139.7741297,35.7251164],[139.7746802,35.7246012],[139.7750775,35.7242329],[139.7753454,35.723978],[139.7756825,35.7236762],[139.7760683,35.723312],[139.7763694,35.723028],[139.7767283,35.7226992],[139.7769731,35.7224869],[139.7776178,35.7219469],[139.7777818,35.7218002],[139.7779035,35.7216953],[139.7787056,35.7208666],[139.7789994,35.7205796],[139.7791891,35.7203725],[139.7793096,35.7202217],[139.7794788,35.7199355],[139.7795723,35.7197149],[139.7796339,35.7195266],[139.7796928,35.7192623],[139.7797146,35.7191072],[139.7797172,35.7189987],[139.7797219,35.718862],[139.7797065,35.7186444],[139.7796803,35.7184137],[139.7796346,35.718214],[139.7795652,35.7180063],[139.779482,35.7178141],[139.7793708,35.7175977],[139.7792253,35.7173827],[139.7790403,35.717158],[139.7788655,35.7169671],[139.7786105,35.7166731],[139.7780697,35.7160778],[139.7775914,35.7155338],[139.7774416,35.7153438],[139.7771996,35.7150516],[139.7769856,35.7147941],[139.7767662,35.7145175],[139.7766951,35.7144171],[139.7765951,35.7142985],[139.7763336,35.7139565],[139.7760843,35.7136003],[139.7760278,35.713509],[139.7759781,35.713431],[139.7757834,35.7131379],[139.7756072,35.7128749],[139.7751341,35.7121687],[139.7750738,35.7120877],[139.7749811,35.711934],[139.7749488,35.7118693],[139.774852,35.7116864],[139.7747518,35.7114298],[139.7746715,35.7110961],[139.7746418,35.7107015],[139.7746552,35.7104053],[139.7746957,35.7100947],[139.7747585,35.7098017],[139.7748179,35.7095101],[139.7748664,35.7092166],[139.7748818,35.7089856],[139.7748818,35.7086858],[139.774864,35.708439],[139.7748111,35.708144],[139.7746704,35.707291],[139.7746097,35.7069554],[139.7745628,35.706696],[139.7744892,35.7062525],[139.7744578,35.7060566],[139.7744296,35.7058804],[139.7744102,35.705759],[139.7743274,35.7052625],[139.774285,35.7050152],[139.7742514,35.7048212],[139.7741846,35.7043862],[139.7741627,35.7042462],[139.7740985,35.7038603],[139.7740562,35.7036132],[139.7739872,35.7033145],[139.7738674,35.7029338],[139.7737753,35.7026538],[139.773716,35.7024738],[139.7735891,35.7020825],[139.7735433,35.7019305],[139.7735229,35.701863],[139.7734466,35.7015621],[139.7734314,35.7014808],[139.7733951,35.7012859],[139.7732168,35.6999467],[139.7731742,35.699606],[139.7731466,35.699405],[139.7730078,35.6983584],[139.7729503,35.6979178],[139.7729224,35.6976605],[139.7728984,35.6974615],[139.7728755,35.6972726],[139.7728072,35.6967267],[139.7727312,35.6962842],[139.7726407,35.6958911],[139.7725052,35.6954782],[139.7722265,35.6947497],[139.7721297,35.6945299],[139.7719802,35.6941763],[139.7718785,35.6939646],[139.7717779,35.6937006],[139.7715203,35.6930986],[139.7711259,35.6921363],[139.7709649,35.6917807],[139.7706943,35.6911184],[139.7705887,35.6908726],[139.7704498,35.6905353],[139.7703956,35.6904026],[139.7701591,35.6898394],[139.7700524,35.689577],[139.7699901,35.6894266],[139.7699399,35.6893061],[139.7698706,35.6891373],[139.769789,35.6889386],[139.7697275,35.688789],[139.7695851,35.688442],[139.7695184,35.6882902],[139.7693969,35.6879961],[139.7689944,35.687002],[139.7684758,35.685655],[139.7683045,35.6853019],[139.7681508,35.6849707],[139.7679841,35.6845555],[139.7679459,35.6844572],[139.767799,35.6840666],[139.7676202,35.6836301],[139.7675089,35.6834006],[139.7674415,35.6832595],[139.7673354,35.6830376],[139.7673143,35.6829971],[139.7670187,35.682403],[139.7668288,35.6819877],[139.7667056,35.6816368],[139.7665625,35.6812564],[139.7663834,35.6807803],[139.7662506,35.6804371],[139.7661324,35.6800576],[139.7660084,35.6794984],[139.7659337,35.6791739],[139.7658355,35.6788525],[139.7656995,35.6785019],[139.7654113,35.6777363],[139.7652839,35.6774128],[139.7651511,35.6770965],[139.765092,35.6769701],[139.7650229,35.6768507],[139.7649357,35.6767056],[139.7648823,35.6766114],[139.7647441,35.6764298],[139.7645782,35.6762356],[139.7644419,35.6760966],[139.7642815,35.6759445],[139.7639611,35.6756854],[139.7637076,35.6754867],[139.7630317,35.674973],[139.7624724,35.6745278],[139.7622919,35.6743989],[139.7620612,35.6742184],[139.7618497,35.6740557],[139.7615189,35.6738019],[139.7613708,35.67368],[139.7612872,35.6736064],[139.7612167,35.673539],[139.7611089,35.6734422],[139.760894,35.6732254],[139.7607947,35.673115],[139.7606935,35.6729983],[139.7605125,35.672764],[139.7604003,35.6726119],[139.7602505,35.6723915],[139.7601722,35.672256],[139.7600731,35.672086],[139.7599161,35.6718205],[139.7594349,35.6709581],[139.7589321,35.6700713],[139.7586994,35.6696517],[139.7586043,35.6694858],[139.7584895,35.6692874],[139.7583961,35.669124],[139.7583112,35.6689552],[139.7582353,35.6687882],[139.7581652,35.6686084],[139.7581239,35.6684791],[139.75808,35.6683267],[139.7580363,35.6681122],[139.7580101,35.6679583],[139.7579894,35.6677985],[139.7579675,35.6674015],[139.7579688,35.6672345],[139.7579883,35.6669425],[139.7580397,35.6665545],[139.7580869,35.6661642],[139.7581866,35.6656906],[139.7582174,35.6655116],[139.7582453,35.6653623],[139.7582826,35.665077],[139.7583351,35.6646752],[139.7583804,35.6643951],[139.7584033,35.6642538],[139.7584398,35.6640068],[139.7585143,35.6635024],[139.7585179,35.6634674],[139.7585365,35.6632829],[139.7585528,35.6630848],[139.7585738,35.6626314],[139.7585715,35.6619445],[139.7585634,35.6618436],[139.7585457,35.6616243],[139.7585198,35.6613032],[139.7584663,35.6609193],[139.7583624,35.6603558],[139.7582212,35.6597742],[139.7582026,35.6597044],[139.7578156,35.6581177],[139.7575813,35.6571463],[139.7574608,35.656688],[139.7573756,35.6563665],[139.7572479,35.6558684],[139.757036,35.6551142],[139.7566986,35.6538727],[139.7565016,35.6530869],[139.756422,35.652815],[139.756386,35.6526839],[139.7562788,35.6523471],[139.7561227,35.6519494],[139.7559486,35.6515695],[139.7557382,35.6511512],[139.755492,35.6507346],[139.7552966,35.6504288],[139.7550874,35.6501261],[139.7548684,35.6498627],[139.7545747,35.6495433],[139.753993,35.6490418],[139.7536324,35.6487598],[139.7534375,35.6486239],[139.7532239,35.6484818],[139.7530157,35.6483562],[139.7528502,35.648263],[139.7526166,35.6481455],[139.7522991,35.6479867],[139.7499478,35.6468641],[139.7498588,35.6468216],[139.7497403,35.646765],[139.7490811,35.6464442],[139.7487273,35.6462603],[139.7483321,35.6460642],[139.747672,35.6457543],[139.7473703,35.6456072],[139.7467931,35.6453314],[139.7464471,35.6451617],[139.7462118,35.645043],[139.7459465,35.6448857],[139.745516,35.6446499],[139.7454023,35.6445876],[139.7450077,35.6443612],[139.7445201,35.6440282],[139.7441119,35.6436556],[139.7438144,35.6433151],[139.7436577,35.6431039],[139.7435667,35.6429675],[139.7434617,35.642801],[139.7433647,35.6426279],[139.7431883,35.6422541],[139.7430967,35.6419996],[139.7429958,35.6416699],[139.7428255,35.6409746],[139.742737,35.6405975],[139.7426364,35.6402694],[139.7422433,35.6393527],[139.7420604,35.6389385],[139.7420074,35.6388091],[139.7416183,35.6377775],[139.7415186,35.6375404],[139.741416,35.6373222],[139.7411803,35.636868],[139.7409446,35.6364182],[139.7405284,35.6354416],[139.7400958,35.6344266],[139.7399786,35.6340884],[139.7398746,35.633747],[139.7397643,35.6333728],[139.7396471,35.6330016],[139.7394754,35.632571],[139.7390744,35.6316816],[139.7388766,35.6312611],[139.7387829,35.6310682],[139.7386101,35.6306854],[139.7385058,35.6303986],[139.7384318,35.6300778],[139.7383771,35.629786],[139.7383572,35.6296077],[139.7383447,35.6292775],[139.7383525,35.6286505],[139.7383725,35.6278492],[139.7383929,35.6276502],[139.7384234,35.6274553],[139.7384552,35.6272838],[139.738514,35.6270182],[139.7385575,35.6268291],[139.7385989,35.626636],[139.7386435,35.6264102],[139.738664,35.6262816],[139.7386791,35.626178],[139.7386937,35.6260555],[139.7387053,35.6258643],[139.7387061,35.6256996],[139.7387033,35.6255684],[139.7386964,35.6254052],[139.7386835,35.6252638],[139.7386601,35.6250788],[139.738603,35.6247868],[139.738512,35.6244584],[139.7383202,35.62363],[139.7379613,35.6223533],[139.7377536,35.6215952],[139.7376352,35.6211636],[139.7373904,35.6202708],[139.7373155,35.6199975],[139.7372134,35.6196485],[139.7370832,35.6192574],[139.7369656,35.6190233],[139.7366706,35.6185641],[139.7364896,35.6183469],[139.7363316,35.6181848],[139.7361556,35.6180186],[139.7359582,35.6178593],[139.7357512,35.6177008],[139.7355532,35.6175686],[139.735382,35.6174701],[139.7352783,35.6174147],[139.7351638,35.6173578],[139.7350437,35.6173038],[139.7349342,35.6172563],[139.7347827,35.617201],[139.734649,35.6171574],[139.7344176,35.6170887],[139.7341994,35.6170362],[139.7339684,35.6169844],[139.7337299,35.6169392],[139.7335996,35.6169179],[139.7333632,35.6168891],[139.7331939,35.6168771],[139.7329908,35.6168687],[139.7327861,35.6168657],[139.7325954,35.6168746],[139.7323019,35.6169009],[139.7319959,35.6169486],[139.7317428,35.6170029],[139.731442,35.6170923],[139.7311896,35.6171824],[139.7309372,35.6172915],[139.7306963,35.6174149],[139.73051,35.6175312],[139.7302781,35.6176982],[139.7300711,35.617872],[139.7298947,35.6180432],[139.7296509,35.6183258],[139.7294381,35.6186252],[139.7291384,35.6190293],[139.729053,35.6191457],[139.7288312,35.6194742],[139.7287899,35.6195354],[139.7284021,35.620068],[139.7281934,35.6203172],[139.7277227,35.6208456],[139.7274147,35.621211],[139.7269878,35.6217724],[139.7263213,35.6226503],[139.7260667,35.6229851],[139.7258486,35.6232772],[139.7253846,35.6238961],[139.7251906,35.624144],[139.7249427,35.6244879],[139.7246116,35.6249656],[139.7242754,35.6254818],[139.7242292,35.6255474],[139.7240434,35.6258113],[139.7236933,35.6262896],[139.7235893,35.6264346],[139.7233323,35.6267306],[139.7233096,35.6267528],[139.7230658,35.6269908],[139.722761,35.6272666],[139.7224601,35.6275003],[139.7221572,35.6277324],[139.7218179,35.6279443],[139.7214844,35.6281266],[139.7211336,35.6283011],[139.7207559,35.628471],[139.7202786,35.6286891],[139.7202329,35.6287092],[139.7197374,35.6289274],[139.7190403,35.6292344],[139.7186856,35.6293903],[139.7183789,35.6295305],[139.7181029,35.6296769],[139.717869,35.6298234],[139.7176486,35.6299745],[139.7174262,35.6301459],[139.7172192,35.630336],[139.7170486,35.6305167],[139.7168933,35.630699],[139.7167495,35.6309031],[139.7166173,35.631126],[139.7165088,35.6313366],[139.7164607,35.6314451],[139.7163138,35.6318434],[139.7161168,35.6327161],[139.7160068,35.6332369],[139.715854,35.6338348],[139.7157974,35.6340714],[139.7156418,35.6346722],[139.715611,35.6347536],[139.7155777,35.6348326],[139.7154981,35.6350073],[139.715458,35.6351034],[139.7154284,35.6351897],[139.7153469,35.6354673],[139.7151202,35.6362815],[139.71507,35.6364729],[139.7150199,35.6367024],[139.7149916,35.6369114],[139.7149676,35.637109],[139.7149392,35.6374156],[139.7149022,35.6376566],[139.7148455,35.6378825],[139.7147703,35.6381049],[139.7147038,35.6382626],[139.7146285,35.6384052],[139.714605,35.6384427],[139.7145619,35.6385113],[139.7145217,35.6385753],[139.7144029,35.6387472],[139.7141719,35.6390747],[139.7140501,35.6392549],[139.7139337,35.6394422],[139.7138301,35.6396356],[139.7137461,35.6398122],[139.7136863,35.6399533],[139.713595,35.6401687],[139.7134871,35.6404212],[139.7133275,35.6407833],[139.713134,35.6411623],[139.7129421,35.6415219],[139.7127316,35.6418971],[139.7125482,35.642241],[139.712367,35.6425693],[139.7119891,35.6432781],[139.711654,35.6438689],[139.7114351,35.6442375],[139.7110157,35.6449429],[139.7105147,35.6458882],[139.7105103,35.6458956],[139.7101899,35.6464346],[139.7100432,35.6466996],[139.709749,35.6472165],[139.7095442,35.6476649],[139.7093986,35.6479838],[139.7092114,35.6483485],[139.7090276,35.6486803],[139.7086997,35.6492622],[139.7086552,35.6493436],[139.7084211,35.6497753],[139.7081989,35.6501937],[139.7080359,35.6504726],[139.7078486,35.6507728],[139.7077729,35.6508871],[139.7076292,35.6510872],[139.7074175,35.6513586],[139.7072661,35.6515381],[139.7071903,35.651628],[139.7070612,35.6517766],[139.7067588,35.6521264],[139.706287,35.652663],[139.7060029,35.6529912],[139.7057507,35.6532806],[139.7053801,35.6536686],[139.7051337,35.6538896],[139.7048789,35.6541227],[139.7046252,35.6543653],[139.7044084,35.6546032],[139.7039365,35.6551469],[139.7034143,35.6557425],[139.7028739,35.6563684],[139.7026834,35.656593],[139.702574,35.6567346],[139.7024836,35.6568617],[139.7023384,35.6570769],[139.7019243,35.6577766],[139.7017508,35.6580748],[139.7016003,35.6583506],[139.7015301,35.6585027],[139.7014802,35.6586322],[139.7014237,35.6587797],[139.7013698,35.6589469],[139.7013301,35.659095],[139.7013059,35.6591939],[139.7012813,35.6593219],[139.7012499,35.6596065],[139.7012465,35.6598394],[139.7012608,35.6601369],[139.7012842,35.6604984],[139.701311,35.6608341],[139.7013437,35.6612249],[139.7014004,35.6619989],[139.7014112,35.6621555],[139.7014246,35.6623451],[139.7015103,35.6632256],[139.7015172,35.6632943],[139.7015549,35.6635677],[139.7015704,35.6636882],[139.7016261,35.6640628],[139.7016829,35.6644691],[139.7017375,35.6648744],[139.7017979,35.6653115],[139.7018512,35.6656928],[139.7018637,35.6657839],[139.7019128,35.6661424],[139.7019648,35.6665202],[139.7020195,35.6669021],[139.702074,35.6673084],[139.7021297,35.6677118],[139.7021807,35.6680516],[139.7022257,35.6683838],[139.7023715,35.6695198],[139.7024236,35.66993],[139.7024377,35.6700246],[139.7024696,35.6702171],[139.7025307,35.6705091],[139.7025646,35.6706538],[139.7025819,35.6707278],[139.7026022,35.6708146],[139.7027348,35.6714289],[139.7028089,35.6717568],[139.7029055,35.672102],[139.7035571,35.6739214],[139.7036427,35.6742007],[139.7037325,35.6744756],[139.7038372,35.6748016],[139.7039114,35.6750429],[139.7039623,35.6752784],[139.7039968,35.6755408],[139.7040139,35.6757944],[139.7040107,35.6760819],[139.703995,35.6763774],[139.7039716,35.6768122],[139.7039418,35.6772506],[139.7039079,35.6776568],[139.7038546,35.678062],[139.7037868,35.6784521],[139.7037084,35.6788128],[139.7036006,35.6792063],[139.7034921,35.6796056],[139.7033568,35.6800995],[139.703316,35.6802499],[139.7031391,35.680895],[139.7030561,35.6812005],[139.702965,35.6815312],[139.7029405,35.6816179],[139.7029135,35.6817045],[139.7028842,35.6817973],[139.7028514,35.6818887],[139.7028052,35.6820052],[139.70278,35.6820645],[139.7027539,35.6821237],[139.7027299,35.6821788],[139.7027036,35.6822354],[139.7026005,35.6824464],[139.702566,35.6825169],[139.7024763,35.6827005],[139.7023896,35.6828841],[139.7023696,35.6829262],[139.7023353,35.682999],[139.7022999,35.6830754],[139.7022646,35.6831556],[139.7022241,35.6832578],[139.702194,35.6833423],[139.7021719,35.6834121],[139.7021418,35.683518],[139.7020353,35.6839438],[139.7018981,35.6844896],[139.701866,35.6846102],[139.7018303,35.684733],[139.7017823,35.6848877],[139.7017509,35.6849783],[139.7017186,35.6850675],[139.7016689,35.6852006],[139.7015943,35.6853765],[139.7015126,35.6855622],[139.7014274,35.6857517],[139.7013615,35.6858997],[139.701298,35.6860496],[139.7012432,35.6861857],[139.7012169,35.6862537],[139.7011919,35.6863236],[139.7011482,35.6864585],[139.701108,35.6865953],[139.7010386,35.6868372],[139.7010009,35.6869681],[139.7009854,35.6870221],[139.7009672,35.6870782],[139.7009231,35.6872065],[139.7008724,35.6873348],[139.7008165,35.6874615],[139.7007611,35.6875884],[139.7006519,35.6878421],[139.7006075,35.6879558],[139.7005775,35.6880416],[139.7005429,35.6881512],[139.7004984,35.6883096],[139.7004551,35.6884775],[139.7003719,35.688807],[139.7003245,35.6889925],[139.7002041,35.6894647],[139.7001655,35.6896379],[139.7001341,35.6898127],[139.7001128,35.6899509],[139.7000939,35.6900891],[139.7000708,35.6902795],[139.7000511,35.6904718],[139.700034,35.6907195],[139.7000276,35.690837],[139.7000239,35.690901],[139.7000223,35.6909726],[139.7000196,35.6911113],[139.7000201,35.6912493],[139.7000225,35.6913878],[139.7000261,35.6915823],[139.7000297,35.6917739],[139.7000322,35.6919492],[139.700035,35.6920823],[139.7000354,35.6921922],[139.7000312,35.692302],[139.7000274,35.6923697],[139.7000253,35.6924048],[139.7000227,35.6924366],[139.7000151,35.6925059],[139.7000061,35.692571],[139.6999931,35.6926602],[139.6999754,35.6927507],[139.6999347,35.6929291],[139.6998256,35.6933584],[139.6997011,35.6938759],[139.6995931,35.6942708],[139.6994852,35.6946971],[139.699429,35.6949438],[139.6993881,35.6951835],[139.6993642,35.6953839],[139.699355,35.6956562],[139.699365,35.6959028],[139.6994043,35.6961952],[139.699437,35.696338],[139.6994993,35.6965758],[139.6995716,35.6968106],[139.6996355,35.6970009],[139.6997173,35.6972569],[139.6997499,35.6973638],[139.6999106,35.6979199],[139.6999647,35.698212],[139.7000259,35.6985778],[139.7000953,35.6992473],[139.7001343,35.6996478],[139.7001419,35.699719],[139.7002856,35.7011963],[139.7002955,35.701298],[139.700303,35.7013747],[139.7003174,35.701528],[139.7003652,35.7020275],[139.7004021,35.7024057],[139.7004431,35.7028128],[139.7004895,35.7032244],[139.7005592,35.7036303],[139.700648,35.7039864],[139.7006793,35.704107],[139.7007026,35.7041916],[139.7008941,35.704763],[139.7010277,35.7051378],[139.701152,35.7054905],[139.7021101,35.7082326],[139.7024866,35.7092691],[139.7025916,35.7095795],[139.7028478,35.7102936],[139.7029851,35.7106879],[139.703251,35.7114434],[139.7034631,35.7120354],[139.7036846,35.7126771],[139.704026,35.7136692],[139.7040664,35.7137877],[139.7040982,35.7138768],[139.7042337,35.7142647],[139.7043652,35.7146404],[139.7044091,35.714767],[139.7046053,35.7153402],[139.7046642,35.7155025],[139.704816,35.7159563],[139.7048877,35.7161983],[139.7052317,35.717361],[139.7052773,35.7175089],[139.7055973,35.7185484],[139.7058459,35.7192678],[139.7062634,35.7204849],[139.7064279,35.72093],[139.7064461,35.7209861],[139.7065164,35.7211785],[139.7065973,35.7213847],[139.7067643,35.7217567],[139.7068031,35.7218525],[139.7071379,35.7225057],[139.7079144,35.724002],[139.7082515,35.7246461],[139.708512,35.7250923],[139.7086438,35.725316],[139.7088612,35.7256851],[139.7090309,35.7260163],[139.7092075,35.7263604],[139.7093975,35.7267354],[139.7095863,35.7271103],[139.7097395,35.7274059],[139.7098887,35.7277121],[139.7100409,35.7280834],[139.7101335,35.7283168]]}}